{
  "type": "FeatureCollection",
  "bbox": [
    -75.340464,
    6.133821,
    -75.267651,
    6.169916
  ],
  "features": [
    {
      "bbox": [
        -75.340464,
        6.133821,
        -75.267651,
        6.169916
      ],
      "type": "Feature",
      "properties": {
        "way_points": [
          0,
          167
        ],
        "summary": {
          "distance": 11090.6,
          "duration": 1273.1
        }
      },
      "geometry": {
        "coordinates": [
          [
            -75.267651,
            6.138547
          ],
          [
            -75.268014,
            6.138561
          ],
          [
            -75.26812,
            6.138553
          ],
          [
            -75.268226,
            6.138501
          ],
          [
            -75.268475,
            6.138429
          ],
          [
            -75.26884,
            6.13824
          ],
          [
            -75.26912,
            6.137885
          ],
          [
            -75.269158,
            6.137813
          ],
          [
            -75.269168,
            6.1372
          ],
          [
            -75.269205,
            6.137117
          ],
          [
            -75.269306,
            6.137016
          ],
          [
            -75.269488,
            6.136906
          ],
          [
            -75.269417,
            6.136843
          ],
          [
            -75.269302,
            6.136681
          ],
          [
            -75.269174,
            6.136567
          ],
          [
            -75.269099,
            6.136468
          ],
          [
            -75.268957,
            6.136211
          ],
          [
            -75.268986,
            6.136085
          ],
          [
            -75.269172,
            6.135672
          ],
          [
            -75.269396,
            6.135123
          ],
          [
            -75.270347,
            6.134852
          ],
          [
            -75.270692,
            6.134762
          ],
          [
            -75.271316,
            6.134642
          ],
          [
            -75.272625,
            6.134561
          ],
          [
            -75.274148,
            6.134494
          ],
          [
            -75.274522,
            6.134535
          ],
          [
            -75.27478,
            6.134586
          ],
          [
            -75.275019,
            6.13463
          ],
          [
            -75.275454,
            6.134752
          ],
          [
            -75.275621,
            6.134811
          ],
          [
            -75.275884,
            6.134937
          ],
          [
            -75.276646,
            6.135363
          ],
          [
            -75.276914,
            6.135545
          ],
          [
            -75.27706,
            6.135651
          ],
          [
            -75.27732,
            6.135899
          ],
          [
            -75.277596,
            6.136127
          ],
          [
            -75.277781,
            6.136251
          ],
          [
            -75.277976,
            6.136358
          ],
          [
            -75.278179,
            6.136448
          ],
          [
            -75.278766,
            6.136586
          ],
          [
            -75.279032,
            6.136664
          ],
          [
            -75.280077,
            6.13713
          ],
          [
            -75.280594,
            6.137282
          ],
          [
            -75.28083,
            6.137339
          ],
          [
            -75.281087,
            6.137372
          ],
          [
            -75.281647,
            6.137412
          ],
          [
            -75.282065,
            6.137386
          ],
          [
            -75.282551,
            6.13733
          ],
          [
            -75.28513,
            6.136853
          ],
          [
            -75.285495,
            6.136713
          ],
          [
            -75.285818,
            6.136513
          ],
          [
            -75.286126,
            6.136304
          ],
          [
            -75.286453,
            6.136041
          ],
          [
            -75.287071,
            6.135449
          ],
          [
            -75.288072,
            6.134508
          ],
          [
            -75.288453,
            6.134236
          ],
          [
            -75.288859,
            6.134033
          ],
          [
            -75.289225,
            6.13392
          ],
          [
            -75.289531,
            6.13385
          ],
          [
            -75.289797,
            6.133822
          ],
          [
            -75.29024,
            6.133821
          ],
          [
            -75.29088,
            6.133942
          ],
          [
            -75.293578,
            6.134831
          ],
          [
            -75.294081,
            6.1351
          ],
          [
            -75.294565,
            6.135403
          ],
          [
            -75.295001,
            6.135776
          ],
          [
            -75.295777,
            6.136405
          ],
          [
            -75.296441,
            6.137158
          ],
          [
            -75.298838,
            6.140358
          ],
          [
            -75.299218,
            6.140718
          ],
          [
            -75.29997,
            6.141112
          ],
          [
            -75.300641,
            6.141277
          ],
          [
            -75.30129,
            6.141313
          ],
          [
            -75.302672,
            6.141252
          ],
          [
            -75.303401,
            6.141316
          ],
          [
            -75.304683,
            6.141531
          ],
          [
            -75.305043,
            6.141598
          ],
          [
            -75.305431,
            6.141695
          ],
          [
            -75.305912,
            6.141927
          ],
          [
            -75.306168,
            6.142089
          ],
          [
            -75.306628,
            6.142477
          ],
          [
            -75.308181,
            6.144248
          ],
          [
            -75.308842,
            6.145002
          ],
          [
            -75.309163,
            6.145361
          ],
          [
            -75.309704,
            6.145975
          ],
          [
            -75.309973,
            6.146278
          ],
          [
            -75.310017,
            6.146327
          ],
          [
            -75.310068,
            6.146384
          ],
          [
            -75.31133,
            6.147806
          ],
          [
            -75.311863,
            6.148408
          ],
          [
            -75.31209,
            6.148678
          ],
          [
            -75.312427,
            6.149213
          ],
          [
            -75.312613,
            6.149691
          ],
          [
            -75.312715,
            6.150076
          ],
          [
            -75.312736,
            6.150519
          ],
          [
            -75.312677,
            6.152221
          ],
          [
            -75.312671,
            6.152397
          ],
          [
            -75.312743,
            6.153011
          ],
          [
            -75.312872,
            6.153418
          ],
          [
            -75.313066,
            6.153889
          ],
          [
            -75.313303,
            6.154221
          ],
          [
            -75.314293,
            6.155372
          ],
          [
            -75.315149,
            6.156367
          ],
          [
            -75.316063,
            6.157418
          ],
          [
            -75.316598,
            6.158097
          ],
          [
            -75.317828,
            6.159545
          ],
          [
            -75.318274,
            6.160153
          ],
          [
            -75.318667,
            6.160837
          ],
          [
            -75.318896,
            6.161367
          ],
          [
            -75.318989,
            6.161576
          ],
          [
            -75.319101,
            6.161898
          ],
          [
            -75.319248,
            6.16255
          ],
          [
            -75.319607,
            6.164691
          ],
          [
            -75.319651,
            6.164935
          ],
          [
            -75.319783,
            6.165269
          ],
          [
            -75.319967,
            6.165635
          ],
          [
            -75.32029,
            6.16607
          ],
          [
            -75.320585,
            6.166363
          ],
          [
            -75.32077,
            6.166499
          ],
          [
            -75.32103,
            6.166691
          ],
          [
            -75.321197,
            6.166762
          ],
          [
            -75.32179,
            6.167014
          ],
          [
            -75.322734,
            6.167311
          ],
          [
            -75.32489,
            6.168001
          ],
          [
            -75.325551,
            6.168153
          ],
          [
            -75.325807,
            6.168193
          ],
          [
            -75.327842,
            6.168424
          ],
          [
            -75.329544,
            6.168597
          ],
          [
            -75.330172,
            6.168701
          ],
          [
            -75.330759,
            6.168738
          ],
          [
            -75.331122,
            6.168727
          ],
          [
            -75.331509,
            6.168687
          ],
          [
            -75.331948,
            6.168633
          ],
          [
            -75.332206,
            6.168587
          ],
          [
            -75.332713,
            6.168492
          ],
          [
            -75.332959,
            6.168441
          ],
          [
            -75.333436,
            6.168352
          ],
          [
            -75.333621,
            6.168324
          ],
          [
            -75.334424,
            6.168179
          ],
          [
            -75.334797,
            6.168095
          ],
          [
            -75.335079,
            6.168047
          ],
          [
            -75.335297,
            6.168008
          ],
          [
            -75.335616,
            6.16798
          ],
          [
            -75.335907,
            6.168005
          ],
          [
            -75.336476,
            6.168005
          ],
          [
            -75.336794,
            6.168037
          ],
          [
            -75.337058,
            6.168094
          ],
          [
            -75.337569,
            6.16825
          ],
          [
            -75.337895,
            6.168356
          ],
          [
            -75.337982,
            6.1684
          ],
          [
            -75.338086,
            6.168448
          ],
          [
            -75.33843,
            6.168643
          ],
          [
            -75.338723,
            6.168833
          ],
          [
            -75.339931,
            6.169667
          ],
          [
            -75.340055,
            6.169713
          ],
          [
            -75.34037,
            6.169916
          ],
          [
            -75.340444,
            6.169901
          ],
          [
            -75.340462,
            6.169878
          ],
          [
            -75.340464,
            6.169812
          ],
          [
            -75.340448,
            6.169788
          ],
          [
            -75.339899,
            6.169398
          ],
          [
            -75.339758,
            6.169241
          ],
          [
            -75.33881,
            6.168569
          ],
          [
            -75.33887,
            6.168377
          ],
          [
            -75.338929,
            6.168175
          ],
          [
            -75.339118,
            6.167564
          ],
          [
            -75.339203,
            6.167289
          ],
          [
            -75.339226,
            6.167196
          ]
        ],
        "type": "LineString"
      }
    }
  ],
  "metadata": {
    "attribution": "openrouteservice.org | OpenStreetMap contributors",
    "service": "routing",
    "timestamp": 1764859124682,
    "query": {
      "coordinates": [
        [
          -75.26764709999999,
          6.138652
        ],
        [
          -75.3390964,
          6.167163599999999
        ]
      ],
      "profile": "driving-hgv",
      "profileName": "driving-hgv",
      "preference": "recommended",
      "format": "geojson",
      "language": "es",
      "options": {
        "profile_params": {
          "restrictions": {
            "length": 8.0,
            "width": 2.5,
            "height": 3.5
          },
          "surface_quality_known": false,
          "allow_unsuitable": false
        },
        "avoid_polygons": {
          "coordinates": [
            [
              [
                [
                  -75.53398800000001,
                  6.1525436
                ],
                [
                  -75.531988,
                  6.1525436
                ],
                [
                  -75.531988,
                  6.1545436
                ],
                [
                  -75.53398800000001,
                  6.1545436
                ],
                [
                  -75.53398800000001,
                  6.1525436
                ]
              ]
            ],
            [
              [
                [
                  -75.49099790000001,
                  6.0932509999999995
                ],
                [
                  -75.4889979,
                  6.0932509999999995
                ],
                [
                  -75.4889979,
                  6.095251
                ],
                [
                  -75.49099790000001,
                  6.095251
                ],
                [
                  -75.49099790000001,
                  6.0932509999999995
                ]
              ]
            ],
            [
              [
                [
                  -75.44939930000001,
                  6.1764060999999995
                ],
                [
                  -75.4473993,
                  6.1764060999999995
                ],
                [
                  -75.4473993,
                  6.1784061
                ],
                [
                  -75.44939930000001,
                  6.1784061
                ],
                [
                  -75.44939930000001,
                  6.1764060999999995
                ]
              ]
            ],
            [
              [
                [
                  -75.4890572,
                  6.2037862
                ],
                [
                  -75.4870572,
                  6.2037862
                ],
                [
                  -75.4870572,
                  6.2057862
                ],
                [
                  -75.4890572,
                  6.2057862
                ],
                [
                  -75.4890572,
                  6.2037862
                ]
              ]
            ],
            [
              [
                [
                  -75.46672650000001,
                  6.1850524
                ],
                [
                  -75.4647265,
                  6.1850524
                ],
                [
                  -75.4647265,
                  6.187052400000001
                ],
                [
                  -75.46672650000001,
                  6.187052400000001
                ],
                [
                  -75.46672650000001,
                  6.1850524
                ]
              ]
            ],
            [
              [
                [
                  -75.5035304,
                  6.2159613
                ],
                [
                  -75.5015304,
                  6.2159613
                ],
                [
                  -75.5015304,
                  6.217961300000001
                ],
                [
                  -75.5035304,
                  6.217961300000001
                ],
                [
                  -75.5035304,
                  6.2159613
                ]
              ]
            ],
            [
              [
                [
                  -75.4913478,
                  6.170510299999999
                ],
                [
                  -75.48934779999999,
                  6.170510299999999
                ],
                [
                  -75.48934779999999,
                  6.1725103
                ],
                [
                  -75.4913478,
                  6.1725103
                ],
                [
                  -75.4913478,
                  6.170510299999999
                ]
              ]
            ],
            [
              [
                [
                  -75.5250472,
                  6.1422792
                ],
                [
                  -75.5230472,
                  6.1422792
                ],
                [
                  -75.5230472,
                  6.144279200000001
                ],
                [
                  -75.5250472,
                  6.144279200000001
                ],
                [
                  -75.5250472,
                  6.1422792
                ]
              ]
            ],
            [
              [
                [
                  -75.42459550000001,
                  6.123615999999999
                ],
                [
                  -75.4225955,
                  6.123615999999999
                ],
                [
                  -75.4225955,
                  6.125616
                ],
                [
                  -75.42459550000001,
                  6.125616
                ],
                [
                  -75.42459550000001,
                  6.123615999999999
                ]
              ]
            ],
            [
              [
                [
                  -75.5600752,
                  6.2197343
                ],
                [
                  -75.55807519999999,
                  6.2197343
                ],
                [
                  -75.55807519999999,
                  6.2217343000000005
                ],
                [
                  -75.5600752,
                  6.2217343000000005
                ],
                [
                  -75.5600752,
                  6.2197343
                ]
              ]
            ],
            [
              [
                [
                  -75.4291982,
                  6.0892721
                ],
                [
                  -75.42719819999999,
                  6.0892721
                ],
                [
                  -75.42719819999999,
                  6.0912721
                ],
                [
                  -75.4291982,
                  6.0912721
                ],
                [
                  -75.4291982,
                  6.0892721
                ]
              ]
            ],
            [
              [
                [
                  -75.50124240000001,
                  6.1697112
                ],
                [
                  -75.4992424,
                  6.1697112
                ],
                [
                  -75.4992424,
                  6.171711200000001
                ],
                [
                  -75.50124240000001,
                  6.171711200000001
                ],
                [
                  -75.50124240000001,
                  6.1697112
                ]
              ]
            ],
            [
              [
                [
                  -75.4364807,
                  6.1772187
                ],
                [
                  -75.4344807,
                  6.1772187
                ],
                [
                  -75.4344807,
                  6.179218700000001
                ],
                [
                  -75.4364807,
                  6.179218700000001
                ],
                [
                  -75.4364807,
                  6.1772187
                ]
              ]
            ],
            [
              [
                [
                  -75.4336162,
                  6.2493549999999995
                ],
                [
                  -75.4316162,
                  6.2493549999999995
                ],
                [
                  -75.4316162,
                  6.251355
                ],
                [
                  -75.4336162,
                  6.251355
                ],
                [
                  -75.4336162,
                  6.2493549999999995
                ]
              ]
            ],
            [
              [
                [
                  -75.555226,
                  6.133627199999999
                ],
                [
                  -75.553226,
                  6.133627199999999
                ],
                [
                  -75.553226,
                  6.1356272
                ],
                [
                  -75.555226,
                  6.1356272
                ],
                [
                  -75.555226,
                  6.133627199999999
                ]
              ]
            ],
            [
              [
                [
                  -75.481297,
                  6.089910199999999
                ],
                [
                  -75.47929699999999,
                  6.089910199999999
                ],
                [
                  -75.47929699999999,
                  6.0919102
                ],
                [
                  -75.481297,
                  6.0919102
                ],
                [
                  -75.481297,
                  6.089910199999999
                ]
              ]
            ],
            [
              [
                [
                  -75.4232837,
                  6.059844
                ],
                [
                  -75.42128369999999,
                  6.059844
                ],
                [
                  -75.42128369999999,
                  6.061844000000001
                ],
                [
                  -75.4232837,
                  6.061844000000001
                ],
                [
                  -75.4232837,
                  6.059844
                ]
              ]
            ],
            [
              [
                [
                  -75.4577368,
                  6.0576535
                ],
                [
                  -75.4557368,
                  6.0576535
                ],
                [
                  -75.4557368,
                  6.0596535000000005
                ],
                [
                  -75.4577368,
                  6.0596535000000005
                ],
                [
                  -75.4577368,
                  6.0576535
                ]
              ]
            ],
            [
              [
                [
                  -75.43430260000001,
                  6.1414703
                ],
                [
                  -75.4323026,
                  6.1414703
                ],
                [
                  -75.4323026,
                  6.143470300000001
                ],
                [
                  -75.43430260000001,
                  6.143470300000001
                ],
                [
                  -75.43430260000001,
                  6.1414703
                ]
              ]
            ],
            [
              [
                [
                  -75.452403,
                  6.112123599999999
                ],
                [
                  -75.450403,
                  6.112123599999999
                ],
                [
                  -75.450403,
                  6.1141236
                ],
                [
                  -75.452403,
                  6.1141236
                ],
                [
                  -75.452403,
                  6.112123599999999
                ]
              ]
            ],
            [
              [
                [
                  -75.6342218,
                  6.0668213
                ],
                [
                  -75.6322218,
                  6.0668213
                ],
                [
                  -75.6322218,
                  6.068821300000001
                ],
                [
                  -75.6342218,
                  6.068821300000001
                ],
                [
                  -75.6342218,
                  6.0668213
                ]
              ]
            ],
            [
              [
                [
                  -75.4502234,
                  6.0178674
                ],
                [
                  -75.44822339999999,
                  6.0178674
                ],
                [
                  -75.44822339999999,
                  6.019867400000001
                ],
                [
                  -75.4502234,
                  6.019867400000001
                ],
                [
                  -75.4502234,
                  6.0178674
                ]
              ]
            ],
            [
              [
                [
                  -75.4329548,
                  6.008317399999999
                ],
                [
                  -75.4309548,
                  6.008317399999999
                ],
                [
                  -75.4309548,
                  6.0103174
                ],
                [
                  -75.4329548,
                  6.0103174
                ],
                [
                  -75.4329548,
                  6.008317399999999
                ]
              ]
            ],
            [
              [
                [
                  -75.4134652,
                  6.022465599999999
                ],
                [
                  -75.4114652,
                  6.022465599999999
                ],
                [
                  -75.4114652,
                  6.0244656
                ],
                [
                  -75.4134652,
                  6.0244656
                ],
                [
                  -75.4134652,
                  6.022465599999999
                ]
              ]
            ],
            [
              [
                [
                  -75.3412419,
                  6.138306399999999
                ],
                [
                  -75.33924189999999,
                  6.138306399999999
                ],
                [
                  -75.33924189999999,
                  6.1403064
                ],
                [
                  -75.3412419,
                  6.1403064
                ],
                [
                  -75.3412419,
                  6.138306399999999
                ]
              ]
            ]
          ],
          "type": "MultiPolygon"
        }
      }
    },
    "engine": {
      "version": "9.5.0",
      "build_date": "2025-10-31T12:33:09Z",
      "graph_date": "2025-12-01T03:52:42Z",
      "osm_date": "2025-11-24T00:59:59Z"
    }
  }
}