{
  "type": "FeatureCollection",
  "bbox": [
    -75.338519,
    6.133668,
    -75.266747,
    6.175777
  ],
  "features": [
    {
      "bbox": [
        -75.338519,
        6.133668,
        -75.266747,
        6.175777
      ],
      "type": "Feature",
      "properties": {
        "way_points": [
          0,
          251
        ],
        "summary": {
          "distance": 11951.1,
          "duration": 1489.7
        }
      },
      "geometry": {
        "coordinates": [
          [
            -75.337807,
            6.175745
          ],
          [
            -75.337949,
            6.175777
          ],
          [
            -75.338118,
            6.175445
          ],
          [
            -75.338256,
            6.175163
          ],
          [
            -75.338519,
            6.17444
          ],
          [
            -75.338242,
            6.174375
          ],
          [
            -75.338274,
            6.174281
          ],
          [
            -75.338265,
            6.174178
          ],
          [
            -75.338168,
            6.173741
          ],
          [
            -75.338188,
            6.173654
          ],
          [
            -75.33815,
            6.173643
          ],
          [
            -75.338144,
            6.173441
          ],
          [
            -75.338244,
            6.173055
          ],
          [
            -75.338075,
            6.173029
          ],
          [
            -75.337806,
            6.172984
          ],
          [
            -75.337593,
            6.172967
          ],
          [
            -75.337487,
            6.172958
          ],
          [
            -75.337173,
            6.17287
          ],
          [
            -75.337054,
            6.172836
          ],
          [
            -75.336708,
            6.172854
          ],
          [
            -75.336632,
            6.172836
          ],
          [
            -75.3364,
            6.172742
          ],
          [
            -75.336339,
            6.172695
          ],
          [
            -75.336095,
            6.172429
          ],
          [
            -75.335872,
            6.17219
          ],
          [
            -75.335611,
            6.171997
          ],
          [
            -75.335325,
            6.171839
          ],
          [
            -75.334907,
            6.171684
          ],
          [
            -75.33473,
            6.171607
          ],
          [
            -75.334612,
            6.171572
          ],
          [
            -75.334451,
            6.171519
          ],
          [
            -75.33415,
            6.171483
          ],
          [
            -75.333589,
            6.171442
          ],
          [
            -75.333106,
            6.171436
          ],
          [
            -75.332839,
            6.171407
          ],
          [
            -75.332733,
            6.171373
          ],
          [
            -75.332517,
            6.171269
          ],
          [
            -75.331915,
            6.170877
          ],
          [
            -75.331613,
            6.17064
          ],
          [
            -75.331307,
            6.170547
          ],
          [
            -75.331241,
            6.1703
          ],
          [
            -75.331211,
            6.170176
          ],
          [
            -75.33117,
            6.170012
          ],
          [
            -75.331128,
            6.169862
          ],
          [
            -75.330985,
            6.169283
          ],
          [
            -75.330936,
            6.16896
          ],
          [
            -75.331006,
            6.168833
          ],
          [
            -75.331122,
            6.168727
          ],
          [
            -75.331509,
            6.168687
          ],
          [
            -75.331948,
            6.168633
          ],
          [
            -75.332206,
            6.168587
          ],
          [
            -75.332713,
            6.168492
          ],
          [
            -75.332787,
            6.168436
          ],
          [
            -75.33285,
            6.168412
          ],
          [
            -75.333051,
            6.168342
          ],
          [
            -75.33332,
            6.168275
          ],
          [
            -75.333368,
            6.168223
          ],
          [
            -75.333387,
            6.168152
          ],
          [
            -75.333379,
            6.168104
          ],
          [
            -75.333337,
            6.168039
          ],
          [
            -75.333279,
            6.168005
          ],
          [
            -75.333096,
            6.168027
          ],
          [
            -75.332971,
            6.168064
          ],
          [
            -75.332719,
            6.168186
          ],
          [
            -75.332493,
            6.168275
          ],
          [
            -75.332378,
            6.168266
          ],
          [
            -75.332219,
            6.168329
          ],
          [
            -75.331997,
            6.168425
          ],
          [
            -75.331564,
            6.16853
          ],
          [
            -75.331141,
            6.168593
          ],
          [
            -75.330848,
            6.168608
          ],
          [
            -75.330414,
            6.168588
          ],
          [
            -75.329709,
            6.168483
          ],
          [
            -75.329063,
            6.168409
          ],
          [
            -75.328548,
            6.168308
          ],
          [
            -75.328078,
            6.168172
          ],
          [
            -75.327642,
            6.168076
          ],
          [
            -75.32725,
            6.168037
          ],
          [
            -75.326873,
            6.168035
          ],
          [
            -75.32643,
            6.168029
          ],
          [
            -75.32608,
            6.168037
          ],
          [
            -75.325816,
            6.168026
          ],
          [
            -75.325571,
            6.168005
          ],
          [
            -75.325271,
            6.167956
          ],
          [
            -75.324934,
            6.167873
          ],
          [
            -75.324554,
            6.167746
          ],
          [
            -75.32389,
            6.167551
          ],
          [
            -75.323468,
            6.167385
          ],
          [
            -75.322019,
            6.166913
          ],
          [
            -75.32183,
            6.166866
          ],
          [
            -75.321185,
            6.166599
          ],
          [
            -75.320995,
            6.166497
          ],
          [
            -75.320674,
            6.166261
          ],
          [
            -75.320393,
            6.165982
          ],
          [
            -75.320099,
            6.165556
          ],
          [
            -75.319904,
            6.165214
          ],
          [
            -75.319789,
            6.16489
          ],
          [
            -75.319509,
            6.16329
          ],
          [
            -75.319318,
            6.162218
          ],
          [
            -75.319243,
            6.161855
          ],
          [
            -75.319008,
            6.161241
          ],
          [
            -75.31875,
            6.160702
          ],
          [
            -75.318409,
            6.160065
          ],
          [
            -75.317861,
            6.159333
          ],
          [
            -75.317562,
            6.158972
          ],
          [
            -75.317309,
            6.15861
          ],
          [
            -75.316922,
            6.157977
          ],
          [
            -75.316852,
            6.157851
          ],
          [
            -75.316586,
            6.15748
          ],
          [
            -75.316396,
            6.15728
          ],
          [
            -75.316183,
            6.157099
          ],
          [
            -75.316157,
            6.157079
          ],
          [
            -75.315668,
            6.156717
          ],
          [
            -75.315504,
            6.156547
          ],
          [
            -75.314787,
            6.155711
          ],
          [
            -75.314106,
            6.154916
          ],
          [
            -75.313357,
            6.154031
          ],
          [
            -75.313015,
            6.153363
          ],
          [
            -75.312886,
            6.152978
          ],
          [
            -75.312816,
            6.152395
          ],
          [
            -75.312825,
            6.151966
          ],
          [
            -75.312837,
            6.151594
          ],
          [
            -75.312861,
            6.150851
          ],
          [
            -75.312863,
            6.150766
          ],
          [
            -75.312871,
            6.150518
          ],
          [
            -75.312849,
            6.150056
          ],
          [
            -75.312743,
            6.149649
          ],
          [
            -75.312572,
            6.149211
          ],
          [
            -75.31237,
            6.148846
          ],
          [
            -75.312281,
            6.148715
          ],
          [
            -75.311975,
            6.148335
          ],
          [
            -75.311349,
            6.147627
          ],
          [
            -75.311267,
            6.14753
          ],
          [
            -75.310896,
            6.147107
          ],
          [
            -75.310782,
            6.146964
          ],
          [
            -75.31056,
            6.146603
          ],
          [
            -75.310162,
            6.14599
          ],
          [
            -75.309916,
            6.145656
          ],
          [
            -75.309586,
            6.145307
          ],
          [
            -75.309366,
            6.145124
          ],
          [
            -75.308625,
            6.14452
          ],
          [
            -75.308157,
            6.144044
          ],
          [
            -75.306316,
            6.141969
          ],
          [
            -75.306123,
            6.14177
          ],
          [
            -75.305912,
            6.141587
          ],
          [
            -75.305687,
            6.141424
          ],
          [
            -75.305448,
            6.14128
          ],
          [
            -75.305119,
            6.141123
          ],
          [
            -75.304775,
            6.141004
          ],
          [
            -75.304419,
            6.140924
          ],
          [
            -75.304073,
            6.140886
          ],
          [
            -75.303725,
            6.140884
          ],
          [
            -75.303379,
            6.140919
          ],
          [
            -75.302732,
            6.141064
          ],
          [
            -75.301973,
            6.141184
          ],
          [
            -75.301644,
            6.141204
          ],
          [
            -75.301315,
            6.141195
          ],
          [
            -75.300661,
            6.141143
          ],
          [
            -75.300018,
            6.140985
          ],
          [
            -75.299298,
            6.140607
          ],
          [
            -75.298939,
            6.140268
          ],
          [
            -75.298595,
            6.139823
          ],
          [
            -75.298013,
            6.139004
          ],
          [
            -75.297969,
            6.138941
          ],
          [
            -75.296306,
            6.136566
          ],
          [
            -75.29595,
            6.136155
          ],
          [
            -75.295558,
            6.135777
          ],
          [
            -75.295287,
            6.135551
          ],
          [
            -75.294842,
            6.135234
          ],
          [
            -75.294609,
            6.135091
          ],
          [
            -75.294569,
            6.135068
          ],
          [
            -75.29416,
            6.134853
          ],
          [
            -75.293735,
            6.13467
          ],
          [
            -75.292321,
            6.134244
          ],
          [
            -75.290913,
            6.133811
          ],
          [
            -75.290253,
            6.133686
          ],
          [
            -75.289784,
            6.133668
          ],
          [
            -75.289261,
            6.133739
          ],
          [
            -75.288997,
            6.133815
          ],
          [
            -75.288808,
            6.13387
          ],
          [
            -75.288478,
            6.134032
          ],
          [
            -75.287761,
            6.134516
          ],
          [
            -75.287091,
            6.134973
          ],
          [
            -75.286721,
            6.135292
          ],
          [
            -75.28657,
            6.135437
          ],
          [
            -75.286139,
            6.13594
          ],
          [
            -75.285943,
            6.136152
          ],
          [
            -75.285711,
            6.13634
          ],
          [
            -75.285472,
            6.136495
          ],
          [
            -75.285238,
            6.136605
          ],
          [
            -75.284971,
            6.136698
          ],
          [
            -75.284167,
            6.136876
          ],
          [
            -75.282924,
            6.137148
          ],
          [
            -75.282009,
            6.137274
          ],
          [
            -75.281818,
            6.137286
          ],
          [
            -75.281382,
            6.137279
          ],
          [
            -75.28088,
            6.13722
          ],
          [
            -75.280659,
            6.137177
          ],
          [
            -75.280054,
            6.136998
          ],
          [
            -75.279882,
            6.136926
          ],
          [
            -75.27889,
            6.136439
          ],
          [
            -75.278335,
            6.136122
          ],
          [
            -75.277792,
            6.13584
          ],
          [
            -75.276091,
            6.134906
          ],
          [
            -75.275818,
            6.13474
          ],
          [
            -75.275396,
            6.134569
          ],
          [
            -75.2752,
            6.134521
          ],
          [
            -75.274949,
            6.13445
          ],
          [
            -75.274633,
            6.134406
          ],
          [
            -75.274182,
            6.13438
          ],
          [
            -75.272473,
            6.134441
          ],
          [
            -75.272025,
            6.134435
          ],
          [
            -75.271335,
            6.134468
          ],
          [
            -75.271272,
            6.134458
          ],
          [
            -75.271192,
            6.134404
          ],
          [
            -75.271168,
            6.13437
          ],
          [
            -75.27114,
            6.134426
          ],
          [
            -75.271089,
            6.134473
          ],
          [
            -75.271033,
            6.134501
          ],
          [
            -75.270541,
            6.134654
          ],
          [
            -75.270438,
            6.134739
          ],
          [
            -75.270347,
            6.134852
          ],
          [
            -75.269396,
            6.135123
          ],
          [
            -75.269295,
            6.13515
          ],
          [
            -75.269008,
            6.135198
          ],
          [
            -75.26877,
            6.13521
          ],
          [
            -75.268412,
            6.135201
          ],
          [
            -75.268218,
            6.135188
          ],
          [
            -75.267847,
            6.135567
          ],
          [
            -75.267735,
            6.135807
          ],
          [
            -75.26766,
            6.136055
          ],
          [
            -75.267625,
            6.136141
          ],
          [
            -75.267579,
            6.136223
          ],
          [
            -75.267371,
            6.136386
          ],
          [
            -75.267287,
            6.136517
          ],
          [
            -75.267001,
            6.136964
          ],
          [
            -75.266918,
            6.137048
          ],
          [
            -75.266872,
            6.137035
          ],
          [
            -75.266825,
            6.137045
          ],
          [
            -75.266789,
            6.137078
          ],
          [
            -75.266774,
            6.137136
          ],
          [
            -75.266797,
            6.137191
          ],
          [
            -75.26685,
            6.137221
          ],
          [
            -75.266775,
            6.137456
          ],
          [
            -75.266747,
            6.137532
          ],
          [
            -75.267463,
            6.137688
          ],
          [
            -75.267459,
            6.138061
          ],
          [
            -75.267425,
            6.138539
          ],
          [
            -75.268014,
            6.138561
          ],
          [
            -75.267994,
            6.139178
          ],
          [
            -75.268635,
            6.139203
          ],
          [
            -75.268604,
            6.139574
          ]
        ],
        "type": "LineString"
      }
    }
  ],
  "metadata": {
    "attribution": "openrouteservice.org | OpenStreetMap contributors",
    "service": "routing",
    "timestamp": 1764859595360,
    "query": {
      "coordinates": [
        [
          -75.3378142,
          6.1757136
        ],
        [
          -75.2684921,
          6.1395646
        ]
      ],
      "profile": "driving-hgv",
      "profileName": "driving-hgv",
      "preference": "recommended",
      "format": "geojson",
      "language": "es",
      "options": {
        "profile_params": {
          "restrictions": {
            "length": 8.0,
            "width": 2.5,
            "height": 3.5
          },
          "surface_quality_known": false,
          "allow_unsuitable": false
        },
        "avoid_polygons": {
          "coordinates": [
            [
              [
                [
                  -75.53398800000001,
                  6.1525436
                ],
                [
                  -75.531988,
                  6.1525436
                ],
                [
                  -75.531988,
                  6.1545436
                ],
                [
                  -75.53398800000001,
                  6.1545436
                ],
                [
                  -75.53398800000001,
                  6.1525436
                ]
              ]
            ],
            [
              [
                [
                  -75.49099790000001,
                  6.0932509999999995
                ],
                [
                  -75.4889979,
                  6.0932509999999995
                ],
                [
                  -75.4889979,
                  6.095251
                ],
                [
                  -75.49099790000001,
                  6.095251
                ],
                [
                  -75.49099790000001,
                  6.0932509999999995
                ]
              ]
            ],
            [
              [
                [
                  -75.44939930000001,
                  6.1764060999999995
                ],
                [
                  -75.4473993,
                  6.1764060999999995
                ],
                [
                  -75.4473993,
                  6.1784061
                ],
                [
                  -75.44939930000001,
                  6.1784061
                ],
                [
                  -75.44939930000001,
                  6.1764060999999995
                ]
              ]
            ],
            [
              [
                [
                  -75.4890572,
                  6.2037862
                ],
                [
                  -75.4870572,
                  6.2037862
                ],
                [
                  -75.4870572,
                  6.2057862
                ],
                [
                  -75.4890572,
                  6.2057862
                ],
                [
                  -75.4890572,
                  6.2037862
                ]
              ]
            ],
            [
              [
                [
                  -75.46672650000001,
                  6.1850524
                ],
                [
                  -75.4647265,
                  6.1850524
                ],
                [
                  -75.4647265,
                  6.187052400000001
                ],
                [
                  -75.46672650000001,
                  6.187052400000001
                ],
                [
                  -75.46672650000001,
                  6.1850524
                ]
              ]
            ],
            [
              [
                [
                  -75.5035304,
                  6.2159613
                ],
                [
                  -75.5015304,
                  6.2159613
                ],
                [
                  -75.5015304,
                  6.217961300000001
                ],
                [
                  -75.5035304,
                  6.217961300000001
                ],
                [
                  -75.5035304,
                  6.2159613
                ]
              ]
            ],
            [
              [
                [
                  -75.4913478,
                  6.170510299999999
                ],
                [
                  -75.48934779999999,
                  6.170510299999999
                ],
                [
                  -75.48934779999999,
                  6.1725103
                ],
                [
                  -75.4913478,
                  6.1725103
                ],
                [
                  -75.4913478,
                  6.170510299999999
                ]
              ]
            ],
            [
              [
                [
                  -75.5250472,
                  6.1422792
                ],
                [
                  -75.5230472,
                  6.1422792
                ],
                [
                  -75.5230472,
                  6.144279200000001
                ],
                [
                  -75.5250472,
                  6.144279200000001
                ],
                [
                  -75.5250472,
                  6.1422792
                ]
              ]
            ],
            [
              [
                [
                  -75.42459550000001,
                  6.123615999999999
                ],
                [
                  -75.4225955,
                  6.123615999999999
                ],
                [
                  -75.4225955,
                  6.125616
                ],
                [
                  -75.42459550000001,
                  6.125616
                ],
                [
                  -75.42459550000001,
                  6.123615999999999
                ]
              ]
            ],
            [
              [
                [
                  -75.5600752,
                  6.2197343
                ],
                [
                  -75.55807519999999,
                  6.2197343
                ],
                [
                  -75.55807519999999,
                  6.2217343000000005
                ],
                [
                  -75.5600752,
                  6.2217343000000005
                ],
                [
                  -75.5600752,
                  6.2197343
                ]
              ]
            ],
            [
              [
                [
                  -75.4291982,
                  6.0892721
                ],
                [
                  -75.42719819999999,
                  6.0892721
                ],
                [
                  -75.42719819999999,
                  6.0912721
                ],
                [
                  -75.4291982,
                  6.0912721
                ],
                [
                  -75.4291982,
                  6.0892721
                ]
              ]
            ],
            [
              [
                [
                  -75.50124240000001,
                  6.1697112
                ],
                [
                  -75.4992424,
                  6.1697112
                ],
                [
                  -75.4992424,
                  6.171711200000001
                ],
                [
                  -75.50124240000001,
                  6.171711200000001
                ],
                [
                  -75.50124240000001,
                  6.1697112
                ]
              ]
            ],
            [
              [
                [
                  -75.4364807,
                  6.1772187
                ],
                [
                  -75.4344807,
                  6.1772187
                ],
                [
                  -75.4344807,
                  6.179218700000001
                ],
                [
                  -75.4364807,
                  6.179218700000001
                ],
                [
                  -75.4364807,
                  6.1772187
                ]
              ]
            ],
            [
              [
                [
                  -75.4336162,
                  6.2493549999999995
                ],
                [
                  -75.4316162,
                  6.2493549999999995
                ],
                [
                  -75.4316162,
                  6.251355
                ],
                [
                  -75.4336162,
                  6.251355
                ],
                [
                  -75.4336162,
                  6.2493549999999995
                ]
              ]
            ],
            [
              [
                [
                  -75.555226,
                  6.133627199999999
                ],
                [
                  -75.553226,
                  6.133627199999999
                ],
                [
                  -75.553226,
                  6.1356272
                ],
                [
                  -75.555226,
                  6.1356272
                ],
                [
                  -75.555226,
                  6.133627199999999
                ]
              ]
            ],
            [
              [
                [
                  -75.481297,
                  6.089910199999999
                ],
                [
                  -75.47929699999999,
                  6.089910199999999
                ],
                [
                  -75.47929699999999,
                  6.0919102
                ],
                [
                  -75.481297,
                  6.0919102
                ],
                [
                  -75.481297,
                  6.089910199999999
                ]
              ]
            ],
            [
              [
                [
                  -75.4232837,
                  6.059844
                ],
                [
                  -75.42128369999999,
                  6.059844
                ],
                [
                  -75.42128369999999,
                  6.061844000000001
                ],
                [
                  -75.4232837,
                  6.061844000000001
                ],
                [
                  -75.4232837,
                  6.059844
                ]
              ]
            ],
            [
              [
                [
                  -75.4577368,
                  6.0576535
                ],
                [
                  -75.4557368,
                  6.0576535
                ],
                [
                  -75.4557368,
                  6.0596535000000005
                ],
                [
                  -75.4577368,
                  6.0596535000000005
                ],
                [
                  -75.4577368,
                  6.0576535
                ]
              ]
            ],
            [
              [
                [
                  -75.43430260000001,
                  6.1414703
                ],
                [
                  -75.4323026,
                  6.1414703
                ],
                [
                  -75.4323026,
                  6.143470300000001
                ],
                [
                  -75.43430260000001,
                  6.143470300000001
                ],
                [
                  -75.43430260000001,
                  6.1414703
                ]
              ]
            ],
            [
              [
                [
                  -75.452403,
                  6.112123599999999
                ],
                [
                  -75.450403,
                  6.112123599999999
                ],
                [
                  -75.450403,
                  6.1141236
                ],
                [
                  -75.452403,
                  6.1141236
                ],
                [
                  -75.452403,
                  6.112123599999999
                ]
              ]
            ],
            [
              [
                [
                  -75.6342218,
                  6.0668213
                ],
                [
                  -75.6322218,
                  6.0668213
                ],
                [
                  -75.6322218,
                  6.068821300000001
                ],
                [
                  -75.6342218,
                  6.068821300000001
                ],
                [
                  -75.6342218,
                  6.0668213
                ]
              ]
            ],
            [
              [
                [
                  -75.4502234,
                  6.0178674
                ],
                [
                  -75.44822339999999,
                  6.0178674
                ],
                [
                  -75.44822339999999,
                  6.019867400000001
                ],
                [
                  -75.4502234,
                  6.019867400000001
                ],
                [
                  -75.4502234,
                  6.0178674
                ]
              ]
            ],
            [
              [
                [
                  -75.4329548,
                  6.008317399999999
                ],
                [
                  -75.4309548,
                  6.008317399999999
                ],
                [
                  -75.4309548,
                  6.0103174
                ],
                [
                  -75.4329548,
                  6.0103174
                ],
                [
                  -75.4329548,
                  6.008317399999999
                ]
              ]
            ],
            [
              [
                [
                  -75.4134652,
                  6.022465599999999
                ],
                [
                  -75.4114652,
                  6.022465599999999
                ],
                [
                  -75.4114652,
                  6.0244656
                ],
                [
                  -75.4134652,
                  6.0244656
                ],
                [
                  -75.4134652,
                  6.022465599999999
                ]
              ]
            ],
            [
              [
                [
                  -75.3412419,
                  6.138306399999999
                ],
                [
                  -75.33924189999999,
                  6.138306399999999
                ],
                [
                  -75.33924189999999,
                  6.1403064
                ],
                [
                  -75.3412419,
                  6.1403064
                ],
                [
                  -75.3412419,
                  6.138306399999999
                ]
              ]
            ]
          ],
          "type": "MultiPolygon"
        }
      }
    },
    "engine": {
      "version": "9.5.0",
      "build_date": "2025-10-31T12:33:09Z",
      "graph_date": "2025-12-01T03:52:42Z",
      "osm_date": "2025-11-24T00:59:59Z"
    }
  }
}