{
  "type": "FeatureCollection",
  "bbox": [
    -75.426371,
    6.031914,
    -75.368159,
    6.1639
  ],
  "features": [
    {
      "bbox": [
        -75.426371,
        6.031914,
        -75.368159,
        6.1639
      ],
      "type": "Feature",
      "properties": {
        "way_points": [
          0,
          455
        ],
        "summary": {
          "distance": 20520.0,
          "duration": 1873.0
        }
      },
      "geometry": {
        "coordinates": [
          [
            -75.369751,
            6.1639
          ],
          [
            -75.370219,
            6.163123
          ],
          [
            -75.370187,
            6.163005
          ],
          [
            -75.369945,
            6.162867
          ],
          [
            -75.369673,
            6.162716
          ],
          [
            -75.369405,
            6.162566
          ],
          [
            -75.369129,
            6.162413
          ],
          [
            -75.368893,
            6.162278
          ],
          [
            -75.36888,
            6.162256
          ],
          [
            -75.369066,
            6.161901
          ],
          [
            -75.368159,
            6.161402
          ],
          [
            -75.368322,
            6.161212
          ],
          [
            -75.368446,
            6.161067
          ],
          [
            -75.368634,
            6.160843
          ],
          [
            -75.368745,
            6.160711
          ],
          [
            -75.368939,
            6.160492
          ],
          [
            -75.368969,
            6.160465
          ],
          [
            -75.369007,
            6.160396
          ],
          [
            -75.369171,
            6.160225
          ],
          [
            -75.369277,
            6.160071
          ],
          [
            -75.36932,
            6.159997
          ],
          [
            -75.369415,
            6.15975
          ],
          [
            -75.369501,
            6.159428
          ],
          [
            -75.369562,
            6.159211
          ],
          [
            -75.369574,
            6.159168
          ],
          [
            -75.369659,
            6.15883
          ],
          [
            -75.36968,
            6.158741
          ],
          [
            -75.369728,
            6.158514
          ],
          [
            -75.369828,
            6.158324
          ],
          [
            -75.370095,
            6.157933
          ],
          [
            -75.370424,
            6.157525
          ],
          [
            -75.370722,
            6.156991
          ],
          [
            -75.371022,
            6.156417
          ],
          [
            -75.371243,
            6.155923
          ],
          [
            -75.371508,
            6.155152
          ],
          [
            -75.371537,
            6.154316
          ],
          [
            -75.371574,
            6.153275
          ],
          [
            -75.371551,
            6.152564
          ],
          [
            -75.371779,
            6.152524
          ],
          [
            -75.371831,
            6.152515
          ],
          [
            -75.371935,
            6.152459
          ],
          [
            -75.371995,
            6.152446
          ],
          [
            -75.372089,
            6.152425
          ],
          [
            -75.372129,
            6.152416
          ],
          [
            -75.372529,
            6.15232
          ],
          [
            -75.373092,
            6.152192
          ],
          [
            -75.37381,
            6.152036
          ],
          [
            -75.374204,
            6.151958
          ],
          [
            -75.374643,
            6.151873
          ],
          [
            -75.374715,
            6.151855
          ],
          [
            -75.374977,
            6.15179
          ],
          [
            -75.375228,
            6.151729
          ],
          [
            -75.375478,
            6.151676
          ],
          [
            -75.375366,
            6.150745
          ],
          [
            -75.3753,
            6.150166
          ],
          [
            -75.375338,
            6.149603
          ],
          [
            -75.375427,
            6.149179
          ],
          [
            -75.375543,
            6.14888
          ],
          [
            -75.37565,
            6.148891
          ],
          [
            -75.376077,
            6.148934
          ],
          [
            -75.376252,
            6.148953
          ],
          [
            -75.377293,
            6.148996
          ],
          [
            -75.378965,
            6.149054
          ],
          [
            -75.379019,
            6.148982
          ],
          [
            -75.379153,
            6.147823
          ],
          [
            -75.379185,
            6.147717
          ],
          [
            -75.379244,
            6.147607
          ],
          [
            -75.379299,
            6.147562
          ],
          [
            -75.379363,
            6.147453
          ],
          [
            -75.379374,
            6.147396
          ],
          [
            -75.379359,
            6.147283
          ],
          [
            -75.379295,
            6.147181
          ],
          [
            -75.379226,
            6.147067
          ],
          [
            -75.379193,
            6.146959
          ],
          [
            -75.379209,
            6.1467
          ],
          [
            -75.379265,
            6.146113
          ],
          [
            -75.379355,
            6.145332
          ],
          [
            -75.379391,
            6.145139
          ],
          [
            -75.379433,
            6.144999
          ],
          [
            -75.379598,
            6.144587
          ],
          [
            -75.379715,
            6.144346
          ],
          [
            -75.3798,
            6.1442
          ],
          [
            -75.379926,
            6.144032
          ],
          [
            -75.380021,
            6.143848
          ],
          [
            -75.380053,
            6.143741
          ],
          [
            -75.380052,
            6.143639
          ],
          [
            -75.380056,
            6.143479
          ],
          [
            -75.380133,
            6.142882
          ],
          [
            -75.380199,
            6.142627
          ],
          [
            -75.380437,
            6.142173
          ],
          [
            -75.38052,
            6.142103
          ],
          [
            -75.380575,
            6.14208
          ],
          [
            -75.380847,
            6.142031
          ],
          [
            -75.380895,
            6.142023
          ],
          [
            -75.380962,
            6.141988
          ],
          [
            -75.381051,
            6.141883
          ],
          [
            -75.381085,
            6.141813
          ],
          [
            -75.381107,
            6.141751
          ],
          [
            -75.381108,
            6.141686
          ],
          [
            -75.381095,
            6.141616
          ],
          [
            -75.381056,
            6.14155
          ],
          [
            -75.380992,
            6.141357
          ],
          [
            -75.380977,
            6.141263
          ],
          [
            -75.380995,
            6.141182
          ],
          [
            -75.381178,
            6.140851
          ],
          [
            -75.38149,
            6.140507
          ],
          [
            -75.381958,
            6.140102
          ],
          [
            -75.382496,
            6.139547
          ],
          [
            -75.382784,
            6.139311
          ],
          [
            -75.383077,
            6.139112
          ],
          [
            -75.383445,
            6.138894
          ],
          [
            -75.384124,
            6.138575
          ],
          [
            -75.384617,
            6.13834
          ],
          [
            -75.384793,
            6.138247
          ],
          [
            -75.38537,
            6.137884
          ],
          [
            -75.385881,
            6.137551
          ],
          [
            -75.386128,
            6.137433
          ],
          [
            -75.386456,
            6.137338
          ],
          [
            -75.387463,
            6.137158
          ],
          [
            -75.387647,
            6.137177
          ],
          [
            -75.387799,
            6.137174
          ],
          [
            -75.388922,
            6.136987
          ],
          [
            -75.389004,
            6.137014
          ],
          [
            -75.389057,
            6.137037
          ],
          [
            -75.389092,
            6.137043
          ],
          [
            -75.389147,
            6.137023
          ],
          [
            -75.389182,
            6.136998
          ],
          [
            -75.389217,
            6.13694
          ],
          [
            -75.389216,
            6.136893
          ],
          [
            -75.389202,
            6.136815
          ],
          [
            -75.389156,
            6.136736
          ],
          [
            -75.389124,
            6.136708
          ],
          [
            -75.389037,
            6.136602
          ],
          [
            -75.388995,
            6.136516
          ],
          [
            -75.388916,
            6.136365
          ],
          [
            -75.388839,
            6.136197
          ],
          [
            -75.388718,
            6.135916
          ],
          [
            -75.388469,
            6.135371
          ],
          [
            -75.388134,
            6.13498
          ],
          [
            -75.387773,
            6.134512
          ],
          [
            -75.387605,
            6.134197
          ],
          [
            -75.387534,
            6.1341
          ],
          [
            -75.38708,
            6.133704
          ],
          [
            -75.386851,
            6.133569
          ],
          [
            -75.386724,
            6.133618
          ],
          [
            -75.386604,
            6.13357
          ],
          [
            -75.386326,
            6.133351
          ],
          [
            -75.385806,
            6.132792
          ],
          [
            -75.385671,
            6.132709
          ],
          [
            -75.385505,
            6.132641
          ],
          [
            -75.385246,
            6.132566
          ],
          [
            -75.385126,
            6.132562
          ],
          [
            -75.384466,
            6.13261
          ],
          [
            -75.384272,
            6.132589
          ],
          [
            -75.384141,
            6.13255
          ],
          [
            -75.384032,
            6.132472
          ],
          [
            -75.383983,
            6.132407
          ],
          [
            -75.383952,
            6.132296
          ],
          [
            -75.383962,
            6.132134
          ],
          [
            -75.383998,
            6.132043
          ],
          [
            -75.384075,
            6.132001
          ],
          [
            -75.384128,
            6.131932
          ],
          [
            -75.384149,
            6.131849
          ],
          [
            -75.384136,
            6.131763
          ],
          [
            -75.384125,
            6.131709
          ],
          [
            -75.384156,
            6.13162
          ],
          [
            -75.384441,
            6.131197
          ],
          [
            -75.384504,
            6.131061
          ],
          [
            -75.384543,
            6.130903
          ],
          [
            -75.384543,
            6.13076
          ],
          [
            -75.384423,
            6.130076
          ],
          [
            -75.384457,
            6.129964
          ],
          [
            -75.384536,
            6.129805
          ],
          [
            -75.384778,
            6.129361
          ],
          [
            -75.384952,
            6.128761
          ],
          [
            -75.385068,
            6.128426
          ],
          [
            -75.385423,
            6.127485
          ],
          [
            -75.385623,
            6.126874
          ],
          [
            -75.38563,
            6.126808
          ],
          [
            -75.385616,
            6.126716
          ],
          [
            -75.385572,
            6.126572
          ],
          [
            -75.385524,
            6.126495
          ],
          [
            -75.385125,
            6.126047
          ],
          [
            -75.385094,
            6.125965
          ],
          [
            -75.385098,
            6.12583
          ],
          [
            -75.385129,
            6.125774
          ],
          [
            -75.38516,
            6.12565
          ],
          [
            -75.385158,
            6.125586
          ],
          [
            -75.385143,
            6.125519
          ],
          [
            -75.385198,
            6.125317
          ],
          [
            -75.385282,
            6.12516
          ],
          [
            -75.385902,
            6.124324
          ],
          [
            -75.386036,
            6.124136
          ],
          [
            -75.387423,
            6.12219
          ],
          [
            -75.387911,
            6.121525
          ],
          [
            -75.388221,
            6.121093
          ],
          [
            -75.389218,
            6.119708
          ],
          [
            -75.389356,
            6.119422
          ],
          [
            -75.389518,
            6.11929
          ],
          [
            -75.38959,
            6.119184
          ],
          [
            -75.389587,
            6.119006
          ],
          [
            -75.389663,
            6.118699
          ],
          [
            -75.389647,
            6.118417
          ],
          [
            -75.38959,
            6.118017
          ],
          [
            -75.389518,
            6.117558
          ],
          [
            -75.389499,
            6.117455
          ],
          [
            -75.389481,
            6.117353
          ],
          [
            -75.389431,
            6.117038
          ],
          [
            -75.38937,
            6.116562
          ],
          [
            -75.389119,
            6.11514
          ],
          [
            -75.389003,
            6.114619
          ],
          [
            -75.388914,
            6.114344
          ],
          [
            -75.388643,
            6.113721
          ],
          [
            -75.388551,
            6.113471
          ],
          [
            -75.388505,
            6.113266
          ],
          [
            -75.38853,
            6.113157
          ],
          [
            -75.388531,
            6.113039
          ],
          [
            -75.388578,
            6.112678
          ],
          [
            -75.388717,
            6.112171
          ],
          [
            -75.389139,
            6.111087
          ],
          [
            -75.389207,
            6.110844
          ],
          [
            -75.389223,
            6.11069
          ],
          [
            -75.389191,
            6.11044
          ],
          [
            -75.389127,
            6.110235
          ],
          [
            -75.389054,
            6.110087
          ],
          [
            -75.388957,
            6.109945
          ],
          [
            -75.388651,
            6.109629
          ],
          [
            -75.388632,
            6.109611
          ],
          [
            -75.38849,
            6.109464
          ],
          [
            -75.388385,
            6.109358
          ],
          [
            -75.388035,
            6.109006
          ],
          [
            -75.387618,
            6.108563
          ],
          [
            -75.387291,
            6.108127
          ],
          [
            -75.386791,
            6.107375
          ],
          [
            -75.386669,
            6.107182
          ],
          [
            -75.386492,
            6.106847
          ],
          [
            -75.386424,
            6.106717
          ],
          [
            -75.386367,
            6.106519
          ],
          [
            -75.386327,
            6.106405
          ],
          [
            -75.386278,
            6.10609
          ],
          [
            -75.386227,
            6.105926
          ],
          [
            -75.386141,
            6.105743
          ],
          [
            -75.385966,
            6.105414
          ],
          [
            -75.385869,
            6.10523
          ],
          [
            -75.385547,
            6.104628
          ],
          [
            -75.385476,
            6.104504
          ],
          [
            -75.385367,
            6.104356
          ],
          [
            -75.384864,
            6.103817
          ],
          [
            -75.384669,
            6.103438
          ],
          [
            -75.384351,
            6.10282
          ],
          [
            -75.383793,
            6.101747
          ],
          [
            -75.383733,
            6.101608
          ],
          [
            -75.383665,
            6.101378
          ],
          [
            -75.383409,
            6.100218
          ],
          [
            -75.383254,
            6.099476
          ],
          [
            -75.383218,
            6.098875
          ],
          [
            -75.383218,
            6.098824
          ],
          [
            -75.383249,
            6.098369
          ],
          [
            -75.383315,
            6.097852
          ],
          [
            -75.383353,
            6.097548
          ],
          [
            -75.383449,
            6.096781
          ],
          [
            -75.383452,
            6.096504
          ],
          [
            -75.383423,
            6.096338
          ],
          [
            -75.383262,
            6.095958
          ],
          [
            -75.383007,
            6.095564
          ],
          [
            -75.382932,
            6.095388
          ],
          [
            -75.382635,
            6.094638
          ],
          [
            -75.382487,
            6.094242
          ],
          [
            -75.38239,
            6.093983
          ],
          [
            -75.382187,
            6.093441
          ],
          [
            -75.38214,
            6.093337
          ],
          [
            -75.381563,
            6.092001
          ],
          [
            -75.381451,
            6.091776
          ],
          [
            -75.380918,
            6.090794
          ],
          [
            -75.380644,
            6.090309
          ],
          [
            -75.38045,
            6.089957
          ],
          [
            -75.380196,
            6.089422
          ],
          [
            -75.380042,
            6.089019
          ],
          [
            -75.379983,
            6.088763
          ],
          [
            -75.379955,
            6.088281
          ],
          [
            -75.379967,
            6.088061
          ],
          [
            -75.379999,
            6.087879
          ],
          [
            -75.380091,
            6.087562
          ],
          [
            -75.380452,
            6.086625
          ],
          [
            -75.380517,
            6.086404
          ],
          [
            -75.380555,
            6.086198
          ],
          [
            -75.380571,
            6.085956
          ],
          [
            -75.380558,
            6.08576
          ],
          [
            -75.380489,
            6.085413
          ],
          [
            -75.380009,
            6.083964
          ],
          [
            -75.379792,
            6.083177
          ],
          [
            -75.379743,
            6.082918
          ],
          [
            -75.379703,
            6.082605
          ],
          [
            -75.379694,
            6.082283
          ],
          [
            -75.379703,
            6.08197
          ],
          [
            -75.379766,
            6.081376
          ],
          [
            -75.379816,
            6.080989
          ],
          [
            -75.379976,
            6.079384
          ],
          [
            -75.379979,
            6.07935
          ],
          [
            -75.37999,
            6.079245
          ],
          [
            -75.380006,
            6.079006
          ],
          [
            -75.379991,
            6.078877
          ],
          [
            -75.379743,
            6.078316
          ],
          [
            -75.3797,
            6.078144
          ],
          [
            -75.379708,
            6.077937
          ],
          [
            -75.379945,
            6.077209
          ],
          [
            -75.379971,
            6.077067
          ],
          [
            -75.379976,
            6.076932
          ],
          [
            -75.379874,
            6.076427
          ],
          [
            -75.379745,
            6.075924
          ],
          [
            -75.379684,
            6.075734
          ],
          [
            -75.379505,
            6.075055
          ],
          [
            -75.379457,
            6.074342
          ],
          [
            -75.379426,
            6.074004
          ],
          [
            -75.379426,
            6.073833
          ],
          [
            -75.379456,
            6.073493
          ],
          [
            -75.379505,
            6.07326
          ],
          [
            -75.379546,
            6.073052
          ],
          [
            -75.379528,
            6.072711
          ],
          [
            -75.379543,
            6.072635
          ],
          [
            -75.379573,
            6.072454
          ],
          [
            -75.379735,
            6.071683
          ],
          [
            -75.379792,
            6.07148
          ],
          [
            -75.379824,
            6.07135
          ],
          [
            -75.379912,
            6.071085
          ],
          [
            -75.38013,
            6.070588
          ],
          [
            -75.380297,
            6.070286
          ],
          [
            -75.380489,
            6.069989
          ],
          [
            -75.380808,
            6.069633
          ],
          [
            -75.38088,
            6.069556
          ],
          [
            -75.381396,
            6.068905
          ],
          [
            -75.381478,
            6.068797
          ],
          [
            -75.381753,
            6.068314
          ],
          [
            -75.382309,
            6.066981
          ],
          [
            -75.382442,
            6.066662
          ],
          [
            -75.382458,
            6.066626
          ],
          [
            -75.382494,
            6.066547
          ],
          [
            -75.382902,
            6.065561
          ],
          [
            -75.38346,
            6.064528
          ],
          [
            -75.383646,
            6.064192
          ],
          [
            -75.383989,
            6.063646
          ],
          [
            -75.384387,
            6.062925
          ],
          [
            -75.384536,
            6.062533
          ],
          [
            -75.384618,
            6.062195
          ],
          [
            -75.384655,
            6.061614
          ],
          [
            -75.384659,
            6.060953
          ],
          [
            -75.384715,
            6.060609
          ],
          [
            -75.384766,
            6.060371
          ],
          [
            -75.38519,
            6.059383
          ],
          [
            -75.385315,
            6.059063
          ],
          [
            -75.385616,
            6.0578
          ],
          [
            -75.385672,
            6.057626
          ],
          [
            -75.385755,
            6.057455
          ],
          [
            -75.385961,
            6.057154
          ],
          [
            -75.386202,
            6.056879
          ],
          [
            -75.386991,
            6.056274
          ],
          [
            -75.387122,
            6.056155
          ],
          [
            -75.387597,
            6.055534
          ],
          [
            -75.388002,
            6.055031
          ],
          [
            -75.388528,
            6.054435
          ],
          [
            -75.388891,
            6.054049
          ],
          [
            -75.388976,
            6.053955
          ],
          [
            -75.389725,
            6.053128
          ],
          [
            -75.390349,
            6.052306
          ],
          [
            -75.39122,
            6.050976
          ],
          [
            -75.391596,
            6.050636
          ],
          [
            -75.393227,
            6.049688
          ],
          [
            -75.393464,
            6.049502
          ],
          [
            -75.393898,
            6.048928
          ],
          [
            -75.394227,
            6.04858
          ],
          [
            -75.394573,
            6.048339
          ],
          [
            -75.395656,
            6.047498
          ],
          [
            -75.395924,
            6.047251
          ],
          [
            -75.39599,
            6.047191
          ],
          [
            -75.397068,
            6.046152
          ],
          [
            -75.397563,
            6.045679
          ],
          [
            -75.397728,
            6.04551
          ],
          [
            -75.398315,
            6.044958
          ],
          [
            -75.399833,
            6.043504
          ],
          [
            -75.400822,
            6.042682
          ],
          [
            -75.401231,
            6.042427
          ],
          [
            -75.401877,
            6.042157
          ],
          [
            -75.40229,
            6.042043
          ],
          [
            -75.402531,
            6.042006
          ],
          [
            -75.404192,
            6.041782
          ],
          [
            -75.40464,
            6.041667
          ],
          [
            -75.404948,
            6.041663
          ],
          [
            -75.405189,
            6.041738
          ],
          [
            -75.405434,
            6.04189
          ],
          [
            -75.405635,
            6.042071
          ],
          [
            -75.406154,
            6.042554
          ],
          [
            -75.406357,
            6.042716
          ],
          [
            -75.406495,
            6.042767
          ],
          [
            -75.406691,
            6.042788
          ],
          [
            -75.406886,
            6.042733
          ],
          [
            -75.407215,
            6.042478
          ],
          [
            -75.407935,
            6.041996
          ],
          [
            -75.40844,
            6.041617
          ],
          [
            -75.40925,
            6.040913
          ],
          [
            -75.409831,
            6.040424
          ],
          [
            -75.410078,
            6.040237
          ],
          [
            -75.411038,
            6.039511
          ],
          [
            -75.411786,
            6.038885
          ],
          [
            -75.412028,
            6.038735
          ],
          [
            -75.412167,
            6.038681
          ],
          [
            -75.412437,
            6.038613
          ],
          [
            -75.412932,
            6.038586
          ],
          [
            -75.413165,
            6.038752
          ],
          [
            -75.413224,
            6.03881
          ],
          [
            -75.413298,
            6.038847
          ],
          [
            -75.413381,
            6.03886
          ],
          [
            -75.413463,
            6.038846
          ],
          [
            -75.413536,
            6.038807
          ],
          [
            -75.413594,
            6.038748
          ],
          [
            -75.41383,
            6.038617
          ],
          [
            -75.414272,
            6.038675
          ],
          [
            -75.414714,
            6.038834
          ],
          [
            -75.414961,
            6.038935
          ],
          [
            -75.415643,
            6.039215
          ],
          [
            -75.416022,
            6.039371
          ],
          [
            -75.416383,
            6.039494
          ],
          [
            -75.416577,
            6.039509
          ],
          [
            -75.41679,
            6.039499
          ],
          [
            -75.416903,
            6.039483
          ],
          [
            -75.417059,
            6.039436
          ],
          [
            -75.417232,
            6.039351
          ],
          [
            -75.417392,
            6.039245
          ],
          [
            -75.417645,
            6.039018
          ],
          [
            -75.418136,
            6.03861
          ],
          [
            -75.418304,
            6.038501
          ],
          [
            -75.418449,
            6.038444
          ],
          [
            -75.419179,
            6.037827
          ],
          [
            -75.419606,
            6.037429
          ],
          [
            -75.419853,
            6.037237
          ],
          [
            -75.420296,
            6.036727
          ],
          [
            -75.420676,
            6.03637
          ],
          [
            -75.420917,
            6.036174
          ],
          [
            -75.421278,
            6.035962
          ],
          [
            -75.421632,
            6.035841
          ],
          [
            -75.421887,
            6.035771
          ],
          [
            -75.422138,
            6.035734
          ],
          [
            -75.422616,
            6.035707
          ],
          [
            -75.423253,
            6.035618
          ],
          [
            -75.423678,
            6.035495
          ],
          [
            -75.423714,
            6.03549
          ],
          [
            -75.423813,
            6.035484
          ],
          [
            -75.423953,
            6.03548
          ],
          [
            -75.42415,
            6.035476
          ],
          [
            -75.424545,
            6.035496
          ],
          [
            -75.425453,
            6.035614
          ],
          [
            -75.4256,
            6.035091
          ],
          [
            -75.425714,
            6.034719
          ],
          [
            -75.425935,
            6.033955
          ],
          [
            -75.426171,
            6.033066
          ],
          [
            -75.426322,
            6.032215
          ],
          [
            -75.426371,
            6.031914
          ]
        ],
        "type": "LineString"
      }
    }
  ],
  "metadata": {
    "attribution": "openrouteservice.org | OpenStreetMap contributors",
    "service": "routing",
    "timestamp": 1764859536500,
    "query": {
      "coordinates": [
        [
          -75.3690912,
          6.1652045
        ],
        [
          -75.4262825,
          6.0318998
        ]
      ],
      "profile": "driving-hgv",
      "profileName": "driving-hgv",
      "preference": "recommended",
      "format": "geojson",
      "language": "es",
      "options": {
        "profile_params": {
          "restrictions": {
            "length": 8.0,
            "width": 2.5,
            "height": 3.5
          },
          "surface_quality_known": false,
          "allow_unsuitable": false
        },
        "avoid_polygons": {
          "coordinates": [
            [
              [
                [
                  -75.53398800000001,
                  6.1525436
                ],
                [
                  -75.531988,
                  6.1525436
                ],
                [
                  -75.531988,
                  6.1545436
                ],
                [
                  -75.53398800000001,
                  6.1545436
                ],
                [
                  -75.53398800000001,
                  6.1525436
                ]
              ]
            ],
            [
              [
                [
                  -75.49099790000001,
                  6.0932509999999995
                ],
                [
                  -75.4889979,
                  6.0932509999999995
                ],
                [
                  -75.4889979,
                  6.095251
                ],
                [
                  -75.49099790000001,
                  6.095251
                ],
                [
                  -75.49099790000001,
                  6.0932509999999995
                ]
              ]
            ],
            [
              [
                [
                  -75.44939930000001,
                  6.1764060999999995
                ],
                [
                  -75.4473993,
                  6.1764060999999995
                ],
                [
                  -75.4473993,
                  6.1784061
                ],
                [
                  -75.44939930000001,
                  6.1784061
                ],
                [
                  -75.44939930000001,
                  6.1764060999999995
                ]
              ]
            ],
            [
              [
                [
                  -75.4890572,
                  6.2037862
                ],
                [
                  -75.4870572,
                  6.2037862
                ],
                [
                  -75.4870572,
                  6.2057862
                ],
                [
                  -75.4890572,
                  6.2057862
                ],
                [
                  -75.4890572,
                  6.2037862
                ]
              ]
            ],
            [
              [
                [
                  -75.46672650000001,
                  6.1850524
                ],
                [
                  -75.4647265,
                  6.1850524
                ],
                [
                  -75.4647265,
                  6.187052400000001
                ],
                [
                  -75.46672650000001,
                  6.187052400000001
                ],
                [
                  -75.46672650000001,
                  6.1850524
                ]
              ]
            ],
            [
              [
                [
                  -75.5035304,
                  6.2159613
                ],
                [
                  -75.5015304,
                  6.2159613
                ],
                [
                  -75.5015304,
                  6.217961300000001
                ],
                [
                  -75.5035304,
                  6.217961300000001
                ],
                [
                  -75.5035304,
                  6.2159613
                ]
              ]
            ],
            [
              [
                [
                  -75.4913478,
                  6.170510299999999
                ],
                [
                  -75.48934779999999,
                  6.170510299999999
                ],
                [
                  -75.48934779999999,
                  6.1725103
                ],
                [
                  -75.4913478,
                  6.1725103
                ],
                [
                  -75.4913478,
                  6.170510299999999
                ]
              ]
            ],
            [
              [
                [
                  -75.5250472,
                  6.1422792
                ],
                [
                  -75.5230472,
                  6.1422792
                ],
                [
                  -75.5230472,
                  6.144279200000001
                ],
                [
                  -75.5250472,
                  6.144279200000001
                ],
                [
                  -75.5250472,
                  6.1422792
                ]
              ]
            ],
            [
              [
                [
                  -75.42459550000001,
                  6.123615999999999
                ],
                [
                  -75.4225955,
                  6.123615999999999
                ],
                [
                  -75.4225955,
                  6.125616
                ],
                [
                  -75.42459550000001,
                  6.125616
                ],
                [
                  -75.42459550000001,
                  6.123615999999999
                ]
              ]
            ],
            [
              [
                [
                  -75.5600752,
                  6.2197343
                ],
                [
                  -75.55807519999999,
                  6.2197343
                ],
                [
                  -75.55807519999999,
                  6.2217343000000005
                ],
                [
                  -75.5600752,
                  6.2217343000000005
                ],
                [
                  -75.5600752,
                  6.2197343
                ]
              ]
            ],
            [
              [
                [
                  -75.4291982,
                  6.0892721
                ],
                [
                  -75.42719819999999,
                  6.0892721
                ],
                [
                  -75.42719819999999,
                  6.0912721
                ],
                [
                  -75.4291982,
                  6.0912721
                ],
                [
                  -75.4291982,
                  6.0892721
                ]
              ]
            ],
            [
              [
                [
                  -75.50124240000001,
                  6.1697112
                ],
                [
                  -75.4992424,
                  6.1697112
                ],
                [
                  -75.4992424,
                  6.171711200000001
                ],
                [
                  -75.50124240000001,
                  6.171711200000001
                ],
                [
                  -75.50124240000001,
                  6.1697112
                ]
              ]
            ],
            [
              [
                [
                  -75.4364807,
                  6.1772187
                ],
                [
                  -75.4344807,
                  6.1772187
                ],
                [
                  -75.4344807,
                  6.179218700000001
                ],
                [
                  -75.4364807,
                  6.179218700000001
                ],
                [
                  -75.4364807,
                  6.1772187
                ]
              ]
            ],
            [
              [
                [
                  -75.4336162,
                  6.2493549999999995
                ],
                [
                  -75.4316162,
                  6.2493549999999995
                ],
                [
                  -75.4316162,
                  6.251355
                ],
                [
                  -75.4336162,
                  6.251355
                ],
                [
                  -75.4336162,
                  6.2493549999999995
                ]
              ]
            ],
            [
              [
                [
                  -75.555226,
                  6.133627199999999
                ],
                [
                  -75.553226,
                  6.133627199999999
                ],
                [
                  -75.553226,
                  6.1356272
                ],
                [
                  -75.555226,
                  6.1356272
                ],
                [
                  -75.555226,
                  6.133627199999999
                ]
              ]
            ],
            [
              [
                [
                  -75.481297,
                  6.089910199999999
                ],
                [
                  -75.47929699999999,
                  6.089910199999999
                ],
                [
                  -75.47929699999999,
                  6.0919102
                ],
                [
                  -75.481297,
                  6.0919102
                ],
                [
                  -75.481297,
                  6.089910199999999
                ]
              ]
            ],
            [
              [
                [
                  -75.4232837,
                  6.059844
                ],
                [
                  -75.42128369999999,
                  6.059844
                ],
                [
                  -75.42128369999999,
                  6.061844000000001
                ],
                [
                  -75.4232837,
                  6.061844000000001
                ],
                [
                  -75.4232837,
                  6.059844
                ]
              ]
            ],
            [
              [
                [
                  -75.4577368,
                  6.0576535
                ],
                [
                  -75.4557368,
                  6.0576535
                ],
                [
                  -75.4557368,
                  6.0596535000000005
                ],
                [
                  -75.4577368,
                  6.0596535000000005
                ],
                [
                  -75.4577368,
                  6.0576535
                ]
              ]
            ],
            [
              [
                [
                  -75.43430260000001,
                  6.1414703
                ],
                [
                  -75.4323026,
                  6.1414703
                ],
                [
                  -75.4323026,
                  6.143470300000001
                ],
                [
                  -75.43430260000001,
                  6.143470300000001
                ],
                [
                  -75.43430260000001,
                  6.1414703
                ]
              ]
            ],
            [
              [
                [
                  -75.452403,
                  6.112123599999999
                ],
                [
                  -75.450403,
                  6.112123599999999
                ],
                [
                  -75.450403,
                  6.1141236
                ],
                [
                  -75.452403,
                  6.1141236
                ],
                [
                  -75.452403,
                  6.112123599999999
                ]
              ]
            ],
            [
              [
                [
                  -75.6342218,
                  6.0668213
                ],
                [
                  -75.6322218,
                  6.0668213
                ],
                [
                  -75.6322218,
                  6.068821300000001
                ],
                [
                  -75.6342218,
                  6.068821300000001
                ],
                [
                  -75.6342218,
                  6.0668213
                ]
              ]
            ],
            [
              [
                [
                  -75.4502234,
                  6.0178674
                ],
                [
                  -75.44822339999999,
                  6.0178674
                ],
                [
                  -75.44822339999999,
                  6.019867400000001
                ],
                [
                  -75.4502234,
                  6.019867400000001
                ],
                [
                  -75.4502234,
                  6.0178674
                ]
              ]
            ],
            [
              [
                [
                  -75.4329548,
                  6.008317399999999
                ],
                [
                  -75.4309548,
                  6.008317399999999
                ],
                [
                  -75.4309548,
                  6.0103174
                ],
                [
                  -75.4329548,
                  6.0103174
                ],
                [
                  -75.4329548,
                  6.008317399999999
                ]
              ]
            ],
            [
              [
                [
                  -75.4134652,
                  6.022465599999999
                ],
                [
                  -75.4114652,
                  6.022465599999999
                ],
                [
                  -75.4114652,
                  6.0244656
                ],
                [
                  -75.4134652,
                  6.0244656
                ],
                [
                  -75.4134652,
                  6.022465599999999
                ]
              ]
            ],
            [
              [
                [
                  -75.3412419,
                  6.138306399999999
                ],
                [
                  -75.33924189999999,
                  6.138306399999999
                ],
                [
                  -75.33924189999999,
                  6.1403064
                ],
                [
                  -75.3412419,
                  6.1403064
                ],
                [
                  -75.3412419,
                  6.138306399999999
                ]
              ]
            ]
          ],
          "type": "MultiPolygon"
        }
      }
    },
    "engine": {
      "version": "9.5.0",
      "build_date": "2025-10-31T12:33:09Z",
      "graph_date": "2025-12-01T03:52:42Z",
      "osm_date": "2025-11-24T00:59:59Z"
    }
  }
}