{
  "type": "FeatureCollection",
  "bbox": [
    -75.372827,
    6.088041,
    -75.337422,
    6.155262
  ],
  "features": [
    {
      "bbox": [
        -75.372827,
        6.088041,
        -75.337422,
        6.155262
      ],
      "type": "Feature",
      "properties": {
        "way_points": [
          0,
          298
        ],
        "summary": {
          "distance": 11275.5,
          "duration": 932.0
        }
      },
      "geometry": {
        "coordinates": [
          [
            -75.337475,
            6.088041
          ],
          [
            -75.337447,
            6.089005
          ],
          [
            -75.337424,
            6.089811
          ],
          [
            -75.337424,
            6.089872
          ],
          [
            -75.337422,
            6.090374
          ],
          [
            -75.337457,
            6.090937
          ],
          [
            -75.337529,
            6.091189
          ],
          [
            -75.337597,
            6.091274
          ],
          [
            -75.337614,
            6.091317
          ],
          [
            -75.337751,
            6.091654
          ],
          [
            -75.337836,
            6.091863
          ],
          [
            -75.3379,
            6.092004
          ],
          [
            -75.338114,
            6.092509
          ],
          [
            -75.338154,
            6.092605
          ],
          [
            -75.338354,
            6.093131
          ],
          [
            -75.33876,
            6.094139
          ],
          [
            -75.338836,
            6.094292
          ],
          [
            -75.338858,
            6.094371
          ],
          [
            -75.339036,
            6.094707
          ],
          [
            -75.339345,
            6.095218
          ],
          [
            -75.339567,
            6.095587
          ],
          [
            -75.33993,
            6.096144
          ],
          [
            -75.34006,
            6.096374
          ],
          [
            -75.340091,
            6.09644
          ],
          [
            -75.340348,
            6.096824
          ],
          [
            -75.340624,
            6.097191
          ],
          [
            -75.340764,
            6.097324
          ],
          [
            -75.341051,
            6.097554
          ],
          [
            -75.34122,
            6.097702
          ],
          [
            -75.34142,
            6.097852
          ],
          [
            -75.341678,
            6.098044
          ],
          [
            -75.341801,
            6.098099
          ],
          [
            -75.341921,
            6.098134
          ],
          [
            -75.342106,
            6.098149
          ],
          [
            -75.342552,
            6.098114
          ],
          [
            -75.342656,
            6.098112
          ],
          [
            -75.342956,
            6.098083
          ],
          [
            -75.343303,
            6.098077
          ],
          [
            -75.343432,
            6.098093
          ],
          [
            -75.343635,
            6.098143
          ],
          [
            -75.3438,
            6.098215
          ],
          [
            -75.344424,
            6.098559
          ],
          [
            -75.344542,
            6.09859
          ],
          [
            -75.34476,
            6.098573
          ],
          [
            -75.345056,
            6.098468
          ],
          [
            -75.345242,
            6.098431
          ],
          [
            -75.345408,
            6.098448
          ],
          [
            -75.345889,
            6.098693
          ],
          [
            -75.34643,
            6.099002
          ],
          [
            -75.346542,
            6.099072
          ],
          [
            -75.346698,
            6.099207
          ],
          [
            -75.346822,
            6.099464
          ],
          [
            -75.346913,
            6.099903
          ],
          [
            -75.347016,
            6.100589
          ],
          [
            -75.347122,
            6.100826
          ],
          [
            -75.347283,
            6.101068
          ],
          [
            -75.347375,
            6.101293
          ],
          [
            -75.347529,
            6.10188
          ],
          [
            -75.34767,
            6.102426
          ],
          [
            -75.347676,
            6.102727
          ],
          [
            -75.347586,
            6.103137
          ],
          [
            -75.34739,
            6.103894
          ],
          [
            -75.347196,
            6.104592
          ],
          [
            -75.347185,
            6.105256
          ],
          [
            -75.347187,
            6.106821
          ],
          [
            -75.347189,
            6.106949
          ],
          [
            -75.347172,
            6.107237
          ],
          [
            -75.347138,
            6.107384
          ],
          [
            -75.346817,
            6.108343
          ],
          [
            -75.346765,
            6.10854
          ],
          [
            -75.34677,
            6.108712
          ],
          [
            -75.346813,
            6.108873
          ],
          [
            -75.346999,
            6.109345
          ],
          [
            -75.347379,
            6.110215
          ],
          [
            -75.34743,
            6.110423
          ],
          [
            -75.347431,
            6.110538
          ],
          [
            -75.347386,
            6.110647
          ],
          [
            -75.347304,
            6.110769
          ],
          [
            -75.346902,
            6.111107
          ],
          [
            -75.346776,
            6.111231
          ],
          [
            -75.346676,
            6.111375
          ],
          [
            -75.346577,
            6.111613
          ],
          [
            -75.34651,
            6.111882
          ],
          [
            -75.346482,
            6.112152
          ],
          [
            -75.346498,
            6.112343
          ],
          [
            -75.346551,
            6.112522
          ],
          [
            -75.34682,
            6.1131
          ],
          [
            -75.347162,
            6.113905
          ],
          [
            -75.347475,
            6.11483
          ],
          [
            -75.347636,
            6.115669
          ],
          [
            -75.347861,
            6.116731
          ],
          [
            -75.347939,
            6.117334
          ],
          [
            -75.347952,
            6.117903
          ],
          [
            -75.347976,
            6.119434
          ],
          [
            -75.34796,
            6.119919
          ],
          [
            -75.348,
            6.120531
          ],
          [
            -75.348246,
            6.121337
          ],
          [
            -75.348344,
            6.121568
          ],
          [
            -75.348477,
            6.121726
          ],
          [
            -75.349323,
            6.122615
          ],
          [
            -75.349472,
            6.122839
          ],
          [
            -75.349624,
            6.123199
          ],
          [
            -75.349694,
            6.123318
          ],
          [
            -75.350125,
            6.12392
          ],
          [
            -75.350283,
            6.124267
          ],
          [
            -75.350322,
            6.124417
          ],
          [
            -75.350367,
            6.124477
          ],
          [
            -75.350432,
            6.124764
          ],
          [
            -75.350524,
            6.124868
          ],
          [
            -75.350803,
            6.125096
          ],
          [
            -75.351065,
            6.125361
          ],
          [
            -75.351179,
            6.125432
          ],
          [
            -75.351469,
            6.125507
          ],
          [
            -75.352059,
            6.12638
          ],
          [
            -75.352321,
            6.126869
          ],
          [
            -75.352429,
            6.127168
          ],
          [
            -75.352517,
            6.127474
          ],
          [
            -75.352568,
            6.127722
          ],
          [
            -75.352592,
            6.127965
          ],
          [
            -75.352577,
            6.128199
          ],
          [
            -75.352481,
            6.128707
          ],
          [
            -75.352351,
            6.129245
          ],
          [
            -75.35225,
            6.129621
          ],
          [
            -75.352172,
            6.129992
          ],
          [
            -75.352145,
            6.13017
          ],
          [
            -75.352141,
            6.130427
          ],
          [
            -75.352183,
            6.130897
          ],
          [
            -75.352249,
            6.131239
          ],
          [
            -75.352348,
            6.132005
          ],
          [
            -75.352363,
            6.132488
          ],
          [
            -75.352339,
            6.13351
          ],
          [
            -75.352313,
            6.133734
          ],
          [
            -75.351668,
            6.135682
          ],
          [
            -75.351543,
            6.136065
          ],
          [
            -75.351524,
            6.136197
          ],
          [
            -75.351515,
            6.137347
          ],
          [
            -75.351359,
            6.138207
          ],
          [
            -75.351339,
            6.13848
          ],
          [
            -75.351338,
            6.139063
          ],
          [
            -75.351369,
            6.13937
          ],
          [
            -75.351406,
            6.139523
          ],
          [
            -75.351434,
            6.139605
          ],
          [
            -75.351469,
            6.139738
          ],
          [
            -75.351496,
            6.139978
          ],
          [
            -75.351487,
            6.140064
          ],
          [
            -75.351462,
            6.14013
          ],
          [
            -75.351288,
            6.140445
          ],
          [
            -75.351262,
            6.140527
          ],
          [
            -75.351246,
            6.140648
          ],
          [
            -75.351266,
            6.140763
          ],
          [
            -75.351307,
            6.140885
          ],
          [
            -75.351382,
            6.141004
          ],
          [
            -75.351589,
            6.141214
          ],
          [
            -75.351697,
            6.141417
          ],
          [
            -75.351795,
            6.141556
          ],
          [
            -75.351901,
            6.141831
          ],
          [
            -75.351937,
            6.142059
          ],
          [
            -75.352109,
            6.14251
          ],
          [
            -75.352181,
            6.142643
          ],
          [
            -75.352345,
            6.142841
          ],
          [
            -75.352366,
            6.142865
          ],
          [
            -75.352489,
            6.143014
          ],
          [
            -75.352518,
            6.143188
          ],
          [
            -75.352448,
            6.143692
          ],
          [
            -75.352499,
            6.143951
          ],
          [
            -75.352735,
            6.144279
          ],
          [
            -75.353109,
            6.144706
          ],
          [
            -75.353598,
            6.145264
          ],
          [
            -75.354186,
            6.146079
          ],
          [
            -75.354302,
            6.146348
          ],
          [
            -75.354348,
            6.146611
          ],
          [
            -75.354356,
            6.146743
          ],
          [
            -75.354481,
            6.147218
          ],
          [
            -75.354835,
            6.147682
          ],
          [
            -75.354904,
            6.147772
          ],
          [
            -75.355449,
            6.148308
          ],
          [
            -75.355719,
            6.148495
          ],
          [
            -75.355965,
            6.148587
          ],
          [
            -75.356468,
            6.148738
          ],
          [
            -75.356648,
            6.148792
          ],
          [
            -75.356943,
            6.148881
          ],
          [
            -75.357182,
            6.148953
          ],
          [
            -75.357449,
            6.148917
          ],
          [
            -75.357616,
            6.148849
          ],
          [
            -75.357932,
            6.148659
          ],
          [
            -75.358339,
            6.148449
          ],
          [
            -75.358453,
            6.148411
          ],
          [
            -75.358554,
            6.148404
          ],
          [
            -75.358666,
            6.148418
          ],
          [
            -75.35885,
            6.148472
          ],
          [
            -75.359371,
            6.148745
          ],
          [
            -75.359481,
            6.14884
          ],
          [
            -75.359627,
            6.149044
          ],
          [
            -75.35968,
            6.149124
          ],
          [
            -75.359835,
            6.14938
          ],
          [
            -75.359883,
            6.149452
          ],
          [
            -75.360129,
            6.149816
          ],
          [
            -75.360301,
            6.150035
          ],
          [
            -75.360398,
            6.150159
          ],
          [
            -75.360977,
            6.150743
          ],
          [
            -75.361547,
            6.151214
          ],
          [
            -75.362963,
            6.152504
          ],
          [
            -75.363142,
            6.15265
          ],
          [
            -75.363309,
            6.152763
          ],
          [
            -75.363379,
            6.152901
          ],
          [
            -75.363378,
            6.152952
          ],
          [
            -75.363419,
            6.153
          ],
          [
            -75.363483,
            6.153
          ],
          [
            -75.363498,
            6.152989
          ],
          [
            -75.363615,
            6.152974
          ],
          [
            -75.363661,
            6.153004
          ],
          [
            -75.36416,
            6.153358
          ],
          [
            -75.36457,
            6.153682
          ],
          [
            -75.365387,
            6.154685
          ],
          [
            -75.365568,
            6.154779
          ],
          [
            -75.365746,
            6.154851
          ],
          [
            -75.366628,
            6.155061
          ],
          [
            -75.367061,
            6.155067
          ],
          [
            -75.367139,
            6.155068
          ],
          [
            -75.367257,
            6.155099
          ],
          [
            -75.367333,
            6.155188
          ],
          [
            -75.367433,
            6.155239
          ],
          [
            -75.367553,
            6.155262
          ],
          [
            -75.367567,
            6.15526
          ],
          [
            -75.367665,
            6.155225
          ],
          [
            -75.367732,
            6.155136
          ],
          [
            -75.36778,
            6.155014
          ],
          [
            -75.367768,
            6.15481
          ],
          [
            -75.367707,
            6.154177
          ],
          [
            -75.367742,
            6.154056
          ],
          [
            -75.36793,
            6.153764
          ],
          [
            -75.368562,
            6.153015
          ],
          [
            -75.368711,
            6.152897
          ],
          [
            -75.368881,
            6.152788
          ],
          [
            -75.369087,
            6.152706
          ],
          [
            -75.369502,
            6.152602
          ],
          [
            -75.36984,
            6.152519
          ],
          [
            -75.369881,
            6.152513
          ],
          [
            -75.369974,
            6.152497
          ],
          [
            -75.370123,
            6.152509
          ],
          [
            -75.370263,
            6.152547
          ],
          [
            -75.370371,
            6.152602
          ],
          [
            -75.37045,
            6.152664
          ],
          [
            -75.370542,
            6.152705
          ],
          [
            -75.370642,
            6.15272
          ],
          [
            -75.370742,
            6.152711
          ],
          [
            -75.370801,
            6.152692
          ],
          [
            -75.370901,
            6.152634
          ],
          [
            -75.370979,
            6.152549
          ],
          [
            -75.371029,
            6.152446
          ],
          [
            -75.371047,
            6.152332
          ],
          [
            -75.371031,
            6.152219
          ],
          [
            -75.37098,
            6.152109
          ],
          [
            -75.370897,
            6.152021
          ],
          [
            -75.370819,
            6.151802
          ],
          [
            -75.370788,
            6.151471
          ],
          [
            -75.370822,
            6.151293
          ],
          [
            -75.370879,
            6.151157
          ],
          [
            -75.37097,
            6.151029
          ],
          [
            -75.371082,
            6.150912
          ],
          [
            -75.371865,
            6.150198
          ],
          [
            -75.372029,
            6.150054
          ],
          [
            -75.372481,
            6.149743
          ],
          [
            -75.372547,
            6.149701
          ],
          [
            -75.372613,
            6.149664
          ],
          [
            -75.37271,
            6.149609
          ],
          [
            -75.372827,
            6.149836
          ],
          [
            -75.372665,
            6.149928
          ],
          [
            -75.372592,
            6.149787
          ],
          [
            -75.372547,
            6.149701
          ],
          [
            -75.372502,
            6.149616
          ],
          [
            -75.372458,
            6.149533
          ],
          [
            -75.372402,
            6.149432
          ],
          [
            -75.372301,
            6.149256
          ],
          [
            -75.372272,
            6.149205
          ],
          [
            -75.372072,
            6.148813
          ],
          [
            -75.372025,
            6.148762
          ],
          [
            -75.371858,
            6.148472
          ],
          [
            -75.371731,
            6.148241
          ],
          [
            -75.371622,
            6.148014
          ],
          [
            -75.371502,
            6.147875
          ],
          [
            -75.371396,
            6.147817
          ],
          [
            -75.371329,
            6.147813
          ],
          [
            -75.371209,
            6.147861
          ],
          [
            -75.370956,
            6.148146
          ],
          [
            -75.370833,
            6.148231
          ],
          [
            -75.370459,
            6.148745
          ],
          [
            -75.370337,
            6.148995
          ],
          [
            -75.370293,
            6.149116
          ],
          [
            -75.37026,
            6.149323
          ],
          [
            -75.370247,
            6.149563
          ],
          [
            -75.370201,
            6.149996
          ],
          [
            -75.370124,
            6.150248
          ],
          [
            -75.370055,
            6.150418
          ],
          [
            -75.369959,
            6.150553
          ],
          [
            -75.369863,
            6.150645
          ],
          [
            -75.369705,
            6.15074
          ],
          [
            -75.369315,
            6.150305
          ],
          [
            -75.36923,
            6.150216
          ]
        ],
        "type": "LineString"
      }
    }
  ],
  "metadata": {
    "attribution": "openrouteservice.org | OpenStreetMap contributors",
    "service": "routing",
    "timestamp": 1764859165823,
    "query": {
      "coordinates": [
        [
          -75.337484,
          6.088041
        ],
        [
          -75.3693569,
          6.150095899999999
        ]
      ],
      "profile": "driving-hgv",
      "profileName": "driving-hgv",
      "preference": "recommended",
      "format": "geojson",
      "language": "es",
      "options": {
        "profile_params": {
          "restrictions": {
            "length": 8.0,
            "width": 2.5,
            "height": 3.5
          },
          "surface_quality_known": false,
          "allow_unsuitable": false
        },
        "avoid_polygons": {
          "coordinates": [
            [
              [
                [
                  -75.53398800000001,
                  6.1525436
                ],
                [
                  -75.531988,
                  6.1525436
                ],
                [
                  -75.531988,
                  6.1545436
                ],
                [
                  -75.53398800000001,
                  6.1545436
                ],
                [
                  -75.53398800000001,
                  6.1525436
                ]
              ]
            ],
            [
              [
                [
                  -75.49099790000001,
                  6.0932509999999995
                ],
                [
                  -75.4889979,
                  6.0932509999999995
                ],
                [
                  -75.4889979,
                  6.095251
                ],
                [
                  -75.49099790000001,
                  6.095251
                ],
                [
                  -75.49099790000001,
                  6.0932509999999995
                ]
              ]
            ],
            [
              [
                [
                  -75.44939930000001,
                  6.1764060999999995
                ],
                [
                  -75.4473993,
                  6.1764060999999995
                ],
                [
                  -75.4473993,
                  6.1784061
                ],
                [
                  -75.44939930000001,
                  6.1784061
                ],
                [
                  -75.44939930000001,
                  6.1764060999999995
                ]
              ]
            ],
            [
              [
                [
                  -75.4890572,
                  6.2037862
                ],
                [
                  -75.4870572,
                  6.2037862
                ],
                [
                  -75.4870572,
                  6.2057862
                ],
                [
                  -75.4890572,
                  6.2057862
                ],
                [
                  -75.4890572,
                  6.2037862
                ]
              ]
            ],
            [
              [
                [
                  -75.46672650000001,
                  6.1850524
                ],
                [
                  -75.4647265,
                  6.1850524
                ],
                [
                  -75.4647265,
                  6.187052400000001
                ],
                [
                  -75.46672650000001,
                  6.187052400000001
                ],
                [
                  -75.46672650000001,
                  6.1850524
                ]
              ]
            ],
            [
              [
                [
                  -75.5035304,
                  6.2159613
                ],
                [
                  -75.5015304,
                  6.2159613
                ],
                [
                  -75.5015304,
                  6.217961300000001
                ],
                [
                  -75.5035304,
                  6.217961300000001
                ],
                [
                  -75.5035304,
                  6.2159613
                ]
              ]
            ],
            [
              [
                [
                  -75.4913478,
                  6.170510299999999
                ],
                [
                  -75.48934779999999,
                  6.170510299999999
                ],
                [
                  -75.48934779999999,
                  6.1725103
                ],
                [
                  -75.4913478,
                  6.1725103
                ],
                [
                  -75.4913478,
                  6.170510299999999
                ]
              ]
            ],
            [
              [
                [
                  -75.5250472,
                  6.1422792
                ],
                [
                  -75.5230472,
                  6.1422792
                ],
                [
                  -75.5230472,
                  6.144279200000001
                ],
                [
                  -75.5250472,
                  6.144279200000001
                ],
                [
                  -75.5250472,
                  6.1422792
                ]
              ]
            ],
            [
              [
                [
                  -75.42459550000001,
                  6.123615999999999
                ],
                [
                  -75.4225955,
                  6.123615999999999
                ],
                [
                  -75.4225955,
                  6.125616
                ],
                [
                  -75.42459550000001,
                  6.125616
                ],
                [
                  -75.42459550000001,
                  6.123615999999999
                ]
              ]
            ],
            [
              [
                [
                  -75.5600752,
                  6.2197343
                ],
                [
                  -75.55807519999999,
                  6.2197343
                ],
                [
                  -75.55807519999999,
                  6.2217343000000005
                ],
                [
                  -75.5600752,
                  6.2217343000000005
                ],
                [
                  -75.5600752,
                  6.2197343
                ]
              ]
            ],
            [
              [
                [
                  -75.4291982,
                  6.0892721
                ],
                [
                  -75.42719819999999,
                  6.0892721
                ],
                [
                  -75.42719819999999,
                  6.0912721
                ],
                [
                  -75.4291982,
                  6.0912721
                ],
                [
                  -75.4291982,
                  6.0892721
                ]
              ]
            ],
            [
              [
                [
                  -75.50124240000001,
                  6.1697112
                ],
                [
                  -75.4992424,
                  6.1697112
                ],
                [
                  -75.4992424,
                  6.171711200000001
                ],
                [
                  -75.50124240000001,
                  6.171711200000001
                ],
                [
                  -75.50124240000001,
                  6.1697112
                ]
              ]
            ],
            [
              [
                [
                  -75.4364807,
                  6.1772187
                ],
                [
                  -75.4344807,
                  6.1772187
                ],
                [
                  -75.4344807,
                  6.179218700000001
                ],
                [
                  -75.4364807,
                  6.179218700000001
                ],
                [
                  -75.4364807,
                  6.1772187
                ]
              ]
            ],
            [
              [
                [
                  -75.4336162,
                  6.2493549999999995
                ],
                [
                  -75.4316162,
                  6.2493549999999995
                ],
                [
                  -75.4316162,
                  6.251355
                ],
                [
                  -75.4336162,
                  6.251355
                ],
                [
                  -75.4336162,
                  6.2493549999999995
                ]
              ]
            ],
            [
              [
                [
                  -75.555226,
                  6.133627199999999
                ],
                [
                  -75.553226,
                  6.133627199999999
                ],
                [
                  -75.553226,
                  6.1356272
                ],
                [
                  -75.555226,
                  6.1356272
                ],
                [
                  -75.555226,
                  6.133627199999999
                ]
              ]
            ],
            [
              [
                [
                  -75.481297,
                  6.089910199999999
                ],
                [
                  -75.47929699999999,
                  6.089910199999999
                ],
                [
                  -75.47929699999999,
                  6.0919102
                ],
                [
                  -75.481297,
                  6.0919102
                ],
                [
                  -75.481297,
                  6.089910199999999
                ]
              ]
            ],
            [
              [
                [
                  -75.4232837,
                  6.059844
                ],
                [
                  -75.42128369999999,
                  6.059844
                ],
                [
                  -75.42128369999999,
                  6.061844000000001
                ],
                [
                  -75.4232837,
                  6.061844000000001
                ],
                [
                  -75.4232837,
                  6.059844
                ]
              ]
            ],
            [
              [
                [
                  -75.4577368,
                  6.0576535
                ],
                [
                  -75.4557368,
                  6.0576535
                ],
                [
                  -75.4557368,
                  6.0596535000000005
                ],
                [
                  -75.4577368,
                  6.0596535000000005
                ],
                [
                  -75.4577368,
                  6.0576535
                ]
              ]
            ],
            [
              [
                [
                  -75.43430260000001,
                  6.1414703
                ],
                [
                  -75.4323026,
                  6.1414703
                ],
                [
                  -75.4323026,
                  6.143470300000001
                ],
                [
                  -75.43430260000001,
                  6.143470300000001
                ],
                [
                  -75.43430260000001,
                  6.1414703
                ]
              ]
            ],
            [
              [
                [
                  -75.452403,
                  6.112123599999999
                ],
                [
                  -75.450403,
                  6.112123599999999
                ],
                [
                  -75.450403,
                  6.1141236
                ],
                [
                  -75.452403,
                  6.1141236
                ],
                [
                  -75.452403,
                  6.112123599999999
                ]
              ]
            ],
            [
              [
                [
                  -75.6342218,
                  6.0668213
                ],
                [
                  -75.6322218,
                  6.0668213
                ],
                [
                  -75.6322218,
                  6.068821300000001
                ],
                [
                  -75.6342218,
                  6.068821300000001
                ],
                [
                  -75.6342218,
                  6.0668213
                ]
              ]
            ],
            [
              [
                [
                  -75.4502234,
                  6.0178674
                ],
                [
                  -75.44822339999999,
                  6.0178674
                ],
                [
                  -75.44822339999999,
                  6.019867400000001
                ],
                [
                  -75.4502234,
                  6.019867400000001
                ],
                [
                  -75.4502234,
                  6.0178674
                ]
              ]
            ],
            [
              [
                [
                  -75.4329548,
                  6.008317399999999
                ],
                [
                  -75.4309548,
                  6.008317399999999
                ],
                [
                  -75.4309548,
                  6.0103174
                ],
                [
                  -75.4329548,
                  6.0103174
                ],
                [
                  -75.4329548,
                  6.008317399999999
                ]
              ]
            ],
            [
              [
                [
                  -75.4134652,
                  6.022465599999999
                ],
                [
                  -75.4114652,
                  6.022465599999999
                ],
                [
                  -75.4114652,
                  6.0244656
                ],
                [
                  -75.4134652,
                  6.0244656
                ],
                [
                  -75.4134652,
                  6.022465599999999
                ]
              ]
            ],
            [
              [
                [
                  -75.3412419,
                  6.138306399999999
                ],
                [
                  -75.33924189999999,
                  6.138306399999999
                ],
                [
                  -75.33924189999999,
                  6.1403064
                ],
                [
                  -75.3412419,
                  6.1403064
                ],
                [
                  -75.3412419,
                  6.138306399999999
                ]
              ]
            ]
          ],
          "type": "MultiPolygon"
        }
      }
    },
    "engine": {
      "version": "9.5.0",
      "build_date": "2025-10-31T12:33:09Z",
      "graph_date": "2025-12-01T03:52:42Z",
      "osm_date": "2025-11-24T00:59:59Z"
    }
  }
}