{
  "type": "FeatureCollection",
  "bbox": [
    -75.58006,
    6.216863,
    -75.576957,
    6.224651
  ],
  "features": [
    {
      "bbox": [
        -75.58006,
        6.216863,
        -75.576957,
        6.224651
      ],
      "type": "Feature",
      "properties": {
        "extras": {
          "roadaccessrestrictions": {
            "values": [
              [
                0,
                1,
                0
              ],
              [
                1,
                2,
                32
              ],
              [
                2,
                20,
                0
              ]
            ],
            "summary": [
              {
                "value": 0.0,
                "distance": 1710.1,
                "amount": 99.17
              },
              {
                "value": 32.0,
                "distance": 14.4,
                "amount": 0.83
              }
            ]
          }
        },
        "warnings": [
          {
            "code": 1,
            "message": "There may be restrictions on some roads"
          }
        ],
        "way_points": [
          0,
          20
        ],
        "summary": {
          "distance": 1724.5,
          "duration": 151.0
        }
      },
      "geometry": {
        "coordinates": [
          [
            -75.579887,
            6.220218
          ],
          [
            -75.579937,
            6.220024
          ],
          [
            -75.58006,
            6.220068
          ],
          [
            -75.57974,
            6.22138
          ],
          [
            -75.579603,
            6.221836
          ],
          [
            -75.57944,
            6.222314
          ],
          [
            -75.579332,
            6.222634
          ],
          [
            -75.579404,
            6.222663
          ],
          [
            -75.578818,
            6.224254
          ],
          [
            -75.578679,
            6.224382
          ],
          [
            -75.578578,
            6.224651
          ],
          [
            -75.577532,
            6.224262
          ],
          [
            -75.577269,
            6.224163
          ],
          [
            -75.576957,
            6.224054
          ],
          [
            -75.577831,
            6.217934
          ],
          [
            -75.578184,
            6.21765
          ],
          [
            -75.578243,
            6.217228
          ],
          [
            -75.57827,
            6.217035
          ],
          [
            -75.578605,
            6.217114
          ],
          [
            -75.579167,
            6.217235
          ],
          [
            -75.579226,
            6.216863
          ]
        ],
        "type": "LineString"
      }
    }
  ],
  "metadata": {
    "attribution": "openrouteservice.org | OpenStreetMap contributors",
    "service": "routing",
    "timestamp": 1765570651290,
    "query": {
      "coordinates": [
        [
          -75.579857,
          6.22021
        ],
        [
          -75.579387,
          6.216888
        ]
      ],
      "profile": "driving-hgv",
      "profileName": "driving-hgv",
      "preference": "recommended",
      "format": "geojson",
      "language": "es"
    },
    "engine": {
      "version": "9.5.0",
      "build_date": "2025-10-31T12:33:09Z",
      "graph_date": "2025-12-01T03:52:42Z",
      "osm_date": "2025-11-24T00:59:59Z"
    }
  }
}