{
  "type": "FeatureCollection",
  "bbox": [
    -75.369007,
    6.133668,
    -75.266747,
    6.178263
  ],
  "features": [
    {
      "bbox": [
        -75.369007,
        6.133668,
        -75.266747,
        6.178263
      ],
      "type": "Feature",
      "properties": {
        "way_points": [
          0,
          340
        ],
        "summary": {
          "distance": 16915.2,
          "duration": 1900.8
        }
      },
      "geometry": {
        "coordinates": [
          [
            -75.367068,
            6.164426
          ],
          [
            -75.367119,
            6.164203
          ],
          [
            -75.367034,
            6.16416
          ],
          [
            -75.367096,
            6.163988
          ],
          [
            -75.367171,
            6.163781
          ],
          [
            -75.367485,
            6.162921
          ],
          [
            -75.367524,
            6.162837
          ],
          [
            -75.367617,
            6.162708
          ],
          [
            -75.367679,
            6.162661
          ],
          [
            -75.367724,
            6.162586
          ],
          [
            -75.367736,
            6.162499
          ],
          [
            -75.367717,
            6.162425
          ],
          [
            -75.367722,
            6.162237
          ],
          [
            -75.367781,
            6.162035
          ],
          [
            -75.367932,
            6.161713
          ],
          [
            -75.368002,
            6.161613
          ],
          [
            -75.368159,
            6.161402
          ],
          [
            -75.368322,
            6.161212
          ],
          [
            -75.368446,
            6.161067
          ],
          [
            -75.368634,
            6.160843
          ],
          [
            -75.368745,
            6.160711
          ],
          [
            -75.368939,
            6.160492
          ],
          [
            -75.368969,
            6.160465
          ],
          [
            -75.369007,
            6.160396
          ],
          [
            -75.369001,
            6.160288
          ],
          [
            -75.368931,
            6.160204
          ],
          [
            -75.368854,
            6.16018
          ],
          [
            -75.368774,
            6.160193
          ],
          [
            -75.368739,
            6.160213
          ],
          [
            -75.36858,
            6.16022
          ],
          [
            -75.368476,
            6.16021
          ],
          [
            -75.368131,
            6.160052
          ],
          [
            -75.367794,
            6.159884
          ],
          [
            -75.367704,
            6.159838
          ],
          [
            -75.367405,
            6.159694
          ],
          [
            -75.36727,
            6.159647
          ],
          [
            -75.366995,
            6.159597
          ],
          [
            -75.366587,
            6.159572
          ],
          [
            -75.366328,
            6.159546
          ],
          [
            -75.365902,
            6.159478
          ],
          [
            -75.365777,
            6.159511
          ],
          [
            -75.365683,
            6.159666
          ],
          [
            -75.365718,
            6.159807
          ],
          [
            -75.365735,
            6.159962
          ],
          [
            -75.365714,
            6.160171
          ],
          [
            -75.365678,
            6.1603
          ],
          [
            -75.365564,
            6.160508
          ],
          [
            -75.365493,
            6.16059
          ],
          [
            -75.365385,
            6.160689
          ],
          [
            -75.364899,
            6.160992
          ],
          [
            -75.364663,
            6.161179
          ],
          [
            -75.364218,
            6.161602
          ],
          [
            -75.36359,
            6.162247
          ],
          [
            -75.361735,
            6.164127
          ],
          [
            -75.361613,
            6.164309
          ],
          [
            -75.361474,
            6.164651
          ],
          [
            -75.36137,
            6.164848
          ],
          [
            -75.36125,
            6.164933
          ],
          [
            -75.361186,
            6.165022
          ],
          [
            -75.361151,
            6.165125
          ],
          [
            -75.361147,
            6.165239
          ],
          [
            -75.361178,
            6.165349
          ],
          [
            -75.36124,
            6.165444
          ],
          [
            -75.361328,
            6.165518
          ],
          [
            -75.361434,
            6.165561
          ],
          [
            -75.361541,
            6.165653
          ],
          [
            -75.361603,
            6.165741
          ],
          [
            -75.361681,
            6.165931
          ],
          [
            -75.36298,
            6.169712
          ],
          [
            -75.363095,
            6.169993
          ],
          [
            -75.36377,
            6.17119
          ],
          [
            -75.363838,
            6.171339
          ],
          [
            -75.363881,
            6.171485
          ],
          [
            -75.363894,
            6.171678
          ],
          [
            -75.363878,
            6.171837
          ],
          [
            -75.363799,
            6.172028
          ],
          [
            -75.363113,
            6.172811
          ],
          [
            -75.362925,
            6.173048
          ],
          [
            -75.362821,
            6.173195
          ],
          [
            -75.362732,
            6.173401
          ],
          [
            -75.362532,
            6.17381
          ],
          [
            -75.362408,
            6.17404
          ],
          [
            -75.362157,
            6.174578
          ],
          [
            -75.361936,
            6.175285
          ],
          [
            -75.36177,
            6.175773
          ],
          [
            -75.361666,
            6.176066
          ],
          [
            -75.361472,
            6.176489
          ],
          [
            -75.361396,
            6.176666
          ],
          [
            -75.361203,
            6.177077
          ],
          [
            -75.361006,
            6.177507
          ],
          [
            -75.360815,
            6.177928
          ],
          [
            -75.360689,
            6.178133
          ],
          [
            -75.360614,
            6.178202
          ],
          [
            -75.36056,
            6.178236
          ],
          [
            -75.360525,
            6.17824
          ],
          [
            -75.360459,
            6.178263
          ],
          [
            -75.360223,
            6.178233
          ],
          [
            -75.358878,
            6.177769
          ],
          [
            -75.357971,
            6.177445
          ],
          [
            -75.35773,
            6.177359
          ],
          [
            -75.357564,
            6.177308
          ],
          [
            -75.356487,
            6.176906
          ],
          [
            -75.356401,
            6.176874
          ],
          [
            -75.35482,
            6.176317
          ],
          [
            -75.353895,
            6.175981
          ],
          [
            -75.352936,
            6.17566
          ],
          [
            -75.352101,
            6.175392
          ],
          [
            -75.35148,
            6.175194
          ],
          [
            -75.350161,
            6.174781
          ],
          [
            -75.349739,
            6.174649
          ],
          [
            -75.349512,
            6.174578
          ],
          [
            -75.349275,
            6.174504
          ],
          [
            -75.348435,
            6.174233
          ],
          [
            -75.348055,
            6.174089
          ],
          [
            -75.347853,
            6.173981
          ],
          [
            -75.347659,
            6.173854
          ],
          [
            -75.346763,
            6.173173
          ],
          [
            -75.346501,
            6.172976
          ],
          [
            -75.346101,
            6.17273
          ],
          [
            -75.345853,
            6.172595
          ],
          [
            -75.345549,
            6.172481
          ],
          [
            -75.345086,
            6.172351
          ],
          [
            -75.344134,
            6.172148
          ],
          [
            -75.343808,
            6.172063
          ],
          [
            -75.34338,
            6.17191
          ],
          [
            -75.342995,
            6.171704
          ],
          [
            -75.342624,
            6.171451
          ],
          [
            -75.342439,
            6.171323
          ],
          [
            -75.341472,
            6.170511
          ],
          [
            -75.341272,
            6.170341
          ],
          [
            -75.341226,
            6.170302
          ],
          [
            -75.340909,
            6.170051
          ],
          [
            -75.339758,
            6.169241
          ],
          [
            -75.33881,
            6.168569
          ],
          [
            -75.338498,
            6.168389
          ],
          [
            -75.338285,
            6.168278
          ],
          [
            -75.338161,
            6.168223
          ],
          [
            -75.337785,
            6.168069
          ],
          [
            -75.337549,
            6.167979
          ],
          [
            -75.337171,
            6.167866
          ],
          [
            -75.336901,
            6.167818
          ],
          [
            -75.3365,
            6.167797
          ],
          [
            -75.336126,
            6.167788
          ],
          [
            -75.335733,
            6.167816
          ],
          [
            -75.33468,
            6.168006
          ],
          [
            -75.334374,
            6.168034
          ],
          [
            -75.334299,
            6.168031
          ],
          [
            -75.334232,
            6.168028
          ],
          [
            -75.333909,
            6.168016
          ],
          [
            -75.333397,
            6.167946
          ],
          [
            -75.333246,
            6.167943
          ],
          [
            -75.33309,
            6.167968
          ],
          [
            -75.332903,
            6.16801
          ],
          [
            -75.33256,
            6.168164
          ],
          [
            -75.332378,
            6.168266
          ],
          [
            -75.332219,
            6.168329
          ],
          [
            -75.331997,
            6.168425
          ],
          [
            -75.331564,
            6.16853
          ],
          [
            -75.331141,
            6.168593
          ],
          [
            -75.330848,
            6.168608
          ],
          [
            -75.330414,
            6.168588
          ],
          [
            -75.329709,
            6.168483
          ],
          [
            -75.329063,
            6.168409
          ],
          [
            -75.328548,
            6.168308
          ],
          [
            -75.328078,
            6.168172
          ],
          [
            -75.327642,
            6.168076
          ],
          [
            -75.32725,
            6.168037
          ],
          [
            -75.326873,
            6.168035
          ],
          [
            -75.32643,
            6.168029
          ],
          [
            -75.32608,
            6.168037
          ],
          [
            -75.325816,
            6.168026
          ],
          [
            -75.325571,
            6.168005
          ],
          [
            -75.325271,
            6.167956
          ],
          [
            -75.324934,
            6.167873
          ],
          [
            -75.324554,
            6.167746
          ],
          [
            -75.32389,
            6.167551
          ],
          [
            -75.323468,
            6.167385
          ],
          [
            -75.322019,
            6.166913
          ],
          [
            -75.32183,
            6.166866
          ],
          [
            -75.321185,
            6.166599
          ],
          [
            -75.320995,
            6.166497
          ],
          [
            -75.320674,
            6.166261
          ],
          [
            -75.320393,
            6.165982
          ],
          [
            -75.320099,
            6.165556
          ],
          [
            -75.319904,
            6.165214
          ],
          [
            -75.319789,
            6.16489
          ],
          [
            -75.319509,
            6.16329
          ],
          [
            -75.319318,
            6.162218
          ],
          [
            -75.319243,
            6.161855
          ],
          [
            -75.319008,
            6.161241
          ],
          [
            -75.31875,
            6.160702
          ],
          [
            -75.318409,
            6.160065
          ],
          [
            -75.317861,
            6.159333
          ],
          [
            -75.317562,
            6.158972
          ],
          [
            -75.317309,
            6.15861
          ],
          [
            -75.316922,
            6.157977
          ],
          [
            -75.316852,
            6.157851
          ],
          [
            -75.316586,
            6.15748
          ],
          [
            -75.316396,
            6.15728
          ],
          [
            -75.316183,
            6.157099
          ],
          [
            -75.316157,
            6.157079
          ],
          [
            -75.315668,
            6.156717
          ],
          [
            -75.315504,
            6.156547
          ],
          [
            -75.314787,
            6.155711
          ],
          [
            -75.314106,
            6.154916
          ],
          [
            -75.313357,
            6.154031
          ],
          [
            -75.313015,
            6.153363
          ],
          [
            -75.312886,
            6.152978
          ],
          [
            -75.312816,
            6.152395
          ],
          [
            -75.312825,
            6.151966
          ],
          [
            -75.312837,
            6.151594
          ],
          [
            -75.312861,
            6.150851
          ],
          [
            -75.312863,
            6.150766
          ],
          [
            -75.312871,
            6.150518
          ],
          [
            -75.312849,
            6.150056
          ],
          [
            -75.312743,
            6.149649
          ],
          [
            -75.312572,
            6.149211
          ],
          [
            -75.31237,
            6.148846
          ],
          [
            -75.312281,
            6.148715
          ],
          [
            -75.311975,
            6.148335
          ],
          [
            -75.311349,
            6.147627
          ],
          [
            -75.311267,
            6.14753
          ],
          [
            -75.310896,
            6.147107
          ],
          [
            -75.310782,
            6.146964
          ],
          [
            -75.31056,
            6.146603
          ],
          [
            -75.310162,
            6.14599
          ],
          [
            -75.309916,
            6.145656
          ],
          [
            -75.309586,
            6.145307
          ],
          [
            -75.309366,
            6.145124
          ],
          [
            -75.308625,
            6.14452
          ],
          [
            -75.308157,
            6.144044
          ],
          [
            -75.306316,
            6.141969
          ],
          [
            -75.306123,
            6.14177
          ],
          [
            -75.305912,
            6.141587
          ],
          [
            -75.305687,
            6.141424
          ],
          [
            -75.305448,
            6.14128
          ],
          [
            -75.305119,
            6.141123
          ],
          [
            -75.304775,
            6.141004
          ],
          [
            -75.304419,
            6.140924
          ],
          [
            -75.304073,
            6.140886
          ],
          [
            -75.303725,
            6.140884
          ],
          [
            -75.303379,
            6.140919
          ],
          [
            -75.302732,
            6.141064
          ],
          [
            -75.301973,
            6.141184
          ],
          [
            -75.301644,
            6.141204
          ],
          [
            -75.301315,
            6.141195
          ],
          [
            -75.300661,
            6.141143
          ],
          [
            -75.300018,
            6.140985
          ],
          [
            -75.299298,
            6.140607
          ],
          [
            -75.298939,
            6.140268
          ],
          [
            -75.298595,
            6.139823
          ],
          [
            -75.298013,
            6.139004
          ],
          [
            -75.297969,
            6.138941
          ],
          [
            -75.296306,
            6.136566
          ],
          [
            -75.29595,
            6.136155
          ],
          [
            -75.295558,
            6.135777
          ],
          [
            -75.295287,
            6.135551
          ],
          [
            -75.294842,
            6.135234
          ],
          [
            -75.294609,
            6.135091
          ],
          [
            -75.294569,
            6.135068
          ],
          [
            -75.29416,
            6.134853
          ],
          [
            -75.293735,
            6.13467
          ],
          [
            -75.292321,
            6.134244
          ],
          [
            -75.290913,
            6.133811
          ],
          [
            -75.290253,
            6.133686
          ],
          [
            -75.289784,
            6.133668
          ],
          [
            -75.289261,
            6.133739
          ],
          [
            -75.288997,
            6.133815
          ],
          [
            -75.288808,
            6.13387
          ],
          [
            -75.288478,
            6.134032
          ],
          [
            -75.287761,
            6.134516
          ],
          [
            -75.287091,
            6.134973
          ],
          [
            -75.286721,
            6.135292
          ],
          [
            -75.28657,
            6.135437
          ],
          [
            -75.286139,
            6.13594
          ],
          [
            -75.285943,
            6.136152
          ],
          [
            -75.285711,
            6.13634
          ],
          [
            -75.285472,
            6.136495
          ],
          [
            -75.285238,
            6.136605
          ],
          [
            -75.284971,
            6.136698
          ],
          [
            -75.284167,
            6.136876
          ],
          [
            -75.282924,
            6.137148
          ],
          [
            -75.282009,
            6.137274
          ],
          [
            -75.281818,
            6.137286
          ],
          [
            -75.281382,
            6.137279
          ],
          [
            -75.28088,
            6.13722
          ],
          [
            -75.280659,
            6.137177
          ],
          [
            -75.280054,
            6.136998
          ],
          [
            -75.279882,
            6.136926
          ],
          [
            -75.27889,
            6.136439
          ],
          [
            -75.278335,
            6.136122
          ],
          [
            -75.277792,
            6.13584
          ],
          [
            -75.276091,
            6.134906
          ],
          [
            -75.275818,
            6.13474
          ],
          [
            -75.275396,
            6.134569
          ],
          [
            -75.2752,
            6.134521
          ],
          [
            -75.274949,
            6.13445
          ],
          [
            -75.274633,
            6.134406
          ],
          [
            -75.274182,
            6.13438
          ],
          [
            -75.272473,
            6.134441
          ],
          [
            -75.272025,
            6.134435
          ],
          [
            -75.271335,
            6.134468
          ],
          [
            -75.271272,
            6.134458
          ],
          [
            -75.271192,
            6.134404
          ],
          [
            -75.271168,
            6.13437
          ],
          [
            -75.27114,
            6.134426
          ],
          [
            -75.271089,
            6.134473
          ],
          [
            -75.271033,
            6.134501
          ],
          [
            -75.270541,
            6.134654
          ],
          [
            -75.270438,
            6.134739
          ],
          [
            -75.270347,
            6.134852
          ],
          [
            -75.269396,
            6.135123
          ],
          [
            -75.269295,
            6.13515
          ],
          [
            -75.269008,
            6.135198
          ],
          [
            -75.26877,
            6.13521
          ],
          [
            -75.268412,
            6.135201
          ],
          [
            -75.268218,
            6.135188
          ],
          [
            -75.267847,
            6.135567
          ],
          [
            -75.267735,
            6.135807
          ],
          [
            -75.26766,
            6.136055
          ],
          [
            -75.267625,
            6.136141
          ],
          [
            -75.267579,
            6.136223
          ],
          [
            -75.267371,
            6.136386
          ],
          [
            -75.267287,
            6.136517
          ],
          [
            -75.267001,
            6.136964
          ],
          [
            -75.266918,
            6.137048
          ],
          [
            -75.266872,
            6.137035
          ],
          [
            -75.266825,
            6.137045
          ],
          [
            -75.266789,
            6.137078
          ],
          [
            -75.266774,
            6.137136
          ],
          [
            -75.266797,
            6.137191
          ],
          [
            -75.26685,
            6.137221
          ],
          [
            -75.266775,
            6.137456
          ],
          [
            -75.266747,
            6.137532
          ],
          [
            -75.267463,
            6.137688
          ],
          [
            -75.267459,
            6.138061
          ],
          [
            -75.267425,
            6.138539
          ],
          [
            -75.268014,
            6.138561
          ],
          [
            -75.267994,
            6.139178
          ],
          [
            -75.268635,
            6.139203
          ],
          [
            -75.268604,
            6.139574
          ]
        ],
        "type": "LineString"
      }
    }
  ],
  "metadata": {
    "attribution": "openrouteservice.org | OpenStreetMap contributors",
    "service": "routing",
    "timestamp": 1764859479639,
    "query": {
      "coordinates": [
        [
          -75.3671169,
          6.1644366
        ],
        [
          -75.2684921,
          6.1395646
        ]
      ],
      "profile": "driving-hgv",
      "profileName": "driving-hgv",
      "preference": "recommended",
      "format": "geojson",
      "language": "es",
      "options": {
        "profile_params": {
          "restrictions": {
            "length": 8.0,
            "width": 2.5,
            "height": 3.5
          },
          "surface_quality_known": false,
          "allow_unsuitable": false
        },
        "avoid_polygons": {
          "coordinates": [
            [
              [
                [
                  -75.53398800000001,
                  6.1525436
                ],
                [
                  -75.531988,
                  6.1525436
                ],
                [
                  -75.531988,
                  6.1545436
                ],
                [
                  -75.53398800000001,
                  6.1545436
                ],
                [
                  -75.53398800000001,
                  6.1525436
                ]
              ]
            ],
            [
              [
                [
                  -75.49099790000001,
                  6.0932509999999995
                ],
                [
                  -75.4889979,
                  6.0932509999999995
                ],
                [
                  -75.4889979,
                  6.095251
                ],
                [
                  -75.49099790000001,
                  6.095251
                ],
                [
                  -75.49099790000001,
                  6.0932509999999995
                ]
              ]
            ],
            [
              [
                [
                  -75.44939930000001,
                  6.1764060999999995
                ],
                [
                  -75.4473993,
                  6.1764060999999995
                ],
                [
                  -75.4473993,
                  6.1784061
                ],
                [
                  -75.44939930000001,
                  6.1784061
                ],
                [
                  -75.44939930000001,
                  6.1764060999999995
                ]
              ]
            ],
            [
              [
                [
                  -75.4890572,
                  6.2037862
                ],
                [
                  -75.4870572,
                  6.2037862
                ],
                [
                  -75.4870572,
                  6.2057862
                ],
                [
                  -75.4890572,
                  6.2057862
                ],
                [
                  -75.4890572,
                  6.2037862
                ]
              ]
            ],
            [
              [
                [
                  -75.46672650000001,
                  6.1850524
                ],
                [
                  -75.4647265,
                  6.1850524
                ],
                [
                  -75.4647265,
                  6.187052400000001
                ],
                [
                  -75.46672650000001,
                  6.187052400000001
                ],
                [
                  -75.46672650000001,
                  6.1850524
                ]
              ]
            ],
            [
              [
                [
                  -75.5035304,
                  6.2159613
                ],
                [
                  -75.5015304,
                  6.2159613
                ],
                [
                  -75.5015304,
                  6.217961300000001
                ],
                [
                  -75.5035304,
                  6.217961300000001
                ],
                [
                  -75.5035304,
                  6.2159613
                ]
              ]
            ],
            [
              [
                [
                  -75.4913478,
                  6.170510299999999
                ],
                [
                  -75.48934779999999,
                  6.170510299999999
                ],
                [
                  -75.48934779999999,
                  6.1725103
                ],
                [
                  -75.4913478,
                  6.1725103
                ],
                [
                  -75.4913478,
                  6.170510299999999
                ]
              ]
            ],
            [
              [
                [
                  -75.5250472,
                  6.1422792
                ],
                [
                  -75.5230472,
                  6.1422792
                ],
                [
                  -75.5230472,
                  6.144279200000001
                ],
                [
                  -75.5250472,
                  6.144279200000001
                ],
                [
                  -75.5250472,
                  6.1422792
                ]
              ]
            ],
            [
              [
                [
                  -75.42459550000001,
                  6.123615999999999
                ],
                [
                  -75.4225955,
                  6.123615999999999
                ],
                [
                  -75.4225955,
                  6.125616
                ],
                [
                  -75.42459550000001,
                  6.125616
                ],
                [
                  -75.42459550000001,
                  6.123615999999999
                ]
              ]
            ],
            [
              [
                [
                  -75.5600752,
                  6.2197343
                ],
                [
                  -75.55807519999999,
                  6.2197343
                ],
                [
                  -75.55807519999999,
                  6.2217343000000005
                ],
                [
                  -75.5600752,
                  6.2217343000000005
                ],
                [
                  -75.5600752,
                  6.2197343
                ]
              ]
            ],
            [
              [
                [
                  -75.4291982,
                  6.0892721
                ],
                [
                  -75.42719819999999,
                  6.0892721
                ],
                [
                  -75.42719819999999,
                  6.0912721
                ],
                [
                  -75.4291982,
                  6.0912721
                ],
                [
                  -75.4291982,
                  6.0892721
                ]
              ]
            ],
            [
              [
                [
                  -75.50124240000001,
                  6.1697112
                ],
                [
                  -75.4992424,
                  6.1697112
                ],
                [
                  -75.4992424,
                  6.171711200000001
                ],
                [
                  -75.50124240000001,
                  6.171711200000001
                ],
                [
                  -75.50124240000001,
                  6.1697112
                ]
              ]
            ],
            [
              [
                [
                  -75.4364807,
                  6.1772187
                ],
                [
                  -75.4344807,
                  6.1772187
                ],
                [
                  -75.4344807,
                  6.179218700000001
                ],
                [
                  -75.4364807,
                  6.179218700000001
                ],
                [
                  -75.4364807,
                  6.1772187
                ]
              ]
            ],
            [
              [
                [
                  -75.4336162,
                  6.2493549999999995
                ],
                [
                  -75.4316162,
                  6.2493549999999995
                ],
                [
                  -75.4316162,
                  6.251355
                ],
                [
                  -75.4336162,
                  6.251355
                ],
                [
                  -75.4336162,
                  6.2493549999999995
                ]
              ]
            ],
            [
              [
                [
                  -75.555226,
                  6.133627199999999
                ],
                [
                  -75.553226,
                  6.133627199999999
                ],
                [
                  -75.553226,
                  6.1356272
                ],
                [
                  -75.555226,
                  6.1356272
                ],
                [
                  -75.555226,
                  6.133627199999999
                ]
              ]
            ],
            [
              [
                [
                  -75.481297,
                  6.089910199999999
                ],
                [
                  -75.47929699999999,
                  6.089910199999999
                ],
                [
                  -75.47929699999999,
                  6.0919102
                ],
                [
                  -75.481297,
                  6.0919102
                ],
                [
                  -75.481297,
                  6.089910199999999
                ]
              ]
            ],
            [
              [
                [
                  -75.4232837,
                  6.059844
                ],
                [
                  -75.42128369999999,
                  6.059844
                ],
                [
                  -75.42128369999999,
                  6.061844000000001
                ],
                [
                  -75.4232837,
                  6.061844000000001
                ],
                [
                  -75.4232837,
                  6.059844
                ]
              ]
            ],
            [
              [
                [
                  -75.4577368,
                  6.0576535
                ],
                [
                  -75.4557368,
                  6.0576535
                ],
                [
                  -75.4557368,
                  6.0596535000000005
                ],
                [
                  -75.4577368,
                  6.0596535000000005
                ],
                [
                  -75.4577368,
                  6.0576535
                ]
              ]
            ],
            [
              [
                [
                  -75.43430260000001,
                  6.1414703
                ],
                [
                  -75.4323026,
                  6.1414703
                ],
                [
                  -75.4323026,
                  6.143470300000001
                ],
                [
                  -75.43430260000001,
                  6.143470300000001
                ],
                [
                  -75.43430260000001,
                  6.1414703
                ]
              ]
            ],
            [
              [
                [
                  -75.452403,
                  6.112123599999999
                ],
                [
                  -75.450403,
                  6.112123599999999
                ],
                [
                  -75.450403,
                  6.1141236
                ],
                [
                  -75.452403,
                  6.1141236
                ],
                [
                  -75.452403,
                  6.112123599999999
                ]
              ]
            ],
            [
              [
                [
                  -75.6342218,
                  6.0668213
                ],
                [
                  -75.6322218,
                  6.0668213
                ],
                [
                  -75.6322218,
                  6.068821300000001
                ],
                [
                  -75.6342218,
                  6.068821300000001
                ],
                [
                  -75.6342218,
                  6.0668213
                ]
              ]
            ],
            [
              [
                [
                  -75.4502234,
                  6.0178674
                ],
                [
                  -75.44822339999999,
                  6.0178674
                ],
                [
                  -75.44822339999999,
                  6.019867400000001
                ],
                [
                  -75.4502234,
                  6.019867400000001
                ],
                [
                  -75.4502234,
                  6.0178674
                ]
              ]
            ],
            [
              [
                [
                  -75.4329548,
                  6.008317399999999
                ],
                [
                  -75.4309548,
                  6.008317399999999
                ],
                [
                  -75.4309548,
                  6.0103174
                ],
                [
                  -75.4329548,
                  6.0103174
                ],
                [
                  -75.4329548,
                  6.008317399999999
                ]
              ]
            ],
            [
              [
                [
                  -75.4134652,
                  6.022465599999999
                ],
                [
                  -75.4114652,
                  6.022465599999999
                ],
                [
                  -75.4114652,
                  6.0244656
                ],
                [
                  -75.4134652,
                  6.0244656
                ],
                [
                  -75.4134652,
                  6.022465599999999
                ]
              ]
            ],
            [
              [
                [
                  -75.3412419,
                  6.138306399999999
                ],
                [
                  -75.33924189999999,
                  6.138306399999999
                ],
                [
                  -75.33924189999999,
                  6.1403064
                ],
                [
                  -75.3412419,
                  6.1403064
                ],
                [
                  -75.3412419,
                  6.138306399999999
                ]
              ]
            ]
          ],
          "type": "MultiPolygon"
        }
      }
    },
    "engine": {
      "version": "9.5.0",
      "build_date": "2025-10-31T12:33:09Z",
      "graph_date": "2025-12-01T03:52:42Z",
      "osm_date": "2025-11-24T00:59:59Z"
    }
  }
}