{
  "type": "FeatureCollection",
  "bbox": [
    -75.363523,
    6.087978,
    -75.337475,
    6.175379
  ],
  "features": [
    {
      "bbox": [
        -75.363523,
        6.087978,
        -75.337475,
        6.175379
      ],
      "type": "Feature",
      "properties": {
        "way_points": [
          0,
          407
        ],
        "summary": {
          "distance": 15061.1,
          "duration": 1400.8
        }
      },
      "geometry": {
        "coordinates": [
          [
            -75.337718,
            6.170285
          ],
          [
            -75.337713,
            6.170314
          ],
          [
            -75.338112,
            6.170433
          ],
          [
            -75.338934,
            6.170204
          ],
          [
            -75.339111,
            6.170945
          ],
          [
            -75.338889,
            6.171012
          ],
          [
            -75.338782,
            6.171063
          ],
          [
            -75.338702,
            6.171136
          ],
          [
            -75.338446,
            6.171473
          ],
          [
            -75.338402,
            6.171509
          ],
          [
            -75.33831,
            6.171605
          ],
          [
            -75.338119,
            6.171756
          ],
          [
            -75.337971,
            6.172281
          ],
          [
            -75.337943,
            6.172426
          ],
          [
            -75.337849,
            6.172776
          ],
          [
            -75.337806,
            6.172984
          ],
          [
            -75.338075,
            6.173029
          ],
          [
            -75.338244,
            6.173055
          ],
          [
            -75.3386,
            6.17313
          ],
          [
            -75.338902,
            6.17312
          ],
          [
            -75.339385,
            6.173092
          ],
          [
            -75.339663,
            6.173139
          ],
          [
            -75.340058,
            6.17324
          ],
          [
            -75.340257,
            6.173286
          ],
          [
            -75.340817,
            6.173429
          ],
          [
            -75.341094,
            6.173496
          ],
          [
            -75.342198,
            6.173775
          ],
          [
            -75.342382,
            6.173834
          ],
          [
            -75.342835,
            6.174013
          ],
          [
            -75.343823,
            6.174446
          ],
          [
            -75.344117,
            6.174596
          ],
          [
            -75.345162,
            6.175379
          ],
          [
            -75.345261,
            6.175292
          ],
          [
            -75.345313,
            6.175261
          ],
          [
            -75.34549,
            6.175022
          ],
          [
            -75.345733,
            6.174705
          ],
          [
            -75.345786,
            6.174631
          ],
          [
            -75.345954,
            6.174398
          ],
          [
            -75.345989,
            6.174346
          ],
          [
            -75.346104,
            6.174242
          ],
          [
            -75.346218,
            6.174178
          ],
          [
            -75.346296,
            6.174185
          ],
          [
            -75.346372,
            6.174167
          ],
          [
            -75.346442,
            6.174124
          ],
          [
            -75.346486,
            6.174072
          ],
          [
            -75.346514,
            6.174011
          ],
          [
            -75.346524,
            6.173944
          ],
          [
            -75.346514,
            6.173877
          ],
          [
            -75.34645,
            6.173769
          ],
          [
            -75.346399,
            6.173731
          ],
          [
            -75.34634,
            6.173707
          ],
          [
            -75.346267,
            6.1737
          ],
          [
            -75.346196,
            6.173714
          ],
          [
            -75.346132,
            6.173749
          ],
          [
            -75.345923,
            6.173704
          ],
          [
            -75.345492,
            6.173416
          ],
          [
            -75.345385,
            6.173322
          ],
          [
            -75.345306,
            6.173203
          ],
          [
            -75.345268,
            6.173091
          ],
          [
            -75.345255,
            6.172986
          ],
          [
            -75.345271,
            6.17285
          ],
          [
            -75.345425,
            6.172295
          ],
          [
            -75.345453,
            6.172178
          ],
          [
            -75.345477,
            6.172003
          ],
          [
            -75.345458,
            6.17192
          ],
          [
            -75.345419,
            6.171852
          ],
          [
            -75.34535,
            6.171792
          ],
          [
            -75.345256,
            6.171739
          ],
          [
            -75.345153,
            6.171636
          ],
          [
            -75.345112,
            6.171575
          ],
          [
            -75.345035,
            6.17137
          ],
          [
            -75.345018,
            6.171311
          ],
          [
            -75.344985,
            6.17126
          ],
          [
            -75.344938,
            6.171221
          ],
          [
            -75.344854,
            6.171171
          ],
          [
            -75.344804,
            6.171108
          ],
          [
            -75.344763,
            6.171022
          ],
          [
            -75.344725,
            6.170818
          ],
          [
            -75.344734,
            6.170705
          ],
          [
            -75.344771,
            6.170565
          ],
          [
            -75.344878,
            6.17044
          ],
          [
            -75.345073,
            6.17028
          ],
          [
            -75.345207,
            6.170217
          ],
          [
            -75.345277,
            6.170207
          ],
          [
            -75.345377,
            6.170245
          ],
          [
            -75.345456,
            6.17032
          ],
          [
            -75.345496,
            6.170402
          ],
          [
            -75.345501,
            6.170583
          ],
          [
            -75.345478,
            6.171124
          ],
          [
            -75.345494,
            6.171214
          ],
          [
            -75.345532,
            6.171297
          ],
          [
            -75.345623,
            6.171397
          ],
          [
            -75.345859,
            6.171549
          ],
          [
            -75.345983,
            6.171593
          ],
          [
            -75.346155,
            6.171595
          ],
          [
            -75.346284,
            6.171546
          ],
          [
            -75.346668,
            6.171345
          ],
          [
            -75.346766,
            6.171294
          ],
          [
            -75.347121,
            6.171089
          ],
          [
            -75.347186,
            6.171032
          ],
          [
            -75.347242,
            6.170952
          ],
          [
            -75.347272,
            6.170871
          ],
          [
            -75.347289,
            6.170741
          ],
          [
            -75.34729,
            6.170252
          ],
          [
            -75.347318,
            6.170112
          ],
          [
            -75.347352,
            6.170015
          ],
          [
            -75.347424,
            6.169924
          ],
          [
            -75.347578,
            6.169779
          ],
          [
            -75.347676,
            6.169668
          ],
          [
            -75.347946,
            6.169446
          ],
          [
            -75.348057,
            6.169376
          ],
          [
            -75.348169,
            6.169331
          ],
          [
            -75.348298,
            6.169302
          ],
          [
            -75.349215,
            6.169217
          ],
          [
            -75.349583,
            6.169192
          ],
          [
            -75.349668,
            6.169197
          ],
          [
            -75.350526,
            6.169227
          ],
          [
            -75.35105,
            6.169304
          ],
          [
            -75.351555,
            6.169415
          ],
          [
            -75.352855,
            6.169913
          ],
          [
            -75.353089,
            6.169983
          ],
          [
            -75.353612,
            6.170146
          ],
          [
            -75.353954,
            6.170213
          ],
          [
            -75.354188,
            6.170138
          ],
          [
            -75.354397,
            6.17005
          ],
          [
            -75.354673,
            6.169795
          ],
          [
            -75.354849,
            6.169431
          ],
          [
            -75.354878,
            6.169047
          ],
          [
            -75.354938,
            6.168898
          ],
          [
            -75.355044,
            6.168782
          ],
          [
            -75.355213,
            6.168692
          ],
          [
            -75.355823,
            6.168629
          ],
          [
            -75.355998,
            6.168696
          ],
          [
            -75.356081,
            6.168715
          ],
          [
            -75.356192,
            6.168732
          ],
          [
            -75.356756,
            6.16874
          ],
          [
            -75.35701,
            6.168811
          ],
          [
            -75.357319,
            6.168947
          ],
          [
            -75.357513,
            6.169032
          ],
          [
            -75.358259,
            6.16936
          ],
          [
            -75.358352,
            6.16937
          ],
          [
            -75.358479,
            6.169341
          ],
          [
            -75.358542,
            6.169296
          ],
          [
            -75.358606,
            6.169201
          ],
          [
            -75.358833,
            6.168697
          ],
          [
            -75.358895,
            6.168513
          ],
          [
            -75.358943,
            6.168218
          ],
          [
            -75.35899,
            6.16748
          ],
          [
            -75.35902,
            6.167009
          ],
          [
            -75.359166,
            6.164598
          ],
          [
            -75.359138,
            6.164215
          ],
          [
            -75.359062,
            6.163925
          ],
          [
            -75.358997,
            6.163801
          ],
          [
            -75.358872,
            6.163654
          ],
          [
            -75.358508,
            6.163429
          ],
          [
            -75.358318,
            6.163323
          ],
          [
            -75.3582,
            6.163213
          ],
          [
            -75.358134,
            6.163091
          ],
          [
            -75.358096,
            6.162903
          ],
          [
            -75.358096,
            6.16259
          ],
          [
            -75.358178,
            6.162215
          ],
          [
            -75.358231,
            6.162069
          ],
          [
            -75.358419,
            6.161659
          ],
          [
            -75.358682,
            6.161106
          ],
          [
            -75.358908,
            6.160525
          ],
          [
            -75.359066,
            6.159997
          ],
          [
            -75.359179,
            6.159368
          ],
          [
            -75.359227,
            6.159089
          ],
          [
            -75.359287,
            6.15873
          ],
          [
            -75.359384,
            6.158307
          ],
          [
            -75.359536,
            6.157853
          ],
          [
            -75.359608,
            6.157664
          ],
          [
            -75.359709,
            6.157385
          ],
          [
            -75.359772,
            6.157256
          ],
          [
            -75.35992,
            6.157039
          ],
          [
            -75.360432,
            6.156412
          ],
          [
            -75.360561,
            6.156339
          ],
          [
            -75.360938,
            6.156237
          ],
          [
            -75.361046,
            6.156176
          ],
          [
            -75.361297,
            6.155942
          ],
          [
            -75.361446,
            6.155773
          ],
          [
            -75.361504,
            6.155704
          ],
          [
            -75.361665,
            6.155378
          ],
          [
            -75.361801,
            6.154914
          ],
          [
            -75.361918,
            6.154449
          ],
          [
            -75.361978,
            6.154265
          ],
          [
            -75.362051,
            6.154094
          ],
          [
            -75.362118,
            6.15399
          ],
          [
            -75.362165,
            6.153925
          ],
          [
            -75.362249,
            6.15383
          ],
          [
            -75.362577,
            6.153571
          ],
          [
            -75.362707,
            6.153492
          ],
          [
            -75.362833,
            6.153416
          ],
          [
            -75.363249,
            6.153166
          ],
          [
            -75.363271,
            6.153152
          ],
          [
            -75.363343,
            6.153117
          ],
          [
            -75.363483,
            6.153
          ],
          [
            -75.363498,
            6.152989
          ],
          [
            -75.363523,
            6.152952
          ],
          [
            -75.363523,
            6.152907
          ],
          [
            -75.363509,
            6.152882
          ],
          [
            -75.363461,
            6.152855
          ],
          [
            -75.363355,
            6.152789
          ],
          [
            -75.363309,
            6.152763
          ],
          [
            -75.363142,
            6.15265
          ],
          [
            -75.362963,
            6.152504
          ],
          [
            -75.361547,
            6.151214
          ],
          [
            -75.360977,
            6.150743
          ],
          [
            -75.360398,
            6.150159
          ],
          [
            -75.360301,
            6.150035
          ],
          [
            -75.360129,
            6.149816
          ],
          [
            -75.359883,
            6.149452
          ],
          [
            -75.359835,
            6.14938
          ],
          [
            -75.35968,
            6.149124
          ],
          [
            -75.359627,
            6.149044
          ],
          [
            -75.359481,
            6.14884
          ],
          [
            -75.359371,
            6.148745
          ],
          [
            -75.35885,
            6.148472
          ],
          [
            -75.358666,
            6.148418
          ],
          [
            -75.358554,
            6.148404
          ],
          [
            -75.358453,
            6.148411
          ],
          [
            -75.358339,
            6.148449
          ],
          [
            -75.357932,
            6.148659
          ],
          [
            -75.357616,
            6.148849
          ],
          [
            -75.357449,
            6.148917
          ],
          [
            -75.357182,
            6.148953
          ],
          [
            -75.356943,
            6.148881
          ],
          [
            -75.356648,
            6.148792
          ],
          [
            -75.356468,
            6.148738
          ],
          [
            -75.355965,
            6.148587
          ],
          [
            -75.355719,
            6.148495
          ],
          [
            -75.355449,
            6.148308
          ],
          [
            -75.354904,
            6.147772
          ],
          [
            -75.354835,
            6.147682
          ],
          [
            -75.354481,
            6.147218
          ],
          [
            -75.354356,
            6.146743
          ],
          [
            -75.354348,
            6.146611
          ],
          [
            -75.354302,
            6.146348
          ],
          [
            -75.354186,
            6.146079
          ],
          [
            -75.353598,
            6.145264
          ],
          [
            -75.353109,
            6.144706
          ],
          [
            -75.352735,
            6.144279
          ],
          [
            -75.352499,
            6.143951
          ],
          [
            -75.352448,
            6.143692
          ],
          [
            -75.352518,
            6.143188
          ],
          [
            -75.352489,
            6.143014
          ],
          [
            -75.352366,
            6.142865
          ],
          [
            -75.352345,
            6.142841
          ],
          [
            -75.352181,
            6.142643
          ],
          [
            -75.352109,
            6.14251
          ],
          [
            -75.351937,
            6.142059
          ],
          [
            -75.351901,
            6.141831
          ],
          [
            -75.351795,
            6.141556
          ],
          [
            -75.351697,
            6.141417
          ],
          [
            -75.351589,
            6.141214
          ],
          [
            -75.351382,
            6.141004
          ],
          [
            -75.351307,
            6.140885
          ],
          [
            -75.351266,
            6.140763
          ],
          [
            -75.351246,
            6.140648
          ],
          [
            -75.351262,
            6.140527
          ],
          [
            -75.351288,
            6.140445
          ],
          [
            -75.351462,
            6.14013
          ],
          [
            -75.351487,
            6.140064
          ],
          [
            -75.351496,
            6.139978
          ],
          [
            -75.351469,
            6.139738
          ],
          [
            -75.351434,
            6.139605
          ],
          [
            -75.351406,
            6.139523
          ],
          [
            -75.351369,
            6.13937
          ],
          [
            -75.351338,
            6.139063
          ],
          [
            -75.351339,
            6.13848
          ],
          [
            -75.351359,
            6.138207
          ],
          [
            -75.351515,
            6.137347
          ],
          [
            -75.351524,
            6.136197
          ],
          [
            -75.351543,
            6.136065
          ],
          [
            -75.351668,
            6.135682
          ],
          [
            -75.352313,
            6.133734
          ],
          [
            -75.352339,
            6.13351
          ],
          [
            -75.352363,
            6.132488
          ],
          [
            -75.352348,
            6.132005
          ],
          [
            -75.352249,
            6.131239
          ],
          [
            -75.352183,
            6.130897
          ],
          [
            -75.352141,
            6.130427
          ],
          [
            -75.352145,
            6.13017
          ],
          [
            -75.352172,
            6.129992
          ],
          [
            -75.35225,
            6.129621
          ],
          [
            -75.352351,
            6.129245
          ],
          [
            -75.352481,
            6.128707
          ],
          [
            -75.352577,
            6.128199
          ],
          [
            -75.352592,
            6.127965
          ],
          [
            -75.352568,
            6.127722
          ],
          [
            -75.352517,
            6.127474
          ],
          [
            -75.352429,
            6.127168
          ],
          [
            -75.352321,
            6.126869
          ],
          [
            -75.352059,
            6.12638
          ],
          [
            -75.351469,
            6.125507
          ],
          [
            -75.351262,
            6.125236
          ],
          [
            -75.351082,
            6.125015
          ],
          [
            -75.350936,
            6.124884
          ],
          [
            -75.350626,
            6.12467
          ],
          [
            -75.350483,
            6.124582
          ],
          [
            -75.350367,
            6.124477
          ],
          [
            -75.350322,
            6.124417
          ],
          [
            -75.350283,
            6.124267
          ],
          [
            -75.350125,
            6.12392
          ],
          [
            -75.349694,
            6.123318
          ],
          [
            -75.349624,
            6.123199
          ],
          [
            -75.349472,
            6.122839
          ],
          [
            -75.349323,
            6.122615
          ],
          [
            -75.348477,
            6.121726
          ],
          [
            -75.348344,
            6.121568
          ],
          [
            -75.348246,
            6.121337
          ],
          [
            -75.348,
            6.120531
          ],
          [
            -75.34796,
            6.119919
          ],
          [
            -75.347976,
            6.119434
          ],
          [
            -75.347952,
            6.117903
          ],
          [
            -75.347939,
            6.117334
          ],
          [
            -75.347861,
            6.116731
          ],
          [
            -75.347636,
            6.115669
          ],
          [
            -75.347475,
            6.11483
          ],
          [
            -75.347162,
            6.113905
          ],
          [
            -75.34682,
            6.1131
          ],
          [
            -75.346551,
            6.112522
          ],
          [
            -75.346498,
            6.112343
          ],
          [
            -75.346482,
            6.112152
          ],
          [
            -75.34651,
            6.111882
          ],
          [
            -75.346577,
            6.111613
          ],
          [
            -75.346676,
            6.111375
          ],
          [
            -75.346776,
            6.111231
          ],
          [
            -75.346902,
            6.111107
          ],
          [
            -75.347304,
            6.110769
          ],
          [
            -75.347386,
            6.110647
          ],
          [
            -75.347431,
            6.110538
          ],
          [
            -75.34743,
            6.110423
          ],
          [
            -75.347379,
            6.110215
          ],
          [
            -75.346999,
            6.109345
          ],
          [
            -75.346813,
            6.108873
          ],
          [
            -75.34677,
            6.108712
          ],
          [
            -75.346765,
            6.10854
          ],
          [
            -75.346817,
            6.108343
          ],
          [
            -75.347138,
            6.107384
          ],
          [
            -75.347172,
            6.107237
          ],
          [
            -75.347189,
            6.106949
          ],
          [
            -75.347187,
            6.106821
          ],
          [
            -75.347185,
            6.105256
          ],
          [
            -75.347196,
            6.104592
          ],
          [
            -75.34739,
            6.103894
          ],
          [
            -75.347586,
            6.103137
          ],
          [
            -75.347676,
            6.102727
          ],
          [
            -75.34767,
            6.102426
          ],
          [
            -75.347529,
            6.10188
          ],
          [
            -75.347375,
            6.101293
          ],
          [
            -75.347283,
            6.101068
          ],
          [
            -75.347122,
            6.100826
          ],
          [
            -75.347016,
            6.100589
          ],
          [
            -75.346913,
            6.099903
          ],
          [
            -75.346822,
            6.099464
          ],
          [
            -75.346698,
            6.099207
          ],
          [
            -75.346542,
            6.099072
          ],
          [
            -75.34643,
            6.099002
          ],
          [
            -75.345889,
            6.098693
          ],
          [
            -75.345408,
            6.098448
          ],
          [
            -75.345242,
            6.098431
          ],
          [
            -75.345056,
            6.098468
          ],
          [
            -75.34476,
            6.098573
          ],
          [
            -75.344542,
            6.09859
          ],
          [
            -75.344424,
            6.098559
          ],
          [
            -75.3438,
            6.098215
          ],
          [
            -75.343635,
            6.098143
          ],
          [
            -75.343432,
            6.098093
          ],
          [
            -75.343303,
            6.098077
          ],
          [
            -75.342956,
            6.098083
          ],
          [
            -75.342656,
            6.098112
          ],
          [
            -75.342552,
            6.098114
          ],
          [
            -75.342106,
            6.098149
          ],
          [
            -75.341921,
            6.098134
          ],
          [
            -75.341801,
            6.098099
          ],
          [
            -75.341678,
            6.098044
          ],
          [
            -75.34142,
            6.097852
          ],
          [
            -75.34122,
            6.097702
          ],
          [
            -75.341051,
            6.097554
          ],
          [
            -75.340764,
            6.097324
          ],
          [
            -75.340624,
            6.097191
          ],
          [
            -75.340348,
            6.096824
          ],
          [
            -75.340091,
            6.09644
          ],
          [
            -75.34006,
            6.096374
          ],
          [
            -75.33993,
            6.096144
          ],
          [
            -75.339567,
            6.095587
          ],
          [
            -75.339345,
            6.095218
          ],
          [
            -75.339036,
            6.094707
          ],
          [
            -75.338858,
            6.094371
          ],
          [
            -75.338836,
            6.094292
          ],
          [
            -75.33876,
            6.094139
          ],
          [
            -75.338354,
            6.093131
          ],
          [
            -75.338154,
            6.092605
          ],
          [
            -75.338114,
            6.092509
          ],
          [
            -75.3379,
            6.092004
          ],
          [
            -75.337836,
            6.091863
          ],
          [
            -75.337751,
            6.091654
          ],
          [
            -75.337614,
            6.091317
          ],
          [
            -75.337597,
            6.091274
          ],
          [
            -75.337596,
            6.091173
          ],
          [
            -75.337547,
            6.091041
          ],
          [
            -75.337518,
            6.090917
          ],
          [
            -75.337493,
            6.090366
          ],
          [
            -75.337506,
            6.089868
          ],
          [
            -75.337523,
            6.087982
          ],
          [
            -75.337477,
            6.087978
          ],
          [
            -75.337475,
            6.088041
          ]
        ],
        "type": "LineString"
      }
    }
  ],
  "metadata": {
    "attribution": "openrouteservice.org | OpenStreetMap contributors",
    "service": "routing",
    "timestamp": 1764859662861,
    "query": {
      "coordinates": [
        [
          -75.3377,
          6.170282
        ],
        [
          -75.337484,
          6.088041
        ]
      ],
      "profile": "driving-hgv",
      "profileName": "driving-hgv",
      "preference": "recommended",
      "format": "geojson",
      "language": "es",
      "options": {
        "profile_params": {
          "restrictions": {
            "length": 8.0,
            "width": 2.5,
            "height": 3.5
          },
          "surface_quality_known": false,
          "allow_unsuitable": false
        },
        "avoid_polygons": {
          "coordinates": [
            [
              [
                [
                  -75.53398800000001,
                  6.1525436
                ],
                [
                  -75.531988,
                  6.1525436
                ],
                [
                  -75.531988,
                  6.1545436
                ],
                [
                  -75.53398800000001,
                  6.1545436
                ],
                [
                  -75.53398800000001,
                  6.1525436
                ]
              ]
            ],
            [
              [
                [
                  -75.49099790000001,
                  6.0932509999999995
                ],
                [
                  -75.4889979,
                  6.0932509999999995
                ],
                [
                  -75.4889979,
                  6.095251
                ],
                [
                  -75.49099790000001,
                  6.095251
                ],
                [
                  -75.49099790000001,
                  6.0932509999999995
                ]
              ]
            ],
            [
              [
                [
                  -75.44939930000001,
                  6.1764060999999995
                ],
                [
                  -75.4473993,
                  6.1764060999999995
                ],
                [
                  -75.4473993,
                  6.1784061
                ],
                [
                  -75.44939930000001,
                  6.1784061
                ],
                [
                  -75.44939930000001,
                  6.1764060999999995
                ]
              ]
            ],
            [
              [
                [
                  -75.4890572,
                  6.2037862
                ],
                [
                  -75.4870572,
                  6.2037862
                ],
                [
                  -75.4870572,
                  6.2057862
                ],
                [
                  -75.4890572,
                  6.2057862
                ],
                [
                  -75.4890572,
                  6.2037862
                ]
              ]
            ],
            [
              [
                [
                  -75.46672650000001,
                  6.1850524
                ],
                [
                  -75.4647265,
                  6.1850524
                ],
                [
                  -75.4647265,
                  6.187052400000001
                ],
                [
                  -75.46672650000001,
                  6.187052400000001
                ],
                [
                  -75.46672650000001,
                  6.1850524
                ]
              ]
            ],
            [
              [
                [
                  -75.5035304,
                  6.2159613
                ],
                [
                  -75.5015304,
                  6.2159613
                ],
                [
                  -75.5015304,
                  6.217961300000001
                ],
                [
                  -75.5035304,
                  6.217961300000001
                ],
                [
                  -75.5035304,
                  6.2159613
                ]
              ]
            ],
            [
              [
                [
                  -75.4913478,
                  6.170510299999999
                ],
                [
                  -75.48934779999999,
                  6.170510299999999
                ],
                [
                  -75.48934779999999,
                  6.1725103
                ],
                [
                  -75.4913478,
                  6.1725103
                ],
                [
                  -75.4913478,
                  6.170510299999999
                ]
              ]
            ],
            [
              [
                [
                  -75.5250472,
                  6.1422792
                ],
                [
                  -75.5230472,
                  6.1422792
                ],
                [
                  -75.5230472,
                  6.144279200000001
                ],
                [
                  -75.5250472,
                  6.144279200000001
                ],
                [
                  -75.5250472,
                  6.1422792
                ]
              ]
            ],
            [
              [
                [
                  -75.42459550000001,
                  6.123615999999999
                ],
                [
                  -75.4225955,
                  6.123615999999999
                ],
                [
                  -75.4225955,
                  6.125616
                ],
                [
                  -75.42459550000001,
                  6.125616
                ],
                [
                  -75.42459550000001,
                  6.123615999999999
                ]
              ]
            ],
            [
              [
                [
                  -75.5600752,
                  6.2197343
                ],
                [
                  -75.55807519999999,
                  6.2197343
                ],
                [
                  -75.55807519999999,
                  6.2217343000000005
                ],
                [
                  -75.5600752,
                  6.2217343000000005
                ],
                [
                  -75.5600752,
                  6.2197343
                ]
              ]
            ],
            [
              [
                [
                  -75.4291982,
                  6.0892721
                ],
                [
                  -75.42719819999999,
                  6.0892721
                ],
                [
                  -75.42719819999999,
                  6.0912721
                ],
                [
                  -75.4291982,
                  6.0912721
                ],
                [
                  -75.4291982,
                  6.0892721
                ]
              ]
            ],
            [
              [
                [
                  -75.50124240000001,
                  6.1697112
                ],
                [
                  -75.4992424,
                  6.1697112
                ],
                [
                  -75.4992424,
                  6.171711200000001
                ],
                [
                  -75.50124240000001,
                  6.171711200000001
                ],
                [
                  -75.50124240000001,
                  6.1697112
                ]
              ]
            ],
            [
              [
                [
                  -75.4364807,
                  6.1772187
                ],
                [
                  -75.4344807,
                  6.1772187
                ],
                [
                  -75.4344807,
                  6.179218700000001
                ],
                [
                  -75.4364807,
                  6.179218700000001
                ],
                [
                  -75.4364807,
                  6.1772187
                ]
              ]
            ],
            [
              [
                [
                  -75.4336162,
                  6.2493549999999995
                ],
                [
                  -75.4316162,
                  6.2493549999999995
                ],
                [
                  -75.4316162,
                  6.251355
                ],
                [
                  -75.4336162,
                  6.251355
                ],
                [
                  -75.4336162,
                  6.2493549999999995
                ]
              ]
            ],
            [
              [
                [
                  -75.555226,
                  6.133627199999999
                ],
                [
                  -75.553226,
                  6.133627199999999
                ],
                [
                  -75.553226,
                  6.1356272
                ],
                [
                  -75.555226,
                  6.1356272
                ],
                [
                  -75.555226,
                  6.133627199999999
                ]
              ]
            ],
            [
              [
                [
                  -75.481297,
                  6.089910199999999
                ],
                [
                  -75.47929699999999,
                  6.089910199999999
                ],
                [
                  -75.47929699999999,
                  6.0919102
                ],
                [
                  -75.481297,
                  6.0919102
                ],
                [
                  -75.481297,
                  6.089910199999999
                ]
              ]
            ],
            [
              [
                [
                  -75.4232837,
                  6.059844
                ],
                [
                  -75.42128369999999,
                  6.059844
                ],
                [
                  -75.42128369999999,
                  6.061844000000001
                ],
                [
                  -75.4232837,
                  6.061844000000001
                ],
                [
                  -75.4232837,
                  6.059844
                ]
              ]
            ],
            [
              [
                [
                  -75.4577368,
                  6.0576535
                ],
                [
                  -75.4557368,
                  6.0576535
                ],
                [
                  -75.4557368,
                  6.0596535000000005
                ],
                [
                  -75.4577368,
                  6.0596535000000005
                ],
                [
                  -75.4577368,
                  6.0576535
                ]
              ]
            ],
            [
              [
                [
                  -75.43430260000001,
                  6.1414703
                ],
                [
                  -75.4323026,
                  6.1414703
                ],
                [
                  -75.4323026,
                  6.143470300000001
                ],
                [
                  -75.43430260000001,
                  6.143470300000001
                ],
                [
                  -75.43430260000001,
                  6.1414703
                ]
              ]
            ],
            [
              [
                [
                  -75.452403,
                  6.112123599999999
                ],
                [
                  -75.450403,
                  6.112123599999999
                ],
                [
                  -75.450403,
                  6.1141236
                ],
                [
                  -75.452403,
                  6.1141236
                ],
                [
                  -75.452403,
                  6.112123599999999
                ]
              ]
            ],
            [
              [
                [
                  -75.6342218,
                  6.0668213
                ],
                [
                  -75.6322218,
                  6.0668213
                ],
                [
                  -75.6322218,
                  6.068821300000001
                ],
                [
                  -75.6342218,
                  6.068821300000001
                ],
                [
                  -75.6342218,
                  6.0668213
                ]
              ]
            ],
            [
              [
                [
                  -75.4502234,
                  6.0178674
                ],
                [
                  -75.44822339999999,
                  6.0178674
                ],
                [
                  -75.44822339999999,
                  6.019867400000001
                ],
                [
                  -75.4502234,
                  6.019867400000001
                ],
                [
                  -75.4502234,
                  6.0178674
                ]
              ]
            ],
            [
              [
                [
                  -75.4329548,
                  6.008317399999999
                ],
                [
                  -75.4309548,
                  6.008317399999999
                ],
                [
                  -75.4309548,
                  6.0103174
                ],
                [
                  -75.4329548,
                  6.0103174
                ],
                [
                  -75.4329548,
                  6.008317399999999
                ]
              ]
            ],
            [
              [
                [
                  -75.4134652,
                  6.022465599999999
                ],
                [
                  -75.4114652,
                  6.022465599999999
                ],
                [
                  -75.4114652,
                  6.0244656
                ],
                [
                  -75.4134652,
                  6.0244656
                ],
                [
                  -75.4134652,
                  6.022465599999999
                ]
              ]
            ],
            [
              [
                [
                  -75.3412419,
                  6.138306399999999
                ],
                [
                  -75.33924189999999,
                  6.138306399999999
                ],
                [
                  -75.33924189999999,
                  6.1403064
                ],
                [
                  -75.3412419,
                  6.1403064
                ],
                [
                  -75.3412419,
                  6.138306399999999
                ]
              ]
            ]
          ],
          "type": "MultiPolygon"
        }
      }
    },
    "engine": {
      "version": "9.5.0",
      "build_date": "2025-10-31T12:33:09Z",
      "graph_date": "2025-12-01T03:52:42Z",
      "osm_date": "2025-11-24T00:59:59Z"
    }
  }
}