{
  "type": "FeatureCollection",
  "bbox": [
    -75.580594,
    6.217035,
    -75.571586,
    6.238442
  ],
  "features": [
    {
      "bbox": [
        -75.580594,
        6.217035,
        -75.571586,
        6.238442
      ],
      "type": "Feature",
      "properties": {
        "extras": {
          "roadaccessrestrictions": {
            "values": [
              [
                0,
                69,
                0
              ],
              [
                69,
                70,
                32
              ],
              [
                70,
                71,
                0
              ]
            ],
            "summary": [
              {
                "value": 0.0,
                "distance": 3780.6,
                "amount": 99.62
              },
              {
                "value": 32.0,
                "distance": 14.4,
                "amount": 0.38
              }
            ]
          }
        },
        "warnings": [
          {
            "code": 1,
            "message": "There may be restrictions on some roads"
          }
        ],
        "way_points": [
          0,
          71
        ],
        "summary": {
          "distance": 3795.0,
          "duration": 407.8
        }
      },
      "geometry": {
        "coordinates": [
          [
            -75.571586,
            6.238118
          ],
          [
            -75.571695,
            6.237859
          ],
          [
            -75.572433,
            6.238172
          ],
          [
            -75.573071,
            6.238442
          ],
          [
            -75.573114,
            6.238324
          ],
          [
            -75.57327,
            6.2379
          ],
          [
            -75.573386,
            6.23759
          ],
          [
            -75.573713,
            6.236738
          ],
          [
            -75.573842,
            6.236425
          ],
          [
            -75.574073,
            6.235838
          ],
          [
            -75.574095,
            6.235781
          ],
          [
            -75.57473,
            6.234174
          ],
          [
            -75.574741,
            6.234146
          ],
          [
            -75.574815,
            6.233962
          ],
          [
            -75.57487,
            6.233817
          ],
          [
            -75.574781,
            6.233479
          ],
          [
            -75.57468,
            6.232803
          ],
          [
            -75.574702,
            6.232437
          ],
          [
            -75.574671,
            6.231794
          ],
          [
            -75.574648,
            6.231527
          ],
          [
            -75.574682,
            6.231382
          ],
          [
            -75.574723,
            6.231319
          ],
          [
            -75.574782,
            6.231261
          ],
          [
            -75.574859,
            6.231223
          ],
          [
            -75.574998,
            6.231197
          ],
          [
            -75.576176,
            6.231553
          ],
          [
            -75.576339,
            6.231607
          ],
          [
            -75.576445,
            6.231726
          ],
          [
            -75.576535,
            6.231863
          ],
          [
            -75.576596,
            6.232032
          ],
          [
            -75.576618,
            6.232249
          ],
          [
            -75.576607,
            6.232501
          ],
          [
            -75.576562,
            6.232759
          ],
          [
            -75.576504,
            6.23288
          ],
          [
            -75.576461,
            6.23293
          ],
          [
            -75.576383,
            6.232963
          ],
          [
            -75.57629,
            6.232964
          ],
          [
            -75.576182,
            6.23293
          ],
          [
            -75.5761,
            6.232847
          ],
          [
            -75.575965,
            6.232589
          ],
          [
            -75.575925,
            6.23193
          ],
          [
            -75.575974,
            6.231597
          ],
          [
            -75.576001,
            6.231337
          ],
          [
            -75.576088,
            6.23048
          ],
          [
            -75.576193,
            6.229646
          ],
          [
            -75.576496,
            6.227225
          ],
          [
            -75.576558,
            6.226847
          ],
          [
            -75.576697,
            6.225978
          ],
          [
            -75.576783,
            6.225362
          ],
          [
            -75.576957,
            6.224054
          ],
          [
            -75.577831,
            6.217934
          ],
          [
            -75.578184,
            6.21765
          ],
          [
            -75.578243,
            6.217228
          ],
          [
            -75.57827,
            6.217035
          ],
          [
            -75.578605,
            6.217114
          ],
          [
            -75.579167,
            6.217235
          ],
          [
            -75.580035,
            6.217428
          ],
          [
            -75.58037,
            6.217505
          ],
          [
            -75.580463,
            6.217574
          ],
          [
            -75.580534,
            6.217665
          ],
          [
            -75.580579,
            6.217772
          ],
          [
            -75.580594,
            6.217886
          ],
          [
            -75.580535,
            6.218127
          ],
          [
            -75.580491,
            6.218306
          ],
          [
            -75.580421,
            6.218547
          ],
          [
            -75.580366,
            6.218813
          ],
          [
            -75.580222,
            6.219402
          ],
          [
            -75.580151,
            6.219693
          ],
          [
            -75.580118,
            6.219831
          ],
          [
            -75.58006,
            6.220068
          ],
          [
            -75.579937,
            6.220024
          ],
          [
            -75.579887,
            6.220218
          ]
        ],
        "type": "LineString"
      }
    }
  ],
  "metadata": {
    "attribution": "openrouteservice.org | OpenStreetMap contributors",
    "service": "routing",
    "timestamp": 1765570649110,
    "query": {
      "coordinates": [
        [
          -75.571634,
          6.238138
        ],
        [
          -75.579857,
          6.22021
        ]
      ],
      "profile": "driving-hgv",
      "profileName": "driving-hgv",
      "preference": "recommended",
      "format": "geojson",
      "language": "es"
    },
    "engine": {
      "version": "9.5.0",
      "build_date": "2025-10-31T12:33:09Z",
      "graph_date": "2025-12-01T03:52:42Z",
      "osm_date": "2025-11-24T00:59:59Z"
    }
  }
}