{
  "type": "FeatureCollection",
  "bbox": [
    -75.580594,
    6.216274,
    -75.571028,
    6.239772
  ],
  "features": [
    {
      "bbox": [
        -75.580594,
        6.216274,
        -75.571028,
        6.239772
      ],
      "type": "Feature",
      "properties": {
        "way_points": [
          0,
          77
        ],
        "summary": {
          "distance": 3804.3,
          "duration": 415.3
        }
      },
      "geometry": {
        "coordinates": [
          [
            -75.579319,
            6.216274
          ],
          [
            -75.579167,
            6.217235
          ],
          [
            -75.580035,
            6.217428
          ],
          [
            -75.58037,
            6.217505
          ],
          [
            -75.580463,
            6.217574
          ],
          [
            -75.580534,
            6.217665
          ],
          [
            -75.580579,
            6.217772
          ],
          [
            -75.580594,
            6.217886
          ],
          [
            -75.580535,
            6.218127
          ],
          [
            -75.580491,
            6.218306
          ],
          [
            -75.580421,
            6.218547
          ],
          [
            -75.580366,
            6.218813
          ],
          [
            -75.580222,
            6.219402
          ],
          [
            -75.580151,
            6.219693
          ],
          [
            -75.580118,
            6.219831
          ],
          [
            -75.58006,
            6.220068
          ],
          [
            -75.57974,
            6.22138
          ],
          [
            -75.579603,
            6.221836
          ],
          [
            -75.57944,
            6.222314
          ],
          [
            -75.579332,
            6.222634
          ],
          [
            -75.579404,
            6.222663
          ],
          [
            -75.578818,
            6.224254
          ],
          [
            -75.578368,
            6.225473
          ],
          [
            -75.578286,
            6.225694
          ],
          [
            -75.578238,
            6.225823
          ],
          [
            -75.577931,
            6.226653
          ],
          [
            -75.577426,
            6.22802
          ],
          [
            -75.577287,
            6.228406
          ],
          [
            -75.577072,
            6.2291
          ],
          [
            -75.577028,
            6.229462
          ],
          [
            -75.577021,
            6.229825
          ],
          [
            -75.577044,
            6.230097
          ],
          [
            -75.5771,
            6.23046
          ],
          [
            -75.577245,
            6.230996
          ],
          [
            -75.577354,
            6.231419
          ],
          [
            -75.577347,
            6.231484
          ],
          [
            -75.577324,
            6.231532
          ],
          [
            -75.577234,
            6.231632
          ],
          [
            -75.577141,
            6.23167
          ],
          [
            -75.576996,
            6.231673
          ],
          [
            -75.57668,
            6.231578
          ],
          [
            -75.576193,
            6.231455
          ],
          [
            -75.57496,
            6.231086
          ],
          [
            -75.574938,
            6.231054
          ],
          [
            -75.574855,
            6.23094
          ],
          [
            -75.574813,
            6.230879
          ],
          [
            -75.574757,
            6.230753
          ],
          [
            -75.57475,
            6.230677
          ],
          [
            -75.574776,
            6.230562
          ],
          [
            -75.574845,
            6.230471
          ],
          [
            -75.574913,
            6.230445
          ],
          [
            -75.57503,
            6.230461
          ],
          [
            -75.57508,
            6.230498
          ],
          [
            -75.575158,
            6.230615
          ],
          [
            -75.575195,
            6.230701
          ],
          [
            -75.575037,
            6.231786
          ],
          [
            -75.574912,
            6.232837
          ],
          [
            -75.574897,
            6.23327
          ],
          [
            -75.574905,
            6.23347
          ],
          [
            -75.575058,
            6.234087
          ],
          [
            -75.57514,
            6.234603
          ],
          [
            -75.575132,
            6.23484
          ],
          [
            -75.57489,
            6.235545
          ],
          [
            -75.574709,
            6.236047
          ],
          [
            -75.574473,
            6.236699
          ],
          [
            -75.574068,
            6.237822
          ],
          [
            -75.57381,
            6.237734
          ],
          [
            -75.573549,
            6.237646
          ],
          [
            -75.573386,
            6.23759
          ],
          [
            -75.572773,
            6.23737
          ],
          [
            -75.572482,
            6.238058
          ],
          [
            -75.572433,
            6.238172
          ],
          [
            -75.572118,
            6.238917
          ],
          [
            -75.571765,
            6.239772
          ],
          [
            -75.571028,
            6.23947
          ],
          [
            -75.571212,
            6.239018
          ],
          [
            -75.571355,
            6.238668
          ],
          [
            -75.571586,
            6.238118
          ]
        ],
        "type": "LineString"
      }
    }
  ],
  "metadata": {
    "attribution": "openrouteservice.org | OpenStreetMap contributors",
    "service": "routing",
    "timestamp": 1765570657933,
    "query": {
      "coordinates": [
        [
          -75.5794057,
          6.2162872
        ],
        [
          -75.571634,
          6.238138
        ]
      ],
      "profile": "driving-hgv",
      "profileName": "driving-hgv",
      "preference": "recommended",
      "format": "geojson",
      "language": "es"
    },
    "engine": {
      "version": "9.5.0",
      "build_date": "2025-10-31T12:33:09Z",
      "graph_date": "2025-12-01T03:52:42Z",
      "osm_date": "2025-11-24T00:59:59Z"
    }
  }
}