{
  "type": "FeatureCollection",
  "bbox": [
    -75.354453,
    6.168618,
    -75.335476,
    6.179847
  ],
  "features": [
    {
      "bbox": [
        -75.354453,
        6.168618,
        -75.335476,
        6.179847
      ],
      "type": "Feature",
      "properties": {
        "way_points": [
          0,
          94
        ],
        "summary": {
          "distance": 3318.0,
          "duration": 398.3
        }
      },
      "geometry": {
        "coordinates": [
          [
            -75.353641,
            6.179847
          ],
          [
            -75.354078,
            6.17948
          ],
          [
            -75.354327,
            6.179453
          ],
          [
            -75.354404,
            6.179408
          ],
          [
            -75.354447,
            6.179341
          ],
          [
            -75.354453,
            6.179273
          ],
          [
            -75.354427,
            6.179184
          ],
          [
            -75.354398,
            6.179142
          ],
          [
            -75.35416,
            6.178998
          ],
          [
            -75.353951,
            6.178933
          ],
          [
            -75.353112,
            6.178963
          ],
          [
            -75.353119,
            6.178856
          ],
          [
            -75.353095,
            6.178547
          ],
          [
            -75.352989,
            6.178286
          ],
          [
            -75.352811,
            6.178082
          ],
          [
            -75.352425,
            6.177639
          ],
          [
            -75.352093,
            6.177173
          ],
          [
            -75.351887,
            6.176753
          ],
          [
            -75.351707,
            6.176386
          ],
          [
            -75.351433,
            6.175916
          ],
          [
            -75.351307,
            6.175825
          ],
          [
            -75.351195,
            6.175773
          ],
          [
            -75.349546,
            6.175294
          ],
          [
            -75.349472,
            6.175259
          ],
          [
            -75.348294,
            6.174702
          ],
          [
            -75.347689,
            6.174372
          ],
          [
            -75.347354,
            6.174279
          ],
          [
            -75.346442,
            6.174124
          ],
          [
            -75.346486,
            6.174072
          ],
          [
            -75.346514,
            6.174011
          ],
          [
            -75.346524,
            6.173944
          ],
          [
            -75.346514,
            6.173877
          ],
          [
            -75.34645,
            6.173769
          ],
          [
            -75.346399,
            6.173731
          ],
          [
            -75.34634,
            6.173707
          ],
          [
            -75.346267,
            6.1737
          ],
          [
            -75.346196,
            6.173714
          ],
          [
            -75.346132,
            6.173749
          ],
          [
            -75.346056,
            6.173843
          ],
          [
            -75.346038,
            6.173901
          ],
          [
            -75.346036,
            6.173964
          ],
          [
            -75.346079,
            6.174083
          ],
          [
            -75.345989,
            6.174346
          ],
          [
            -75.345954,
            6.174398
          ],
          [
            -75.345786,
            6.174631
          ],
          [
            -75.345733,
            6.174705
          ],
          [
            -75.34549,
            6.175022
          ],
          [
            -75.345313,
            6.175261
          ],
          [
            -75.345261,
            6.175292
          ],
          [
            -75.345162,
            6.175379
          ],
          [
            -75.344117,
            6.174596
          ],
          [
            -75.343823,
            6.174446
          ],
          [
            -75.342835,
            6.174013
          ],
          [
            -75.342382,
            6.173834
          ],
          [
            -75.342198,
            6.173775
          ],
          [
            -75.341094,
            6.173496
          ],
          [
            -75.340817,
            6.173429
          ],
          [
            -75.340257,
            6.173286
          ],
          [
            -75.340058,
            6.17324
          ],
          [
            -75.339663,
            6.173139
          ],
          [
            -75.339385,
            6.173092
          ],
          [
            -75.338902,
            6.17312
          ],
          [
            -75.3386,
            6.17313
          ],
          [
            -75.338244,
            6.173055
          ],
          [
            -75.338075,
            6.173029
          ],
          [
            -75.337806,
            6.172984
          ],
          [
            -75.337849,
            6.172776
          ],
          [
            -75.337943,
            6.172426
          ],
          [
            -75.337971,
            6.172281
          ],
          [
            -75.337536,
            6.172275
          ],
          [
            -75.33679,
            6.17236
          ],
          [
            -75.336662,
            6.17232
          ],
          [
            -75.336426,
            6.172108
          ],
          [
            -75.336369,
            6.172046
          ],
          [
            -75.336141,
            6.171862
          ],
          [
            -75.336084,
            6.17175
          ],
          [
            -75.336046,
            6.17159
          ],
          [
            -75.336018,
            6.171531
          ],
          [
            -75.335841,
            6.171311
          ],
          [
            -75.335871,
            6.171267
          ],
          [
            -75.335886,
            6.17121
          ],
          [
            -75.335878,
            6.171152
          ],
          [
            -75.33585,
            6.171101
          ],
          [
            -75.335805,
            6.171063
          ],
          [
            -75.335769,
            6.171016
          ],
          [
            -75.335652,
            6.170828
          ],
          [
            -75.335494,
            6.170275
          ],
          [
            -75.335476,
            6.170025
          ],
          [
            -75.335498,
            6.16979
          ],
          [
            -75.335539,
            6.169346
          ],
          [
            -75.335558,
            6.169035
          ],
          [
            -75.335555,
            6.168627
          ],
          [
            -75.336513,
            6.168618
          ],
          [
            -75.336894,
            6.16877
          ],
          [
            -75.337242,
            6.168908
          ]
        ],
        "type": "LineString"
      }
    }
  ],
  "metadata": {
    "attribution": "openrouteservice.org | OpenStreetMap contributors",
    "service": "routing",
    "timestamp": 1764859294051,
    "query": {
      "coordinates": [
        [
          -75.35350129999999,
          6.1796827
        ],
        [
          -75.3372735,
          6.1688305
        ]
      ],
      "profile": "driving-hgv",
      "profileName": "driving-hgv",
      "preference": "recommended",
      "format": "geojson",
      "language": "es",
      "options": {
        "profile_params": {
          "restrictions": {
            "length": 8.0,
            "width": 2.5,
            "height": 3.5
          },
          "surface_quality_known": false,
          "allow_unsuitable": false
        },
        "avoid_polygons": {
          "coordinates": [
            [
              [
                [
                  -75.53398800000001,
                  6.1525436
                ],
                [
                  -75.531988,
                  6.1525436
                ],
                [
                  -75.531988,
                  6.1545436
                ],
                [
                  -75.53398800000001,
                  6.1545436
                ],
                [
                  -75.53398800000001,
                  6.1525436
                ]
              ]
            ],
            [
              [
                [
                  -75.49099790000001,
                  6.0932509999999995
                ],
                [
                  -75.4889979,
                  6.0932509999999995
                ],
                [
                  -75.4889979,
                  6.095251
                ],
                [
                  -75.49099790000001,
                  6.095251
                ],
                [
                  -75.49099790000001,
                  6.0932509999999995
                ]
              ]
            ],
            [
              [
                [
                  -75.44939930000001,
                  6.1764060999999995
                ],
                [
                  -75.4473993,
                  6.1764060999999995
                ],
                [
                  -75.4473993,
                  6.1784061
                ],
                [
                  -75.44939930000001,
                  6.1784061
                ],
                [
                  -75.44939930000001,
                  6.1764060999999995
                ]
              ]
            ],
            [
              [
                [
                  -75.4890572,
                  6.2037862
                ],
                [
                  -75.4870572,
                  6.2037862
                ],
                [
                  -75.4870572,
                  6.2057862
                ],
                [
                  -75.4890572,
                  6.2057862
                ],
                [
                  -75.4890572,
                  6.2037862
                ]
              ]
            ],
            [
              [
                [
                  -75.46672650000001,
                  6.1850524
                ],
                [
                  -75.4647265,
                  6.1850524
                ],
                [
                  -75.4647265,
                  6.187052400000001
                ],
                [
                  -75.46672650000001,
                  6.187052400000001
                ],
                [
                  -75.46672650000001,
                  6.1850524
                ]
              ]
            ],
            [
              [
                [
                  -75.5035304,
                  6.2159613
                ],
                [
                  -75.5015304,
                  6.2159613
                ],
                [
                  -75.5015304,
                  6.217961300000001
                ],
                [
                  -75.5035304,
                  6.217961300000001
                ],
                [
                  -75.5035304,
                  6.2159613
                ]
              ]
            ],
            [
              [
                [
                  -75.4913478,
                  6.170510299999999
                ],
                [
                  -75.48934779999999,
                  6.170510299999999
                ],
                [
                  -75.48934779999999,
                  6.1725103
                ],
                [
                  -75.4913478,
                  6.1725103
                ],
                [
                  -75.4913478,
                  6.170510299999999
                ]
              ]
            ],
            [
              [
                [
                  -75.5250472,
                  6.1422792
                ],
                [
                  -75.5230472,
                  6.1422792
                ],
                [
                  -75.5230472,
                  6.144279200000001
                ],
                [
                  -75.5250472,
                  6.144279200000001
                ],
                [
                  -75.5250472,
                  6.1422792
                ]
              ]
            ],
            [
              [
                [
                  -75.42459550000001,
                  6.123615999999999
                ],
                [
                  -75.4225955,
                  6.123615999999999
                ],
                [
                  -75.4225955,
                  6.125616
                ],
                [
                  -75.42459550000001,
                  6.125616
                ],
                [
                  -75.42459550000001,
                  6.123615999999999
                ]
              ]
            ],
            [
              [
                [
                  -75.5600752,
                  6.2197343
                ],
                [
                  -75.55807519999999,
                  6.2197343
                ],
                [
                  -75.55807519999999,
                  6.2217343000000005
                ],
                [
                  -75.5600752,
                  6.2217343000000005
                ],
                [
                  -75.5600752,
                  6.2197343
                ]
              ]
            ],
            [
              [
                [
                  -75.4291982,
                  6.0892721
                ],
                [
                  -75.42719819999999,
                  6.0892721
                ],
                [
                  -75.42719819999999,
                  6.0912721
                ],
                [
                  -75.4291982,
                  6.0912721
                ],
                [
                  -75.4291982,
                  6.0892721
                ]
              ]
            ],
            [
              [
                [
                  -75.50124240000001,
                  6.1697112
                ],
                [
                  -75.4992424,
                  6.1697112
                ],
                [
                  -75.4992424,
                  6.171711200000001
                ],
                [
                  -75.50124240000001,
                  6.171711200000001
                ],
                [
                  -75.50124240000001,
                  6.1697112
                ]
              ]
            ],
            [
              [
                [
                  -75.4364807,
                  6.1772187
                ],
                [
                  -75.4344807,
                  6.1772187
                ],
                [
                  -75.4344807,
                  6.179218700000001
                ],
                [
                  -75.4364807,
                  6.179218700000001
                ],
                [
                  -75.4364807,
                  6.1772187
                ]
              ]
            ],
            [
              [
                [
                  -75.4336162,
                  6.2493549999999995
                ],
                [
                  -75.4316162,
                  6.2493549999999995
                ],
                [
                  -75.4316162,
                  6.251355
                ],
                [
                  -75.4336162,
                  6.251355
                ],
                [
                  -75.4336162,
                  6.2493549999999995
                ]
              ]
            ],
            [
              [
                [
                  -75.555226,
                  6.133627199999999
                ],
                [
                  -75.553226,
                  6.133627199999999
                ],
                [
                  -75.553226,
                  6.1356272
                ],
                [
                  -75.555226,
                  6.1356272
                ],
                [
                  -75.555226,
                  6.133627199999999
                ]
              ]
            ],
            [
              [
                [
                  -75.481297,
                  6.089910199999999
                ],
                [
                  -75.47929699999999,
                  6.089910199999999
                ],
                [
                  -75.47929699999999,
                  6.0919102
                ],
                [
                  -75.481297,
                  6.0919102
                ],
                [
                  -75.481297,
                  6.089910199999999
                ]
              ]
            ],
            [
              [
                [
                  -75.4232837,
                  6.059844
                ],
                [
                  -75.42128369999999,
                  6.059844
                ],
                [
                  -75.42128369999999,
                  6.061844000000001
                ],
                [
                  -75.4232837,
                  6.061844000000001
                ],
                [
                  -75.4232837,
                  6.059844
                ]
              ]
            ],
            [
              [
                [
                  -75.4577368,
                  6.0576535
                ],
                [
                  -75.4557368,
                  6.0576535
                ],
                [
                  -75.4557368,
                  6.0596535000000005
                ],
                [
                  -75.4577368,
                  6.0596535000000005
                ],
                [
                  -75.4577368,
                  6.0576535
                ]
              ]
            ],
            [
              [
                [
                  -75.43430260000001,
                  6.1414703
                ],
                [
                  -75.4323026,
                  6.1414703
                ],
                [
                  -75.4323026,
                  6.143470300000001
                ],
                [
                  -75.43430260000001,
                  6.143470300000001
                ],
                [
                  -75.43430260000001,
                  6.1414703
                ]
              ]
            ],
            [
              [
                [
                  -75.452403,
                  6.112123599999999
                ],
                [
                  -75.450403,
                  6.112123599999999
                ],
                [
                  -75.450403,
                  6.1141236
                ],
                [
                  -75.452403,
                  6.1141236
                ],
                [
                  -75.452403,
                  6.112123599999999
                ]
              ]
            ],
            [
              [
                [
                  -75.6342218,
                  6.0668213
                ],
                [
                  -75.6322218,
                  6.0668213
                ],
                [
                  -75.6322218,
                  6.068821300000001
                ],
                [
                  -75.6342218,
                  6.068821300000001
                ],
                [
                  -75.6342218,
                  6.0668213
                ]
              ]
            ],
            [
              [
                [
                  -75.4502234,
                  6.0178674
                ],
                [
                  -75.44822339999999,
                  6.0178674
                ],
                [
                  -75.44822339999999,
                  6.019867400000001
                ],
                [
                  -75.4502234,
                  6.019867400000001
                ],
                [
                  -75.4502234,
                  6.0178674
                ]
              ]
            ],
            [
              [
                [
                  -75.4329548,
                  6.008317399999999
                ],
                [
                  -75.4309548,
                  6.008317399999999
                ],
                [
                  -75.4309548,
                  6.0103174
                ],
                [
                  -75.4329548,
                  6.0103174
                ],
                [
                  -75.4329548,
                  6.008317399999999
                ]
              ]
            ],
            [
              [
                [
                  -75.4134652,
                  6.022465599999999
                ],
                [
                  -75.4114652,
                  6.022465599999999
                ],
                [
                  -75.4114652,
                  6.0244656
                ],
                [
                  -75.4134652,
                  6.0244656
                ],
                [
                  -75.4134652,
                  6.022465599999999
                ]
              ]
            ],
            [
              [
                [
                  -75.3412419,
                  6.138306399999999
                ],
                [
                  -75.33924189999999,
                  6.138306399999999
                ],
                [
                  -75.33924189999999,
                  6.1403064
                ],
                [
                  -75.3412419,
                  6.1403064
                ],
                [
                  -75.3412419,
                  6.138306399999999
                ]
              ]
            ]
          ],
          "type": "MultiPolygon"
        }
      }
    },
    "engine": {
      "version": "9.5.0",
      "build_date": "2025-10-31T12:33:09Z",
      "graph_date": "2025-12-01T03:52:42Z",
      "osm_date": "2025-11-24T00:59:59Z"
    }
  }
}