{
  "type": "FeatureCollection",
  "bbox": [
    -75.365735,
    6.088041,
    -75.337404,
    6.178263
  ],
  "features": [
    {
      "bbox": [
        -75.365735,
        6.088041,
        -75.337404,
        6.178263
      ],
      "type": "Feature",
      "properties": {
        "way_points": [
          0,
          342
        ],
        "summary": {
          "distance": 15280.9,
          "duration": 1279.7
        }
      },
      "geometry": {
        "coordinates": [
          [
            -75.337475,
            6.088041
          ],
          [
            -75.337447,
            6.089005
          ],
          [
            -75.337424,
            6.089811
          ],
          [
            -75.337424,
            6.089872
          ],
          [
            -75.337422,
            6.090374
          ],
          [
            -75.337457,
            6.090937
          ],
          [
            -75.337529,
            6.091189
          ],
          [
            -75.337597,
            6.091274
          ],
          [
            -75.337614,
            6.091317
          ],
          [
            -75.337751,
            6.091654
          ],
          [
            -75.337836,
            6.091863
          ],
          [
            -75.3379,
            6.092004
          ],
          [
            -75.338114,
            6.092509
          ],
          [
            -75.338154,
            6.092605
          ],
          [
            -75.338354,
            6.093131
          ],
          [
            -75.33876,
            6.094139
          ],
          [
            -75.338836,
            6.094292
          ],
          [
            -75.338858,
            6.094371
          ],
          [
            -75.339036,
            6.094707
          ],
          [
            -75.339345,
            6.095218
          ],
          [
            -75.339567,
            6.095587
          ],
          [
            -75.33993,
            6.096144
          ],
          [
            -75.34006,
            6.096374
          ],
          [
            -75.340091,
            6.09644
          ],
          [
            -75.340348,
            6.096824
          ],
          [
            -75.340624,
            6.097191
          ],
          [
            -75.340764,
            6.097324
          ],
          [
            -75.341051,
            6.097554
          ],
          [
            -75.34122,
            6.097702
          ],
          [
            -75.34142,
            6.097852
          ],
          [
            -75.341678,
            6.098044
          ],
          [
            -75.341801,
            6.098099
          ],
          [
            -75.341921,
            6.098134
          ],
          [
            -75.342106,
            6.098149
          ],
          [
            -75.342552,
            6.098114
          ],
          [
            -75.342656,
            6.098112
          ],
          [
            -75.342956,
            6.098083
          ],
          [
            -75.343303,
            6.098077
          ],
          [
            -75.343432,
            6.098093
          ],
          [
            -75.343635,
            6.098143
          ],
          [
            -75.3438,
            6.098215
          ],
          [
            -75.344424,
            6.098559
          ],
          [
            -75.344542,
            6.09859
          ],
          [
            -75.34476,
            6.098573
          ],
          [
            -75.345056,
            6.098468
          ],
          [
            -75.345242,
            6.098431
          ],
          [
            -75.345408,
            6.098448
          ],
          [
            -75.345889,
            6.098693
          ],
          [
            -75.34643,
            6.099002
          ],
          [
            -75.346542,
            6.099072
          ],
          [
            -75.346698,
            6.099207
          ],
          [
            -75.346822,
            6.099464
          ],
          [
            -75.346913,
            6.099903
          ],
          [
            -75.347016,
            6.100589
          ],
          [
            -75.347122,
            6.100826
          ],
          [
            -75.347283,
            6.101068
          ],
          [
            -75.347375,
            6.101293
          ],
          [
            -75.347529,
            6.10188
          ],
          [
            -75.34767,
            6.102426
          ],
          [
            -75.347676,
            6.102727
          ],
          [
            -75.347586,
            6.103137
          ],
          [
            -75.34739,
            6.103894
          ],
          [
            -75.347196,
            6.104592
          ],
          [
            -75.347185,
            6.105256
          ],
          [
            -75.347187,
            6.106821
          ],
          [
            -75.347189,
            6.106949
          ],
          [
            -75.347172,
            6.107237
          ],
          [
            -75.347138,
            6.107384
          ],
          [
            -75.346817,
            6.108343
          ],
          [
            -75.346765,
            6.10854
          ],
          [
            -75.34677,
            6.108712
          ],
          [
            -75.346813,
            6.108873
          ],
          [
            -75.346999,
            6.109345
          ],
          [
            -75.347379,
            6.110215
          ],
          [
            -75.34743,
            6.110423
          ],
          [
            -75.347431,
            6.110538
          ],
          [
            -75.347386,
            6.110647
          ],
          [
            -75.347304,
            6.110769
          ],
          [
            -75.346902,
            6.111107
          ],
          [
            -75.346776,
            6.111231
          ],
          [
            -75.346676,
            6.111375
          ],
          [
            -75.346577,
            6.111613
          ],
          [
            -75.34651,
            6.111882
          ],
          [
            -75.346482,
            6.112152
          ],
          [
            -75.346498,
            6.112343
          ],
          [
            -75.346551,
            6.112522
          ],
          [
            -75.34682,
            6.1131
          ],
          [
            -75.347162,
            6.113905
          ],
          [
            -75.347475,
            6.11483
          ],
          [
            -75.347636,
            6.115669
          ],
          [
            -75.347861,
            6.116731
          ],
          [
            -75.347939,
            6.117334
          ],
          [
            -75.347952,
            6.117903
          ],
          [
            -75.347976,
            6.119434
          ],
          [
            -75.34796,
            6.119919
          ],
          [
            -75.348,
            6.120531
          ],
          [
            -75.348246,
            6.121337
          ],
          [
            -75.348344,
            6.121568
          ],
          [
            -75.348477,
            6.121726
          ],
          [
            -75.349323,
            6.122615
          ],
          [
            -75.349472,
            6.122839
          ],
          [
            -75.349624,
            6.123199
          ],
          [
            -75.349694,
            6.123318
          ],
          [
            -75.350125,
            6.12392
          ],
          [
            -75.350283,
            6.124267
          ],
          [
            -75.350322,
            6.124417
          ],
          [
            -75.350367,
            6.124477
          ],
          [
            -75.350432,
            6.124764
          ],
          [
            -75.350524,
            6.124868
          ],
          [
            -75.350803,
            6.125096
          ],
          [
            -75.351065,
            6.125361
          ],
          [
            -75.351179,
            6.125432
          ],
          [
            -75.351469,
            6.125507
          ],
          [
            -75.352059,
            6.12638
          ],
          [
            -75.352321,
            6.126869
          ],
          [
            -75.352429,
            6.127168
          ],
          [
            -75.352517,
            6.127474
          ],
          [
            -75.352568,
            6.127722
          ],
          [
            -75.352592,
            6.127965
          ],
          [
            -75.352577,
            6.128199
          ],
          [
            -75.352481,
            6.128707
          ],
          [
            -75.352351,
            6.129245
          ],
          [
            -75.35225,
            6.129621
          ],
          [
            -75.352172,
            6.129992
          ],
          [
            -75.352145,
            6.13017
          ],
          [
            -75.352141,
            6.130427
          ],
          [
            -75.352183,
            6.130897
          ],
          [
            -75.352249,
            6.131239
          ],
          [
            -75.352348,
            6.132005
          ],
          [
            -75.352363,
            6.132488
          ],
          [
            -75.352339,
            6.13351
          ],
          [
            -75.352313,
            6.133734
          ],
          [
            -75.351668,
            6.135682
          ],
          [
            -75.351543,
            6.136065
          ],
          [
            -75.351524,
            6.136197
          ],
          [
            -75.351515,
            6.137347
          ],
          [
            -75.351359,
            6.138207
          ],
          [
            -75.351339,
            6.13848
          ],
          [
            -75.351338,
            6.139063
          ],
          [
            -75.351369,
            6.13937
          ],
          [
            -75.351406,
            6.139523
          ],
          [
            -75.351434,
            6.139605
          ],
          [
            -75.351469,
            6.139738
          ],
          [
            -75.351496,
            6.139978
          ],
          [
            -75.351487,
            6.140064
          ],
          [
            -75.351462,
            6.14013
          ],
          [
            -75.351288,
            6.140445
          ],
          [
            -75.351262,
            6.140527
          ],
          [
            -75.351246,
            6.140648
          ],
          [
            -75.351266,
            6.140763
          ],
          [
            -75.351307,
            6.140885
          ],
          [
            -75.351382,
            6.141004
          ],
          [
            -75.351589,
            6.141214
          ],
          [
            -75.351697,
            6.141417
          ],
          [
            -75.351795,
            6.141556
          ],
          [
            -75.351901,
            6.141831
          ],
          [
            -75.351937,
            6.142059
          ],
          [
            -75.352109,
            6.14251
          ],
          [
            -75.352181,
            6.142643
          ],
          [
            -75.352345,
            6.142841
          ],
          [
            -75.352366,
            6.142865
          ],
          [
            -75.352489,
            6.143014
          ],
          [
            -75.352518,
            6.143188
          ],
          [
            -75.352448,
            6.143692
          ],
          [
            -75.352499,
            6.143951
          ],
          [
            -75.352735,
            6.144279
          ],
          [
            -75.353109,
            6.144706
          ],
          [
            -75.353598,
            6.145264
          ],
          [
            -75.354186,
            6.146079
          ],
          [
            -75.354302,
            6.146348
          ],
          [
            -75.354348,
            6.146611
          ],
          [
            -75.354356,
            6.146743
          ],
          [
            -75.354481,
            6.147218
          ],
          [
            -75.354835,
            6.147682
          ],
          [
            -75.354904,
            6.147772
          ],
          [
            -75.355449,
            6.148308
          ],
          [
            -75.355719,
            6.148495
          ],
          [
            -75.355965,
            6.148587
          ],
          [
            -75.356468,
            6.148738
          ],
          [
            -75.356648,
            6.148792
          ],
          [
            -75.356943,
            6.148881
          ],
          [
            -75.357182,
            6.148953
          ],
          [
            -75.357449,
            6.148917
          ],
          [
            -75.357616,
            6.148849
          ],
          [
            -75.357932,
            6.148659
          ],
          [
            -75.358339,
            6.148449
          ],
          [
            -75.358453,
            6.148411
          ],
          [
            -75.358554,
            6.148404
          ],
          [
            -75.358666,
            6.148418
          ],
          [
            -75.35885,
            6.148472
          ],
          [
            -75.359371,
            6.148745
          ],
          [
            -75.359481,
            6.14884
          ],
          [
            -75.359627,
            6.149044
          ],
          [
            -75.35968,
            6.149124
          ],
          [
            -75.359835,
            6.14938
          ],
          [
            -75.359883,
            6.149452
          ],
          [
            -75.360129,
            6.149816
          ],
          [
            -75.360301,
            6.150035
          ],
          [
            -75.360398,
            6.150159
          ],
          [
            -75.360977,
            6.150743
          ],
          [
            -75.361547,
            6.151214
          ],
          [
            -75.362963,
            6.152504
          ],
          [
            -75.363142,
            6.15265
          ],
          [
            -75.363309,
            6.152763
          ],
          [
            -75.363379,
            6.152901
          ],
          [
            -75.363378,
            6.152952
          ],
          [
            -75.363271,
            6.153152
          ],
          [
            -75.363249,
            6.153166
          ],
          [
            -75.363621,
            6.153737
          ],
          [
            -75.363694,
            6.153776
          ],
          [
            -75.363889,
            6.153827
          ],
          [
            -75.364038,
            6.153922
          ],
          [
            -75.364529,
            6.15447
          ],
          [
            -75.364614,
            6.154574
          ],
          [
            -75.364666,
            6.154672
          ],
          [
            -75.3648,
            6.155151
          ],
          [
            -75.3651,
            6.155835
          ],
          [
            -75.365207,
            6.156019
          ],
          [
            -75.365111,
            6.156173
          ],
          [
            -75.365006,
            6.15652
          ],
          [
            -75.364901,
            6.156922
          ],
          [
            -75.364821,
            6.157226
          ],
          [
            -75.364741,
            6.157573
          ],
          [
            -75.364733,
            6.157657
          ],
          [
            -75.364757,
            6.157928
          ],
          [
            -75.364796,
            6.158111
          ],
          [
            -75.364917,
            6.158495
          ],
          [
            -75.364996,
            6.158678
          ],
          [
            -75.365232,
            6.159051
          ],
          [
            -75.365555,
            6.159457
          ],
          [
            -75.365636,
            6.159582
          ],
          [
            -75.365683,
            6.159666
          ],
          [
            -75.365718,
            6.159807
          ],
          [
            -75.365735,
            6.159962
          ],
          [
            -75.365714,
            6.160171
          ],
          [
            -75.365678,
            6.1603
          ],
          [
            -75.365564,
            6.160508
          ],
          [
            -75.365493,
            6.16059
          ],
          [
            -75.365385,
            6.160689
          ],
          [
            -75.364899,
            6.160992
          ],
          [
            -75.364663,
            6.161179
          ],
          [
            -75.364218,
            6.161602
          ],
          [
            -75.36359,
            6.162247
          ],
          [
            -75.361735,
            6.164127
          ],
          [
            -75.361613,
            6.164309
          ],
          [
            -75.361474,
            6.164651
          ],
          [
            -75.36137,
            6.164848
          ],
          [
            -75.36125,
            6.164933
          ],
          [
            -75.361186,
            6.165022
          ],
          [
            -75.361151,
            6.165125
          ],
          [
            -75.361147,
            6.165239
          ],
          [
            -75.361178,
            6.165349
          ],
          [
            -75.36124,
            6.165444
          ],
          [
            -75.361328,
            6.165518
          ],
          [
            -75.361434,
            6.165561
          ],
          [
            -75.361541,
            6.165653
          ],
          [
            -75.361603,
            6.165741
          ],
          [
            -75.361681,
            6.165931
          ],
          [
            -75.36298,
            6.169712
          ],
          [
            -75.363095,
            6.169993
          ],
          [
            -75.36377,
            6.17119
          ],
          [
            -75.363838,
            6.171339
          ],
          [
            -75.363881,
            6.171485
          ],
          [
            -75.363894,
            6.171678
          ],
          [
            -75.363878,
            6.171837
          ],
          [
            -75.363799,
            6.172028
          ],
          [
            -75.363113,
            6.172811
          ],
          [
            -75.362925,
            6.173048
          ],
          [
            -75.362821,
            6.173195
          ],
          [
            -75.362732,
            6.173401
          ],
          [
            -75.362532,
            6.17381
          ],
          [
            -75.362408,
            6.17404
          ],
          [
            -75.362157,
            6.174578
          ],
          [
            -75.361936,
            6.175285
          ],
          [
            -75.36177,
            6.175773
          ],
          [
            -75.361666,
            6.176066
          ],
          [
            -75.361472,
            6.176489
          ],
          [
            -75.361396,
            6.176666
          ],
          [
            -75.361203,
            6.177077
          ],
          [
            -75.361006,
            6.177507
          ],
          [
            -75.360815,
            6.177928
          ],
          [
            -75.360689,
            6.178133
          ],
          [
            -75.360614,
            6.178202
          ],
          [
            -75.36056,
            6.178236
          ],
          [
            -75.360525,
            6.17824
          ],
          [
            -75.360459,
            6.178263
          ],
          [
            -75.360223,
            6.178233
          ],
          [
            -75.358878,
            6.177769
          ],
          [
            -75.357971,
            6.177445
          ],
          [
            -75.35773,
            6.177359
          ],
          [
            -75.357564,
            6.177308
          ],
          [
            -75.356487,
            6.176906
          ],
          [
            -75.356401,
            6.176874
          ],
          [
            -75.35482,
            6.176317
          ],
          [
            -75.353895,
            6.175981
          ],
          [
            -75.352936,
            6.17566
          ],
          [
            -75.352101,
            6.175392
          ],
          [
            -75.35148,
            6.175194
          ],
          [
            -75.350161,
            6.174781
          ],
          [
            -75.349739,
            6.174649
          ],
          [
            -75.349512,
            6.174578
          ],
          [
            -75.349275,
            6.174504
          ],
          [
            -75.348435,
            6.174233
          ],
          [
            -75.348055,
            6.174089
          ],
          [
            -75.347853,
            6.173981
          ],
          [
            -75.347659,
            6.173854
          ],
          [
            -75.346763,
            6.173173
          ],
          [
            -75.346501,
            6.172976
          ],
          [
            -75.346101,
            6.17273
          ],
          [
            -75.345853,
            6.172595
          ],
          [
            -75.345549,
            6.172481
          ],
          [
            -75.345086,
            6.172351
          ],
          [
            -75.344134,
            6.172148
          ],
          [
            -75.343808,
            6.172063
          ],
          [
            -75.34338,
            6.17191
          ],
          [
            -75.342995,
            6.171704
          ],
          [
            -75.342624,
            6.171451
          ],
          [
            -75.342439,
            6.171323
          ],
          [
            -75.341472,
            6.170511
          ],
          [
            -75.341272,
            6.170341
          ],
          [
            -75.341226,
            6.170302
          ],
          [
            -75.340909,
            6.170051
          ],
          [
            -75.339758,
            6.169241
          ],
          [
            -75.33881,
            6.168569
          ],
          [
            -75.338498,
            6.168389
          ],
          [
            -75.338285,
            6.168278
          ],
          [
            -75.338161,
            6.168223
          ],
          [
            -75.338021,
            6.168203
          ],
          [
            -75.337516,
            6.168007
          ],
          [
            -75.337473,
            6.167997
          ],
          [
            -75.337435,
            6.168005
          ],
          [
            -75.337412,
            6.16803
          ],
          [
            -75.337404,
            6.168084
          ],
          [
            -75.337444,
            6.168132
          ],
          [
            -75.337898,
            6.168305
          ],
          [
            -75.337941,
            6.168336
          ],
          [
            -75.337982,
            6.1684
          ],
          [
            -75.338086,
            6.168448
          ],
          [
            -75.33843,
            6.168643
          ],
          [
            -75.338723,
            6.168833
          ],
          [
            -75.338678,
            6.168946
          ],
          [
            -75.338683,
            6.169045
          ],
          [
            -75.338751,
            6.169342
          ]
        ],
        "type": "LineString"
      }
    }
  ],
  "metadata": {
    "attribution": "openrouteservice.org | OpenStreetMap contributors",
    "service": "routing",
    "timestamp": 1764859171561,
    "query": {
      "coordinates": [
        [
          -75.337484,
          6.088041
        ],
        [
          -75.3386841,
          6.169357199999999
        ]
      ],
      "profile": "driving-hgv",
      "profileName": "driving-hgv",
      "preference": "recommended",
      "format": "geojson",
      "language": "es",
      "options": {
        "profile_params": {
          "restrictions": {
            "length": 8.0,
            "width": 2.5,
            "height": 3.5
          },
          "surface_quality_known": false,
          "allow_unsuitable": false
        },
        "avoid_polygons": {
          "coordinates": [
            [
              [
                [
                  -75.53398800000001,
                  6.1525436
                ],
                [
                  -75.531988,
                  6.1525436
                ],
                [
                  -75.531988,
                  6.1545436
                ],
                [
                  -75.53398800000001,
                  6.1545436
                ],
                [
                  -75.53398800000001,
                  6.1525436
                ]
              ]
            ],
            [
              [
                [
                  -75.49099790000001,
                  6.0932509999999995
                ],
                [
                  -75.4889979,
                  6.0932509999999995
                ],
                [
                  -75.4889979,
                  6.095251
                ],
                [
                  -75.49099790000001,
                  6.095251
                ],
                [
                  -75.49099790000001,
                  6.0932509999999995
                ]
              ]
            ],
            [
              [
                [
                  -75.44939930000001,
                  6.1764060999999995
                ],
                [
                  -75.4473993,
                  6.1764060999999995
                ],
                [
                  -75.4473993,
                  6.1784061
                ],
                [
                  -75.44939930000001,
                  6.1784061
                ],
                [
                  -75.44939930000001,
                  6.1764060999999995
                ]
              ]
            ],
            [
              [
                [
                  -75.4890572,
                  6.2037862
                ],
                [
                  -75.4870572,
                  6.2037862
                ],
                [
                  -75.4870572,
                  6.2057862
                ],
                [
                  -75.4890572,
                  6.2057862
                ],
                [
                  -75.4890572,
                  6.2037862
                ]
              ]
            ],
            [
              [
                [
                  -75.46672650000001,
                  6.1850524
                ],
                [
                  -75.4647265,
                  6.1850524
                ],
                [
                  -75.4647265,
                  6.187052400000001
                ],
                [
                  -75.46672650000001,
                  6.187052400000001
                ],
                [
                  -75.46672650000001,
                  6.1850524
                ]
              ]
            ],
            [
              [
                [
                  -75.5035304,
                  6.2159613
                ],
                [
                  -75.5015304,
                  6.2159613
                ],
                [
                  -75.5015304,
                  6.217961300000001
                ],
                [
                  -75.5035304,
                  6.217961300000001
                ],
                [
                  -75.5035304,
                  6.2159613
                ]
              ]
            ],
            [
              [
                [
                  -75.4913478,
                  6.170510299999999
                ],
                [
                  -75.48934779999999,
                  6.170510299999999
                ],
                [
                  -75.48934779999999,
                  6.1725103
                ],
                [
                  -75.4913478,
                  6.1725103
                ],
                [
                  -75.4913478,
                  6.170510299999999
                ]
              ]
            ],
            [
              [
                [
                  -75.5250472,
                  6.1422792
                ],
                [
                  -75.5230472,
                  6.1422792
                ],
                [
                  -75.5230472,
                  6.144279200000001
                ],
                [
                  -75.5250472,
                  6.144279200000001
                ],
                [
                  -75.5250472,
                  6.1422792
                ]
              ]
            ],
            [
              [
                [
                  -75.42459550000001,
                  6.123615999999999
                ],
                [
                  -75.4225955,
                  6.123615999999999
                ],
                [
                  -75.4225955,
                  6.125616
                ],
                [
                  -75.42459550000001,
                  6.125616
                ],
                [
                  -75.42459550000001,
                  6.123615999999999
                ]
              ]
            ],
            [
              [
                [
                  -75.5600752,
                  6.2197343
                ],
                [
                  -75.55807519999999,
                  6.2197343
                ],
                [
                  -75.55807519999999,
                  6.2217343000000005
                ],
                [
                  -75.5600752,
                  6.2217343000000005
                ],
                [
                  -75.5600752,
                  6.2197343
                ]
              ]
            ],
            [
              [
                [
                  -75.4291982,
                  6.0892721
                ],
                [
                  -75.42719819999999,
                  6.0892721
                ],
                [
                  -75.42719819999999,
                  6.0912721
                ],
                [
                  -75.4291982,
                  6.0912721
                ],
                [
                  -75.4291982,
                  6.0892721
                ]
              ]
            ],
            [
              [
                [
                  -75.50124240000001,
                  6.1697112
                ],
                [
                  -75.4992424,
                  6.1697112
                ],
                [
                  -75.4992424,
                  6.171711200000001
                ],
                [
                  -75.50124240000001,
                  6.171711200000001
                ],
                [
                  -75.50124240000001,
                  6.1697112
                ]
              ]
            ],
            [
              [
                [
                  -75.4364807,
                  6.1772187
                ],
                [
                  -75.4344807,
                  6.1772187
                ],
                [
                  -75.4344807,
                  6.179218700000001
                ],
                [
                  -75.4364807,
                  6.179218700000001
                ],
                [
                  -75.4364807,
                  6.1772187
                ]
              ]
            ],
            [
              [
                [
                  -75.4336162,
                  6.2493549999999995
                ],
                [
                  -75.4316162,
                  6.2493549999999995
                ],
                [
                  -75.4316162,
                  6.251355
                ],
                [
                  -75.4336162,
                  6.251355
                ],
                [
                  -75.4336162,
                  6.2493549999999995
                ]
              ]
            ],
            [
              [
                [
                  -75.555226,
                  6.133627199999999
                ],
                [
                  -75.553226,
                  6.133627199999999
                ],
                [
                  -75.553226,
                  6.1356272
                ],
                [
                  -75.555226,
                  6.1356272
                ],
                [
                  -75.555226,
                  6.133627199999999
                ]
              ]
            ],
            [
              [
                [
                  -75.481297,
                  6.089910199999999
                ],
                [
                  -75.47929699999999,
                  6.089910199999999
                ],
                [
                  -75.47929699999999,
                  6.0919102
                ],
                [
                  -75.481297,
                  6.0919102
                ],
                [
                  -75.481297,
                  6.089910199999999
                ]
              ]
            ],
            [
              [
                [
                  -75.4232837,
                  6.059844
                ],
                [
                  -75.42128369999999,
                  6.059844
                ],
                [
                  -75.42128369999999,
                  6.061844000000001
                ],
                [
                  -75.4232837,
                  6.061844000000001
                ],
                [
                  -75.4232837,
                  6.059844
                ]
              ]
            ],
            [
              [
                [
                  -75.4577368,
                  6.0576535
                ],
                [
                  -75.4557368,
                  6.0576535
                ],
                [
                  -75.4557368,
                  6.0596535000000005
                ],
                [
                  -75.4577368,
                  6.0596535000000005
                ],
                [
                  -75.4577368,
                  6.0576535
                ]
              ]
            ],
            [
              [
                [
                  -75.43430260000001,
                  6.1414703
                ],
                [
                  -75.4323026,
                  6.1414703
                ],
                [
                  -75.4323026,
                  6.143470300000001
                ],
                [
                  -75.43430260000001,
                  6.143470300000001
                ],
                [
                  -75.43430260000001,
                  6.1414703
                ]
              ]
            ],
            [
              [
                [
                  -75.452403,
                  6.112123599999999
                ],
                [
                  -75.450403,
                  6.112123599999999
                ],
                [
                  -75.450403,
                  6.1141236
                ],
                [
                  -75.452403,
                  6.1141236
                ],
                [
                  -75.452403,
                  6.112123599999999
                ]
              ]
            ],
            [
              [
                [
                  -75.6342218,
                  6.0668213
                ],
                [
                  -75.6322218,
                  6.0668213
                ],
                [
                  -75.6322218,
                  6.068821300000001
                ],
                [
                  -75.6342218,
                  6.068821300000001
                ],
                [
                  -75.6342218,
                  6.0668213
                ]
              ]
            ],
            [
              [
                [
                  -75.4502234,
                  6.0178674
                ],
                [
                  -75.44822339999999,
                  6.0178674
                ],
                [
                  -75.44822339999999,
                  6.019867400000001
                ],
                [
                  -75.4502234,
                  6.019867400000001
                ],
                [
                  -75.4502234,
                  6.0178674
                ]
              ]
            ],
            [
              [
                [
                  -75.4329548,
                  6.008317399999999
                ],
                [
                  -75.4309548,
                  6.008317399999999
                ],
                [
                  -75.4309548,
                  6.0103174
                ],
                [
                  -75.4329548,
                  6.0103174
                ],
                [
                  -75.4329548,
                  6.008317399999999
                ]
              ]
            ],
            [
              [
                [
                  -75.4134652,
                  6.022465599999999
                ],
                [
                  -75.4114652,
                  6.022465599999999
                ],
                [
                  -75.4114652,
                  6.0244656
                ],
                [
                  -75.4134652,
                  6.0244656
                ],
                [
                  -75.4134652,
                  6.022465599999999
                ]
              ]
            ],
            [
              [
                [
                  -75.3412419,
                  6.138306399999999
                ],
                [
                  -75.33924189999999,
                  6.138306399999999
                ],
                [
                  -75.33924189999999,
                  6.1403064
                ],
                [
                  -75.3412419,
                  6.1403064
                ],
                [
                  -75.3412419,
                  6.138306399999999
                ]
              ]
            ]
          ],
          "type": "MultiPolygon"
        }
      }
    },
    "engine": {
      "version": "9.5.0",
      "build_date": "2025-10-31T12:33:09Z",
      "graph_date": "2025-12-01T03:52:42Z",
      "osm_date": "2025-11-24T00:59:59Z"
    }
  }
}