{
  "type": "FeatureCollection",
  "bbox": [
    -75.429483,
    6.03546,
    -75.262007,
    6.13947
  ],
  "features": [
    {
      "bbox": [
        -75.429483,
        6.03546,
        -75.262007,
        6.13947
      ],
      "type": "Feature",
      "properties": {
        "way_points": [
          0,
          743
        ],
        "summary": {
          "distance": 27883.2,
          "duration": 2541.5
        }
      },
      "geometry": {
        "coordinates": [
          [
            -75.428713,
            6.037153
          ],
          [
            -75.429226,
            6.037277
          ],
          [
            -75.429483,
            6.036519
          ],
          [
            -75.428678,
            6.036301
          ],
          [
            -75.427848,
            6.036086
          ],
          [
            -75.427431,
            6.035968
          ],
          [
            -75.427349,
            6.035946
          ],
          [
            -75.42703,
            6.035865
          ],
          [
            -75.426742,
            6.035786
          ],
          [
            -75.426392,
            6.035713
          ],
          [
            -75.426227,
            6.035695
          ],
          [
            -75.425453,
            6.035614
          ],
          [
            -75.424545,
            6.035496
          ],
          [
            -75.42415,
            6.035476
          ],
          [
            -75.423953,
            6.03548
          ],
          [
            -75.423813,
            6.035484
          ],
          [
            -75.423714,
            6.03549
          ],
          [
            -75.423678,
            6.035495
          ],
          [
            -75.42347,
            6.035483
          ],
          [
            -75.423289,
            6.035472
          ],
          [
            -75.422579,
            6.03546
          ],
          [
            -75.421773,
            6.035638
          ],
          [
            -75.421357,
            6.035783
          ],
          [
            -75.42124,
            6.035859
          ],
          [
            -75.421147,
            6.035912
          ],
          [
            -75.421132,
            6.035924
          ],
          [
            -75.420836,
            6.036094
          ],
          [
            -75.420507,
            6.036386
          ],
          [
            -75.420207,
            6.036641
          ],
          [
            -75.420091,
            6.036784
          ],
          [
            -75.419879,
            6.037007
          ],
          [
            -75.41977,
            6.037143
          ],
          [
            -75.419628,
            6.037253
          ],
          [
            -75.419067,
            6.037718
          ],
          [
            -75.418368,
            6.03837
          ],
          [
            -75.418304,
            6.038501
          ],
          [
            -75.418136,
            6.03861
          ],
          [
            -75.417645,
            6.039018
          ],
          [
            -75.417392,
            6.039245
          ],
          [
            -75.417232,
            6.039351
          ],
          [
            -75.417059,
            6.039436
          ],
          [
            -75.416903,
            6.039483
          ],
          [
            -75.41679,
            6.039499
          ],
          [
            -75.416577,
            6.039509
          ],
          [
            -75.416383,
            6.039494
          ],
          [
            -75.416022,
            6.039371
          ],
          [
            -75.415643,
            6.039215
          ],
          [
            -75.414961,
            6.038935
          ],
          [
            -75.414714,
            6.038834
          ],
          [
            -75.414272,
            6.038675
          ],
          [
            -75.41383,
            6.038617
          ],
          [
            -75.413632,
            6.038523
          ],
          [
            -75.413604,
            6.038459
          ],
          [
            -75.413559,
            6.038405
          ],
          [
            -75.413503,
            6.038365
          ],
          [
            -75.413417,
            6.038336
          ],
          [
            -75.413326,
            6.038338
          ],
          [
            -75.413242,
            6.038371
          ],
          [
            -75.413173,
            6.03843
          ],
          [
            -75.412932,
            6.038586
          ],
          [
            -75.412437,
            6.038613
          ],
          [
            -75.412167,
            6.038681
          ],
          [
            -75.412028,
            6.038735
          ],
          [
            -75.411786,
            6.038885
          ],
          [
            -75.411038,
            6.039511
          ],
          [
            -75.410078,
            6.040237
          ],
          [
            -75.409831,
            6.040424
          ],
          [
            -75.40925,
            6.040913
          ],
          [
            -75.40844,
            6.041617
          ],
          [
            -75.407935,
            6.041996
          ],
          [
            -75.407215,
            6.042478
          ],
          [
            -75.406886,
            6.042733
          ],
          [
            -75.406691,
            6.042788
          ],
          [
            -75.406495,
            6.042767
          ],
          [
            -75.406357,
            6.042716
          ],
          [
            -75.406154,
            6.042554
          ],
          [
            -75.405635,
            6.042071
          ],
          [
            -75.405434,
            6.04189
          ],
          [
            -75.405189,
            6.041738
          ],
          [
            -75.404948,
            6.041663
          ],
          [
            -75.40464,
            6.041667
          ],
          [
            -75.404192,
            6.041782
          ],
          [
            -75.402531,
            6.042006
          ],
          [
            -75.40229,
            6.042043
          ],
          [
            -75.401877,
            6.042157
          ],
          [
            -75.401231,
            6.042427
          ],
          [
            -75.400822,
            6.042682
          ],
          [
            -75.399833,
            6.043504
          ],
          [
            -75.398315,
            6.044958
          ],
          [
            -75.397728,
            6.04551
          ],
          [
            -75.397563,
            6.045679
          ],
          [
            -75.397068,
            6.046152
          ],
          [
            -75.39599,
            6.047191
          ],
          [
            -75.395924,
            6.047251
          ],
          [
            -75.395656,
            6.047498
          ],
          [
            -75.394573,
            6.048339
          ],
          [
            -75.394227,
            6.04858
          ],
          [
            -75.393898,
            6.048928
          ],
          [
            -75.393464,
            6.049502
          ],
          [
            -75.393227,
            6.049688
          ],
          [
            -75.391596,
            6.050636
          ],
          [
            -75.39122,
            6.050976
          ],
          [
            -75.390349,
            6.052306
          ],
          [
            -75.389725,
            6.053128
          ],
          [
            -75.388976,
            6.053955
          ],
          [
            -75.388891,
            6.054049
          ],
          [
            -75.388528,
            6.054435
          ],
          [
            -75.388002,
            6.055031
          ],
          [
            -75.387597,
            6.055534
          ],
          [
            -75.387122,
            6.056155
          ],
          [
            -75.386991,
            6.056274
          ],
          [
            -75.386202,
            6.056879
          ],
          [
            -75.385961,
            6.057154
          ],
          [
            -75.385755,
            6.057455
          ],
          [
            -75.385672,
            6.057626
          ],
          [
            -75.385616,
            6.0578
          ],
          [
            -75.385315,
            6.059063
          ],
          [
            -75.38519,
            6.059383
          ],
          [
            -75.384766,
            6.060371
          ],
          [
            -75.384715,
            6.060609
          ],
          [
            -75.384659,
            6.060953
          ],
          [
            -75.384655,
            6.061614
          ],
          [
            -75.384618,
            6.062195
          ],
          [
            -75.384536,
            6.062533
          ],
          [
            -75.384387,
            6.062925
          ],
          [
            -75.383989,
            6.063646
          ],
          [
            -75.383646,
            6.064192
          ],
          [
            -75.38346,
            6.064528
          ],
          [
            -75.382902,
            6.065561
          ],
          [
            -75.382494,
            6.066547
          ],
          [
            -75.382458,
            6.066626
          ],
          [
            -75.382442,
            6.066662
          ],
          [
            -75.382309,
            6.066981
          ],
          [
            -75.381753,
            6.068314
          ],
          [
            -75.381478,
            6.068797
          ],
          [
            -75.381396,
            6.068905
          ],
          [
            -75.38088,
            6.069556
          ],
          [
            -75.380808,
            6.069633
          ],
          [
            -75.380489,
            6.069989
          ],
          [
            -75.380297,
            6.070286
          ],
          [
            -75.38013,
            6.070588
          ],
          [
            -75.379912,
            6.071085
          ],
          [
            -75.379824,
            6.07135
          ],
          [
            -75.379792,
            6.07148
          ],
          [
            -75.379735,
            6.071683
          ],
          [
            -75.379573,
            6.072454
          ],
          [
            -75.379543,
            6.072635
          ],
          [
            -75.379528,
            6.072711
          ],
          [
            -75.379445,
            6.072925
          ],
          [
            -75.379365,
            6.073231
          ],
          [
            -75.37931,
            6.073489
          ],
          [
            -75.379284,
            6.07377
          ],
          [
            -75.379277,
            6.073796
          ],
          [
            -75.379238,
            6.073813
          ],
          [
            -75.379155,
            6.073821
          ],
          [
            -75.379038,
            6.073745
          ],
          [
            -75.378852,
            6.073453
          ],
          [
            -75.378688,
            6.073272
          ],
          [
            -75.378016,
            6.072824
          ],
          [
            -75.377579,
            6.072644
          ],
          [
            -75.377296,
            6.072472
          ],
          [
            -75.376751,
            6.072083
          ],
          [
            -75.376337,
            6.071693
          ],
          [
            -75.375662,
            6.071219
          ],
          [
            -75.375282,
            6.070902
          ],
          [
            -75.374977,
            6.070626
          ],
          [
            -75.374684,
            6.070494
          ],
          [
            -75.374624,
            6.070482
          ],
          [
            -75.374474,
            6.070465
          ],
          [
            -75.374133,
            6.070418
          ],
          [
            -75.373657,
            6.070415
          ],
          [
            -75.373321,
            6.070464
          ],
          [
            -75.372746,
            6.070713
          ],
          [
            -75.372197,
            6.070954
          ],
          [
            -75.371707,
            6.071158
          ],
          [
            -75.371331,
            6.071292
          ],
          [
            -75.371154,
            6.07134
          ],
          [
            -75.370944,
            6.071375
          ],
          [
            -75.370682,
            6.071415
          ],
          [
            -75.370448,
            6.071451
          ],
          [
            -75.370265,
            6.07148
          ],
          [
            -75.370024,
            6.071476
          ],
          [
            -75.369616,
            6.071342
          ],
          [
            -75.368693,
            6.070876
          ],
          [
            -75.367795,
            6.070599
          ],
          [
            -75.367215,
            6.070598
          ],
          [
            -75.366465,
            6.070534
          ],
          [
            -75.365795,
            6.070574
          ],
          [
            -75.365348,
            6.070577
          ],
          [
            -75.365118,
            6.070599
          ],
          [
            -75.364624,
            6.070744
          ],
          [
            -75.364066,
            6.070796
          ],
          [
            -75.363851,
            6.070858
          ],
          [
            -75.363486,
            6.071101
          ],
          [
            -75.363265,
            6.071165
          ],
          [
            -75.362605,
            6.071309
          ],
          [
            -75.362433,
            6.071383
          ],
          [
            -75.362191,
            6.071646
          ],
          [
            -75.362004,
            6.071757
          ],
          [
            -75.361823,
            6.071744
          ],
          [
            -75.361531,
            6.071557
          ],
          [
            -75.361366,
            6.071511
          ],
          [
            -75.36105,
            6.0715
          ],
          [
            -75.360798,
            6.071522
          ],
          [
            -75.360392,
            6.071584
          ],
          [
            -75.360278,
            6.071564
          ],
          [
            -75.360144,
            6.071484
          ],
          [
            -75.359898,
            6.071297
          ],
          [
            -75.359511,
            6.071032
          ],
          [
            -75.359171,
            6.070812
          ],
          [
            -75.358844,
            6.070567
          ],
          [
            -75.358552,
            6.070254
          ],
          [
            -75.357857,
            6.069572
          ],
          [
            -75.3576,
            6.0694
          ],
          [
            -75.357095,
            6.069118
          ],
          [
            -75.356758,
            6.068996
          ],
          [
            -75.356567,
            6.06897
          ],
          [
            -75.356467,
            6.068951
          ],
          [
            -75.35589,
            6.069
          ],
          [
            -75.355467,
            6.069026
          ],
          [
            -75.354984,
            6.069057
          ],
          [
            -75.354733,
            6.069153
          ],
          [
            -75.354327,
            6.069378
          ],
          [
            -75.354084,
            6.069503
          ],
          [
            -75.35401,
            6.069519
          ],
          [
            -75.353725,
            6.069581
          ],
          [
            -75.353555,
            6.069703
          ],
          [
            -75.353478,
            6.069831
          ],
          [
            -75.353379,
            6.070183
          ],
          [
            -75.353402,
            6.070582
          ],
          [
            -75.353398,
            6.07069
          ],
          [
            -75.35334,
            6.070845
          ],
          [
            -75.353099,
            6.071115
          ],
          [
            -75.352825,
            6.071421
          ],
          [
            -75.352728,
            6.071651
          ],
          [
            -75.352716,
            6.072052
          ],
          [
            -75.352648,
            6.072274
          ],
          [
            -75.352472,
            6.072524
          ],
          [
            -75.352198,
            6.073393
          ],
          [
            -75.352106,
            6.073559
          ],
          [
            -75.351927,
            6.07369
          ],
          [
            -75.351318,
            6.073948
          ],
          [
            -75.350965,
            6.074334
          ],
          [
            -75.350403,
            6.074998
          ],
          [
            -75.350297,
            6.0752
          ],
          [
            -75.350234,
            6.075394
          ],
          [
            -75.350205,
            6.07581
          ],
          [
            -75.350237,
            6.076452
          ],
          [
            -75.350228,
            6.076902
          ],
          [
            -75.3502,
            6.07701
          ],
          [
            -75.350157,
            6.077106
          ],
          [
            -75.349844,
            6.077462
          ],
          [
            -75.349683,
            6.077638
          ],
          [
            -75.349581,
            6.077788
          ],
          [
            -75.349442,
            6.078081
          ],
          [
            -75.3493,
            6.07846
          ],
          [
            -75.349085,
            6.078951
          ],
          [
            -75.348884,
            6.079096
          ],
          [
            -75.348817,
            6.079149
          ],
          [
            -75.348664,
            6.079297
          ],
          [
            -75.34859,
            6.079354
          ],
          [
            -75.348498,
            6.079475
          ],
          [
            -75.348147,
            6.08
          ],
          [
            -75.347865,
            6.080501
          ],
          [
            -75.347743,
            6.080705
          ],
          [
            -75.347649,
            6.080802
          ],
          [
            -75.347535,
            6.080891
          ],
          [
            -75.34738,
            6.080956
          ],
          [
            -75.346776,
            6.081118
          ],
          [
            -75.34669,
            6.081133
          ],
          [
            -75.346532,
            6.081116
          ],
          [
            -75.346459,
            6.081098
          ],
          [
            -75.346322,
            6.081033
          ],
          [
            -75.346077,
            6.080868
          ],
          [
            -75.345776,
            6.080496
          ],
          [
            -75.345697,
            6.080433
          ],
          [
            -75.345572,
            6.080407
          ],
          [
            -75.345364,
            6.080424
          ],
          [
            -75.345302,
            6.080457
          ],
          [
            -75.345169,
            6.080543
          ],
          [
            -75.344903,
            6.080752
          ],
          [
            -75.344773,
            6.080826
          ],
          [
            -75.344683,
            6.080853
          ],
          [
            -75.344239,
            6.080908
          ],
          [
            -75.343972,
            6.080961
          ],
          [
            -75.343578,
            6.0811
          ],
          [
            -75.342741,
            6.081613
          ],
          [
            -75.342571,
            6.08168
          ],
          [
            -75.341721,
            6.081944
          ],
          [
            -75.341525,
            6.082018
          ],
          [
            -75.341363,
            6.08206
          ],
          [
            -75.340903,
            6.082116
          ],
          [
            -75.34059,
            6.082191
          ],
          [
            -75.340172,
            6.082402
          ],
          [
            -75.339738,
            6.082578
          ],
          [
            -75.339653,
            6.082599
          ],
          [
            -75.339461,
            6.082668
          ],
          [
            -75.338765,
            6.082778
          ],
          [
            -75.338666,
            6.082764
          ],
          [
            -75.338455,
            6.082687
          ],
          [
            -75.338353,
            6.082605
          ],
          [
            -75.338192,
            6.08242
          ],
          [
            -75.338011,
            6.08219
          ],
          [
            -75.337753,
            6.081973
          ],
          [
            -75.337663,
            6.08192
          ],
          [
            -75.337513,
            6.081865
          ],
          [
            -75.337263,
            6.081863
          ],
          [
            -75.33655,
            6.082198
          ],
          [
            -75.33626,
            6.082336
          ],
          [
            -75.335478,
            6.082708
          ],
          [
            -75.335405,
            6.082826
          ],
          [
            -75.334896,
            6.083084
          ],
          [
            -75.334743,
            6.083087
          ],
          [
            -75.334089,
            6.083417
          ],
          [
            -75.33369,
            6.083618
          ],
          [
            -75.333642,
            6.083642
          ],
          [
            -75.333157,
            6.083878
          ],
          [
            -75.332972,
            6.083766
          ],
          [
            -75.33277,
            6.083613
          ],
          [
            -75.332589,
            6.083437
          ],
          [
            -75.332433,
            6.083241
          ],
          [
            -75.332349,
            6.083348
          ],
          [
            -75.33223,
            6.083479
          ],
          [
            -75.332189,
            6.083497
          ],
          [
            -75.332089,
            6.083515
          ],
          [
            -75.331994,
            6.083497
          ],
          [
            -75.331589,
            6.083349
          ],
          [
            -75.331401,
            6.08331
          ],
          [
            -75.330886,
            6.083249
          ],
          [
            -75.330228,
            6.08319
          ],
          [
            -75.329897,
            6.08319
          ],
          [
            -75.329647,
            6.083211
          ],
          [
            -75.329354,
            6.083259
          ],
          [
            -75.328663,
            6.083373
          ],
          [
            -75.32843,
            6.083422
          ],
          [
            -75.327502,
            6.083791
          ],
          [
            -75.32724,
            6.083891
          ],
          [
            -75.326848,
            6.084108
          ],
          [
            -75.326497,
            6.084303
          ],
          [
            -75.3264,
            6.084399
          ],
          [
            -75.326223,
            6.084612
          ],
          [
            -75.326192,
            6.084711
          ],
          [
            -75.3262,
            6.084777
          ],
          [
            -75.326267,
            6.084967
          ],
          [
            -75.326355,
            6.085091
          ],
          [
            -75.326605,
            6.085243
          ],
          [
            -75.32663,
            6.085285
          ],
          [
            -75.326639,
            6.085335
          ],
          [
            -75.32663,
            6.085418
          ],
          [
            -75.32658,
            6.08549
          ],
          [
            -75.326512,
            6.085528
          ],
          [
            -75.326379,
            6.085534
          ],
          [
            -75.326073,
            6.085296
          ],
          [
            -75.326011,
            6.085275
          ],
          [
            -75.325889,
            6.085286
          ],
          [
            -75.325772,
            6.085454
          ],
          [
            -75.325688,
            6.085607
          ],
          [
            -75.325571,
            6.085822
          ],
          [
            -75.325515,
            6.085874
          ],
          [
            -75.32473,
            6.085712
          ],
          [
            -75.324598,
            6.08574
          ],
          [
            -75.324461,
            6.085818
          ],
          [
            -75.324202,
            6.086119
          ],
          [
            -75.324082,
            6.086262
          ],
          [
            -75.323944,
            6.086361
          ],
          [
            -75.323814,
            6.086393
          ],
          [
            -75.323715,
            6.086403
          ],
          [
            -75.32361,
            6.086464
          ],
          [
            -75.322966,
            6.08694
          ],
          [
            -75.322962,
            6.087038
          ],
          [
            -75.322979,
            6.087116
          ],
          [
            -75.323101,
            6.087409
          ],
          [
            -75.323169,
            6.087649
          ],
          [
            -75.323186,
            6.087747
          ],
          [
            -75.323178,
            6.087819
          ],
          [
            -75.323152,
            6.087893
          ],
          [
            -75.323091,
            6.087963
          ],
          [
            -75.32297,
            6.088031
          ],
          [
            -75.322904,
            6.088092
          ],
          [
            -75.322853,
            6.088181
          ],
          [
            -75.322797,
            6.08836
          ],
          [
            -75.32273,
            6.08845
          ],
          [
            -75.322383,
            6.088624
          ],
          [
            -75.321595,
            6.089069
          ],
          [
            -75.321529,
            6.089135
          ],
          [
            -75.321285,
            6.089529
          ],
          [
            -75.321195,
            6.089568
          ],
          [
            -75.321086,
            6.089582
          ],
          [
            -75.320953,
            6.089572
          ],
          [
            -75.32049,
            6.089436
          ],
          [
            -75.320375,
            6.089419
          ],
          [
            -75.320278,
            6.089424
          ],
          [
            -75.320153,
            6.089452
          ],
          [
            -75.320026,
            6.08952
          ],
          [
            -75.319715,
            6.089749
          ],
          [
            -75.319554,
            6.089813
          ],
          [
            -75.319485,
            6.089811
          ],
          [
            -75.31941,
            6.089784
          ],
          [
            -75.319205,
            6.089623
          ],
          [
            -75.319148,
            6.089605
          ],
          [
            -75.319091,
            6.089605
          ],
          [
            -75.318745,
            6.089695
          ],
          [
            -75.318569,
            6.089675
          ],
          [
            -75.317581,
            6.089279
          ],
          [
            -75.317454,
            6.089279
          ],
          [
            -75.317385,
            6.089294
          ],
          [
            -75.317335,
            6.089328
          ],
          [
            -75.317298,
            6.089401
          ],
          [
            -75.317307,
            6.089537
          ],
          [
            -75.317442,
            6.089766
          ],
          [
            -75.317449,
            6.089891
          ],
          [
            -75.317428,
            6.089956
          ],
          [
            -75.317389,
            6.090001
          ],
          [
            -75.317163,
            6.090194
          ],
          [
            -75.317067,
            6.090226
          ],
          [
            -75.316985,
            6.09023
          ],
          [
            -75.316885,
            6.090213
          ],
          [
            -75.316701,
            6.090119
          ],
          [
            -75.316631,
            6.090104
          ],
          [
            -75.316573,
            6.090109
          ],
          [
            -75.316469,
            6.090148
          ],
          [
            -75.31629,
            6.090237
          ],
          [
            -75.316217,
            6.090257
          ],
          [
            -75.316158,
            6.090251
          ],
          [
            -75.315248,
            6.089944
          ],
          [
            -75.31518,
            6.089937
          ],
          [
            -75.315107,
            6.089952
          ],
          [
            -75.315048,
            6.089984
          ],
          [
            -75.314939,
            6.090133
          ],
          [
            -75.314783,
            6.090546
          ],
          [
            -75.314713,
            6.090639
          ],
          [
            -75.314635,
            6.090692
          ],
          [
            -75.314409,
            6.090799
          ],
          [
            -75.314366,
            6.090839
          ],
          [
            -75.314331,
            6.090916
          ],
          [
            -75.314339,
            6.091156
          ],
          [
            -75.314327,
            6.091236
          ],
          [
            -75.314161,
            6.091452
          ],
          [
            -75.314114,
            6.091568
          ],
          [
            -75.314096,
            6.091817
          ],
          [
            -75.314113,
            6.092015
          ],
          [
            -75.314165,
            6.092171
          ],
          [
            -75.314206,
            6.092223
          ],
          [
            -75.314496,
            6.092379
          ],
          [
            -75.314554,
            6.09245
          ],
          [
            -75.314568,
            6.092517
          ],
          [
            -75.314556,
            6.092679
          ],
          [
            -75.314431,
            6.093051
          ],
          [
            -75.314212,
            6.093455
          ],
          [
            -75.314008,
            6.093979
          ],
          [
            -75.313602,
            6.094483
          ],
          [
            -75.313493,
            6.094552
          ],
          [
            -75.313204,
            6.094644
          ],
          [
            -75.312682,
            6.094993
          ],
          [
            -75.312523,
            6.095072
          ],
          [
            -75.312439,
            6.095098
          ],
          [
            -75.311503,
            6.095192
          ],
          [
            -75.311256,
            6.09526
          ],
          [
            -75.311134,
            6.095341
          ],
          [
            -75.31105,
            6.095421
          ],
          [
            -75.310956,
            6.095597
          ],
          [
            -75.310903,
            6.095739
          ],
          [
            -75.310804,
            6.096035
          ],
          [
            -75.310724,
            6.096199
          ],
          [
            -75.310457,
            6.096637
          ],
          [
            -75.310335,
            6.096774
          ],
          [
            -75.310228,
            6.096845
          ],
          [
            -75.310111,
            6.096865
          ],
          [
            -75.310041,
            6.096856
          ],
          [
            -75.309972,
            6.096814
          ],
          [
            -75.309889,
            6.096695
          ],
          [
            -75.309791,
            6.096643
          ],
          [
            -75.3094,
            6.096615
          ],
          [
            -75.309299,
            6.096622
          ],
          [
            -75.309234,
            6.096645
          ],
          [
            -75.309184,
            6.096691
          ],
          [
            -75.309138,
            6.096783
          ],
          [
            -75.309133,
            6.096849
          ],
          [
            -75.309154,
            6.09689
          ],
          [
            -75.3094,
            6.097057
          ],
          [
            -75.309454,
            6.097112
          ],
          [
            -75.309483,
            6.097171
          ],
          [
            -75.30952,
            6.097536
          ],
          [
            -75.309545,
            6.097613
          ],
          [
            -75.309735,
            6.097858
          ],
          [
            -75.309838,
            6.097943
          ],
          [
            -75.310146,
            6.098084
          ],
          [
            -75.310415,
            6.098238
          ],
          [
            -75.310463,
            6.098287
          ],
          [
            -75.310486,
            6.09838
          ],
          [
            -75.310452,
            6.098455
          ],
          [
            -75.310213,
            6.098618
          ],
          [
            -75.310057,
            6.098648
          ],
          [
            -75.309905,
            6.098584
          ],
          [
            -75.309601,
            6.09835
          ],
          [
            -75.309478,
            6.098278
          ],
          [
            -75.309228,
            6.098141
          ],
          [
            -75.308935,
            6.098023
          ],
          [
            -75.308866,
            6.097969
          ],
          [
            -75.308825,
            6.097887
          ],
          [
            -75.30881,
            6.097811
          ],
          [
            -75.308798,
            6.09746
          ],
          [
            -75.308777,
            6.097364
          ],
          [
            -75.308728,
            6.097293
          ],
          [
            -75.308652,
            6.097261
          ],
          [
            -75.308576,
            6.097249
          ],
          [
            -75.30847,
            6.097257
          ],
          [
            -75.308083,
            6.097333
          ],
          [
            -75.307904,
            6.097347
          ],
          [
            -75.307485,
            6.097315
          ],
          [
            -75.307371,
            6.097343
          ],
          [
            -75.306982,
            6.097579
          ],
          [
            -75.305905,
            6.098209
          ],
          [
            -75.305785,
            6.098264
          ],
          [
            -75.304875,
            6.098793
          ],
          [
            -75.304752,
            6.098878
          ],
          [
            -75.304633,
            6.09901
          ],
          [
            -75.30447,
            6.099155
          ],
          [
            -75.304372,
            6.099204
          ],
          [
            -75.304272,
            6.099238
          ],
          [
            -75.303702,
            6.099303
          ],
          [
            -75.30361,
            6.099339
          ],
          [
            -75.303335,
            6.099527
          ],
          [
            -75.30312,
            6.099666
          ],
          [
            -75.302772,
            6.099861
          ],
          [
            -75.30247,
            6.100086
          ],
          [
            -75.30234,
            6.10014
          ],
          [
            -75.302103,
            6.100186
          ],
          [
            -75.301835,
            6.100439
          ],
          [
            -75.30135,
            6.10072
          ],
          [
            -75.301203,
            6.100871
          ],
          [
            -75.301014,
            6.101214
          ],
          [
            -75.300935,
            6.10133
          ],
          [
            -75.300837,
            6.101419
          ],
          [
            -75.300714,
            6.101479
          ],
          [
            -75.300488,
            6.101654
          ],
          [
            -75.300417,
            6.101741
          ],
          [
            -75.300368,
            6.101833
          ],
          [
            -75.300112,
            6.102801
          ],
          [
            -75.300074,
            6.10315
          ],
          [
            -75.300091,
            6.103435
          ],
          [
            -75.300138,
            6.103657
          ],
          [
            -75.300703,
            6.105058
          ],
          [
            -75.300734,
            6.105234
          ],
          [
            -75.300734,
            6.105383
          ],
          [
            -75.300676,
            6.105537
          ],
          [
            -75.300072,
            6.10655
          ],
          [
            -75.30005,
            6.106668
          ],
          [
            -75.300078,
            6.106826
          ],
          [
            -75.3002,
            6.107037
          ],
          [
            -75.30024,
            6.107146
          ],
          [
            -75.300341,
            6.107645
          ],
          [
            -75.300353,
            6.108092
          ],
          [
            -75.300309,
            6.108176
          ],
          [
            -75.300216,
            6.108251
          ],
          [
            -75.299807,
            6.108493
          ],
          [
            -75.29968,
            6.108545
          ],
          [
            -75.299546,
            6.108574
          ],
          [
            -75.297053,
            6.108729
          ],
          [
            -75.296046,
            6.108817
          ],
          [
            -75.295785,
            6.108883
          ],
          [
            -75.294906,
            6.109183
          ],
          [
            -75.294713,
            6.10924
          ],
          [
            -75.294349,
            6.109367
          ],
          [
            -75.294212,
            6.109429
          ],
          [
            -75.294098,
            6.109449
          ],
          [
            -75.29396,
            6.109463
          ],
          [
            -75.293801,
            6.109447
          ],
          [
            -75.293672,
            6.109407
          ],
          [
            -75.293168,
            6.10918
          ],
          [
            -75.292871,
            6.109108
          ],
          [
            -75.292657,
            6.109127
          ],
          [
            -75.29247,
            6.109177
          ],
          [
            -75.292358,
            6.109249
          ],
          [
            -75.292281,
            6.109347
          ],
          [
            -75.292194,
            6.109583
          ],
          [
            -75.291877,
            6.110692
          ],
          [
            -75.29178,
            6.110982
          ],
          [
            -75.291658,
            6.111286
          ],
          [
            -75.29157,
            6.111531
          ],
          [
            -75.291208,
            6.112738
          ],
          [
            -75.291148,
            6.11289
          ],
          [
            -75.291077,
            6.113007
          ],
          [
            -75.290954,
            6.113147
          ],
          [
            -75.29065,
            6.113451
          ],
          [
            -75.289446,
            6.114287
          ],
          [
            -75.288902,
            6.11477
          ],
          [
            -75.288718,
            6.114978
          ],
          [
            -75.288655,
            6.115079
          ],
          [
            -75.288625,
            6.115198
          ],
          [
            -75.288643,
            6.115298
          ],
          [
            -75.288683,
            6.115443
          ],
          [
            -75.288773,
            6.11561
          ],
          [
            -75.288877,
            6.115729
          ],
          [
            -75.289189,
            6.115922
          ],
          [
            -75.289287,
            6.116034
          ],
          [
            -75.289306,
            6.11612
          ],
          [
            -75.289272,
            6.116572
          ],
          [
            -75.289343,
            6.117001
          ],
          [
            -75.289331,
            6.117093
          ],
          [
            -75.289282,
            6.117178
          ],
          [
            -75.289155,
            6.117261
          ],
          [
            -75.28901,
            6.117296
          ],
          [
            -75.288901,
            6.1173
          ],
          [
            -75.288792,
            6.117278
          ],
          [
            -75.288718,
            6.117224
          ],
          [
            -75.288361,
            6.116839
          ],
          [
            -75.287657,
            6.116285
          ],
          [
            -75.287554,
            6.11623
          ],
          [
            -75.287417,
            6.116196
          ],
          [
            -75.287035,
            6.116204
          ],
          [
            -75.286884,
            6.116243
          ],
          [
            -75.286842,
            6.116278
          ],
          [
            -75.286781,
            6.116369
          ],
          [
            -75.286595,
            6.116782
          ],
          [
            -75.286525,
            6.116914
          ],
          [
            -75.286481,
            6.116956
          ],
          [
            -75.286406,
            6.11698
          ],
          [
            -75.286339,
            6.116977
          ],
          [
            -75.286062,
            6.116898
          ],
          [
            -75.285372,
            6.116572
          ],
          [
            -75.285122,
            6.116529
          ],
          [
            -75.284965,
            6.116532
          ],
          [
            -75.284846,
            6.116558
          ],
          [
            -75.284747,
            6.116609
          ],
          [
            -75.284677,
            6.11667
          ],
          [
            -75.284276,
            6.117113
          ],
          [
            -75.284245,
            6.117151
          ],
          [
            -75.283934,
            6.11748
          ],
          [
            -75.283788,
            6.117589
          ],
          [
            -75.283643,
            6.117673
          ],
          [
            -75.283195,
            6.117901
          ],
          [
            -75.282361,
            6.11823
          ],
          [
            -75.281687,
            6.118454
          ],
          [
            -75.281581,
            6.118497
          ],
          [
            -75.281446,
            6.11858
          ],
          [
            -75.28133,
            6.118684
          ],
          [
            -75.280937,
            6.119221
          ],
          [
            -75.28075,
            6.119567
          ],
          [
            -75.280672,
            6.119918
          ],
          [
            -75.280584,
            6.120087
          ],
          [
            -75.280331,
            6.120539
          ],
          [
            -75.280204,
            6.120686
          ],
          [
            -75.279546,
            6.121075
          ],
          [
            -75.279441,
            6.121116
          ],
          [
            -75.279247,
            6.121147
          ],
          [
            -75.277614,
            6.121176
          ],
          [
            -75.277064,
            6.121113
          ],
          [
            -75.276883,
            6.121116
          ],
          [
            -75.276384,
            6.121199
          ],
          [
            -75.275099,
            6.121171
          ],
          [
            -75.275035,
            6.121189
          ],
          [
            -75.27487,
            6.121336
          ],
          [
            -75.274722,
            6.121587
          ],
          [
            -75.274678,
            6.121685
          ],
          [
            -75.274009,
            6.122982
          ],
          [
            -75.273994,
            6.123068
          ],
          [
            -75.274007,
            6.123162
          ],
          [
            -75.274196,
            6.123547
          ],
          [
            -75.274391,
            6.123982
          ],
          [
            -75.27447,
            6.124234
          ],
          [
            -75.274523,
            6.124471
          ],
          [
            -75.27456,
            6.124904
          ],
          [
            -75.274537,
            6.125037
          ],
          [
            -75.274506,
            6.125085
          ],
          [
            -75.274064,
            6.125392
          ],
          [
            -75.273954,
            6.1255
          ],
          [
            -75.273601,
            6.126063
          ],
          [
            -75.273198,
            6.126565
          ],
          [
            -75.273072,
            6.126637
          ],
          [
            -75.272782,
            6.126684
          ],
          [
            -75.272462,
            6.126905
          ],
          [
            -75.272198,
            6.126982
          ],
          [
            -75.272151,
            6.127082
          ],
          [
            -75.2721,
            6.127285
          ],
          [
            -75.271975,
            6.127964
          ],
          [
            -75.271863,
            6.128323
          ],
          [
            -75.271726,
            6.129001
          ],
          [
            -75.271491,
            6.129994
          ],
          [
            -75.271349,
            6.130394
          ],
          [
            -75.271154,
            6.13085
          ],
          [
            -75.271069,
            6.131404
          ],
          [
            -75.270844,
            6.132074
          ],
          [
            -75.270748,
            6.132252
          ],
          [
            -75.270708,
            6.132377
          ],
          [
            -75.270711,
            6.132521
          ],
          [
            -75.270801,
            6.133244
          ],
          [
            -75.270822,
            6.133332
          ],
          [
            -75.271051,
            6.13361
          ],
          [
            -75.271106,
            6.133696
          ],
          [
            -75.271191,
            6.133949
          ],
          [
            -75.271194,
            6.134137
          ],
          [
            -75.271168,
            6.13437
          ],
          [
            -75.27114,
            6.134426
          ],
          [
            -75.271089,
            6.134473
          ],
          [
            -75.271033,
            6.134501
          ],
          [
            -75.270541,
            6.134654
          ],
          [
            -75.270438,
            6.134739
          ],
          [
            -75.270347,
            6.134852
          ],
          [
            -75.269396,
            6.135123
          ],
          [
            -75.269295,
            6.13515
          ],
          [
            -75.269008,
            6.135198
          ],
          [
            -75.26877,
            6.13521
          ],
          [
            -75.268412,
            6.135201
          ],
          [
            -75.268218,
            6.135188
          ],
          [
            -75.267847,
            6.135567
          ],
          [
            -75.267735,
            6.135807
          ],
          [
            -75.26766,
            6.136055
          ],
          [
            -75.267625,
            6.136141
          ],
          [
            -75.267579,
            6.136223
          ],
          [
            -75.267371,
            6.136386
          ],
          [
            -75.267287,
            6.136517
          ],
          [
            -75.267001,
            6.136964
          ],
          [
            -75.266918,
            6.137048
          ],
          [
            -75.266872,
            6.137035
          ],
          [
            -75.266825,
            6.137045
          ],
          [
            -75.266789,
            6.137078
          ],
          [
            -75.266729,
            6.137037
          ],
          [
            -75.266622,
            6.137033
          ],
          [
            -75.266291,
            6.137076
          ],
          [
            -75.265976,
            6.137141
          ],
          [
            -75.265863,
            6.137223
          ],
          [
            -75.26564,
            6.137381
          ],
          [
            -75.265479,
            6.137464
          ],
          [
            -75.265286,
            6.137475
          ],
          [
            -75.264145,
            6.137163
          ],
          [
            -75.263945,
            6.13796
          ],
          [
            -75.263901,
            6.138136
          ],
          [
            -75.263876,
            6.138535
          ],
          [
            -75.263806,
            6.13852
          ],
          [
            -75.263745,
            6.138502
          ],
          [
            -75.263743,
            6.139083
          ],
          [
            -75.263697,
            6.139151
          ],
          [
            -75.263603,
            6.139189
          ],
          [
            -75.263236,
            6.138969
          ],
          [
            -75.262888,
            6.138756
          ],
          [
            -75.262785,
            6.138703
          ],
          [
            -75.262573,
            6.138627
          ],
          [
            -75.262419,
            6.138611
          ],
          [
            -75.262263,
            6.138617
          ],
          [
            -75.262118,
            6.13866
          ],
          [
            -75.262007,
            6.139063
          ],
          [
            -75.262344,
            6.139144
          ],
          [
            -75.262275,
            6.13947
          ]
        ],
        "type": "LineString"
      }
    }
  ],
  "metadata": {
    "attribution": "openrouteservice.org | OpenStreetMap contributors",
    "service": "routing",
    "timestamp": 1764859370143,
    "query": {
      "coordinates": [
        [
          -75.428738,
          6.037051
        ],
        [
          -75.2622457,
          6.139464
        ]
      ],
      "profile": "driving-hgv",
      "profileName": "driving-hgv",
      "preference": "recommended",
      "format": "geojson",
      "language": "es",
      "options": {
        "profile_params": {
          "restrictions": {
            "length": 8.0,
            "width": 2.5,
            "height": 3.5
          },
          "surface_quality_known": false,
          "allow_unsuitable": false
        },
        "avoid_polygons": {
          "coordinates": [
            [
              [
                [
                  -75.53398800000001,
                  6.1525436
                ],
                [
                  -75.531988,
                  6.1525436
                ],
                [
                  -75.531988,
                  6.1545436
                ],
                [
                  -75.53398800000001,
                  6.1545436
                ],
                [
                  -75.53398800000001,
                  6.1525436
                ]
              ]
            ],
            [
              [
                [
                  -75.49099790000001,
                  6.0932509999999995
                ],
                [
                  -75.4889979,
                  6.0932509999999995
                ],
                [
                  -75.4889979,
                  6.095251
                ],
                [
                  -75.49099790000001,
                  6.095251
                ],
                [
                  -75.49099790000001,
                  6.0932509999999995
                ]
              ]
            ],
            [
              [
                [
                  -75.44939930000001,
                  6.1764060999999995
                ],
                [
                  -75.4473993,
                  6.1764060999999995
                ],
                [
                  -75.4473993,
                  6.1784061
                ],
                [
                  -75.44939930000001,
                  6.1784061
                ],
                [
                  -75.44939930000001,
                  6.1764060999999995
                ]
              ]
            ],
            [
              [
                [
                  -75.4890572,
                  6.2037862
                ],
                [
                  -75.4870572,
                  6.2037862
                ],
                [
                  -75.4870572,
                  6.2057862
                ],
                [
                  -75.4890572,
                  6.2057862
                ],
                [
                  -75.4890572,
                  6.2037862
                ]
              ]
            ],
            [
              [
                [
                  -75.46672650000001,
                  6.1850524
                ],
                [
                  -75.4647265,
                  6.1850524
                ],
                [
                  -75.4647265,
                  6.187052400000001
                ],
                [
                  -75.46672650000001,
                  6.187052400000001
                ],
                [
                  -75.46672650000001,
                  6.1850524
                ]
              ]
            ],
            [
              [
                [
                  -75.5035304,
                  6.2159613
                ],
                [
                  -75.5015304,
                  6.2159613
                ],
                [
                  -75.5015304,
                  6.217961300000001
                ],
                [
                  -75.5035304,
                  6.217961300000001
                ],
                [
                  -75.5035304,
                  6.2159613
                ]
              ]
            ],
            [
              [
                [
                  -75.4913478,
                  6.170510299999999
                ],
                [
                  -75.48934779999999,
                  6.170510299999999
                ],
                [
                  -75.48934779999999,
                  6.1725103
                ],
                [
                  -75.4913478,
                  6.1725103
                ],
                [
                  -75.4913478,
                  6.170510299999999
                ]
              ]
            ],
            [
              [
                [
                  -75.5250472,
                  6.1422792
                ],
                [
                  -75.5230472,
                  6.1422792
                ],
                [
                  -75.5230472,
                  6.144279200000001
                ],
                [
                  -75.5250472,
                  6.144279200000001
                ],
                [
                  -75.5250472,
                  6.1422792
                ]
              ]
            ],
            [
              [
                [
                  -75.42459550000001,
                  6.123615999999999
                ],
                [
                  -75.4225955,
                  6.123615999999999
                ],
                [
                  -75.4225955,
                  6.125616
                ],
                [
                  -75.42459550000001,
                  6.125616
                ],
                [
                  -75.42459550000001,
                  6.123615999999999
                ]
              ]
            ],
            [
              [
                [
                  -75.5600752,
                  6.2197343
                ],
                [
                  -75.55807519999999,
                  6.2197343
                ],
                [
                  -75.55807519999999,
                  6.2217343000000005
                ],
                [
                  -75.5600752,
                  6.2217343000000005
                ],
                [
                  -75.5600752,
                  6.2197343
                ]
              ]
            ],
            [
              [
                [
                  -75.4291982,
                  6.0892721
                ],
                [
                  -75.42719819999999,
                  6.0892721
                ],
                [
                  -75.42719819999999,
                  6.0912721
                ],
                [
                  -75.4291982,
                  6.0912721
                ],
                [
                  -75.4291982,
                  6.0892721
                ]
              ]
            ],
            [
              [
                [
                  -75.50124240000001,
                  6.1697112
                ],
                [
                  -75.4992424,
                  6.1697112
                ],
                [
                  -75.4992424,
                  6.171711200000001
                ],
                [
                  -75.50124240000001,
                  6.171711200000001
                ],
                [
                  -75.50124240000001,
                  6.1697112
                ]
              ]
            ],
            [
              [
                [
                  -75.4364807,
                  6.1772187
                ],
                [
                  -75.4344807,
                  6.1772187
                ],
                [
                  -75.4344807,
                  6.179218700000001
                ],
                [
                  -75.4364807,
                  6.179218700000001
                ],
                [
                  -75.4364807,
                  6.1772187
                ]
              ]
            ],
            [
              [
                [
                  -75.4336162,
                  6.2493549999999995
                ],
                [
                  -75.4316162,
                  6.2493549999999995
                ],
                [
                  -75.4316162,
                  6.251355
                ],
                [
                  -75.4336162,
                  6.251355
                ],
                [
                  -75.4336162,
                  6.2493549999999995
                ]
              ]
            ],
            [
              [
                [
                  -75.555226,
                  6.133627199999999
                ],
                [
                  -75.553226,
                  6.133627199999999
                ],
                [
                  -75.553226,
                  6.1356272
                ],
                [
                  -75.555226,
                  6.1356272
                ],
                [
                  -75.555226,
                  6.133627199999999
                ]
              ]
            ],
            [
              [
                [
                  -75.481297,
                  6.089910199999999
                ],
                [
                  -75.47929699999999,
                  6.089910199999999
                ],
                [
                  -75.47929699999999,
                  6.0919102
                ],
                [
                  -75.481297,
                  6.0919102
                ],
                [
                  -75.481297,
                  6.089910199999999
                ]
              ]
            ],
            [
              [
                [
                  -75.4232837,
                  6.059844
                ],
                [
                  -75.42128369999999,
                  6.059844
                ],
                [
                  -75.42128369999999,
                  6.061844000000001
                ],
                [
                  -75.4232837,
                  6.061844000000001
                ],
                [
                  -75.4232837,
                  6.059844
                ]
              ]
            ],
            [
              [
                [
                  -75.4577368,
                  6.0576535
                ],
                [
                  -75.4557368,
                  6.0576535
                ],
                [
                  -75.4557368,
                  6.0596535000000005
                ],
                [
                  -75.4577368,
                  6.0596535000000005
                ],
                [
                  -75.4577368,
                  6.0576535
                ]
              ]
            ],
            [
              [
                [
                  -75.43430260000001,
                  6.1414703
                ],
                [
                  -75.4323026,
                  6.1414703
                ],
                [
                  -75.4323026,
                  6.143470300000001
                ],
                [
                  -75.43430260000001,
                  6.143470300000001
                ],
                [
                  -75.43430260000001,
                  6.1414703
                ]
              ]
            ],
            [
              [
                [
                  -75.452403,
                  6.112123599999999
                ],
                [
                  -75.450403,
                  6.112123599999999
                ],
                [
                  -75.450403,
                  6.1141236
                ],
                [
                  -75.452403,
                  6.1141236
                ],
                [
                  -75.452403,
                  6.112123599999999
                ]
              ]
            ],
            [
              [
                [
                  -75.6342218,
                  6.0668213
                ],
                [
                  -75.6322218,
                  6.0668213
                ],
                [
                  -75.6322218,
                  6.068821300000001
                ],
                [
                  -75.6342218,
                  6.068821300000001
                ],
                [
                  -75.6342218,
                  6.0668213
                ]
              ]
            ],
            [
              [
                [
                  -75.4502234,
                  6.0178674
                ],
                [
                  -75.44822339999999,
                  6.0178674
                ],
                [
                  -75.44822339999999,
                  6.019867400000001
                ],
                [
                  -75.4502234,
                  6.019867400000001
                ],
                [
                  -75.4502234,
                  6.0178674
                ]
              ]
            ],
            [
              [
                [
                  -75.4329548,
                  6.008317399999999
                ],
                [
                  -75.4309548,
                  6.008317399999999
                ],
                [
                  -75.4309548,
                  6.0103174
                ],
                [
                  -75.4329548,
                  6.0103174
                ],
                [
                  -75.4329548,
                  6.008317399999999
                ]
              ]
            ],
            [
              [
                [
                  -75.4134652,
                  6.022465599999999
                ],
                [
                  -75.4114652,
                  6.022465599999999
                ],
                [
                  -75.4114652,
                  6.0244656
                ],
                [
                  -75.4134652,
                  6.0244656
                ],
                [
                  -75.4134652,
                  6.022465599999999
                ]
              ]
            ],
            [
              [
                [
                  -75.3412419,
                  6.138306399999999
                ],
                [
                  -75.33924189999999,
                  6.138306399999999
                ],
                [
                  -75.33924189999999,
                  6.1403064
                ],
                [
                  -75.3412419,
                  6.1403064
                ],
                [
                  -75.3412419,
                  6.138306399999999
                ]
              ]
            ]
          ],
          "type": "MultiPolygon"
        }
      }
    },
    "engine": {
      "version": "9.5.0",
      "build_date": "2025-10-31T12:33:09Z",
      "graph_date": "2025-12-01T03:52:42Z",
      "osm_date": "2025-11-24T00:59:59Z"
    }
  }
}