{
  "type": "FeatureCollection",
  "bbox": [
    -75.376249,
    6.148486,
    -75.366837,
    6.169305
  ],
  "features": [
    {
      "bbox": [
        -75.376249,
        6.148486,
        -75.366837,
        6.169305
      ],
      "type": "Feature",
      "properties": {
        "way_points": [
          0,
          124
        ],
        "summary": {
          "distance": 4148.2,
          "duration": 465.7
        }
      },
      "geometry": {
        "coordinates": [
          [
            -75.375771,
            6.151662
          ],
          [
            -75.375917,
            6.151655
          ],
          [
            -75.376151,
            6.151675
          ],
          [
            -75.376249,
            6.150833
          ],
          [
            -75.375366,
            6.150745
          ],
          [
            -75.3753,
            6.150166
          ],
          [
            -75.375338,
            6.149603
          ],
          [
            -75.375427,
            6.149179
          ],
          [
            -75.375543,
            6.14888
          ],
          [
            -75.37565,
            6.148891
          ],
          [
            -75.375698,
            6.148869
          ],
          [
            -75.375926,
            6.14888
          ],
          [
            -75.375941,
            6.148846
          ],
          [
            -75.375901,
            6.148767
          ],
          [
            -75.375649,
            6.1487
          ],
          [
            -75.375382,
            6.148624
          ],
          [
            -75.375075,
            6.148549
          ],
          [
            -75.374728,
            6.148486
          ],
          [
            -75.374466,
            6.148529
          ],
          [
            -75.374297,
            6.148599
          ],
          [
            -75.372932,
            6.149372
          ],
          [
            -75.372571,
            6.149577
          ],
          [
            -75.372502,
            6.149616
          ],
          [
            -75.372424,
            6.149659
          ],
          [
            -75.372122,
            6.149838
          ],
          [
            -75.371923,
            6.149997
          ],
          [
            -75.371565,
            6.150318
          ],
          [
            -75.370981,
            6.150881
          ],
          [
            -75.370856,
            6.15103
          ],
          [
            -75.37076,
            6.151183
          ],
          [
            -75.3707,
            6.151315
          ],
          [
            -75.37061,
            6.151642
          ],
          [
            -75.370544,
            6.151802
          ],
          [
            -75.370424,
            6.152011
          ],
          [
            -75.370344,
            6.152087
          ],
          [
            -75.370287,
            6.152184
          ],
          [
            -75.370261,
            6.152293
          ],
          [
            -75.370267,
            6.152405
          ],
          [
            -75.370305,
            6.152511
          ],
          [
            -75.370371,
            6.152602
          ],
          [
            -75.37045,
            6.152664
          ],
          [
            -75.370542,
            6.152705
          ],
          [
            -75.370642,
            6.15272
          ],
          [
            -75.370742,
            6.152711
          ],
          [
            -75.37072,
            6.152791
          ],
          [
            -75.370781,
            6.153344
          ],
          [
            -75.370729,
            6.154303
          ],
          [
            -75.370677,
            6.154849
          ],
          [
            -75.370644,
            6.15523
          ],
          [
            -75.370636,
            6.155297
          ],
          [
            -75.370587,
            6.15576
          ],
          [
            -75.370518,
            6.156176
          ],
          [
            -75.37046,
            6.15636
          ],
          [
            -75.370365,
            6.156588
          ],
          [
            -75.370244,
            6.156756
          ],
          [
            -75.369891,
            6.157264
          ],
          [
            -75.369606,
            6.157737
          ],
          [
            -75.369439,
            6.158105
          ],
          [
            -75.369438,
            6.15826
          ],
          [
            -75.369355,
            6.158457
          ],
          [
            -75.369294,
            6.158566
          ],
          [
            -75.369315,
            6.158656
          ],
          [
            -75.369659,
            6.15883
          ],
          [
            -75.369574,
            6.159168
          ],
          [
            -75.369562,
            6.159211
          ],
          [
            -75.369501,
            6.159428
          ],
          [
            -75.369415,
            6.15975
          ],
          [
            -75.36932,
            6.159997
          ],
          [
            -75.369277,
            6.160071
          ],
          [
            -75.369091,
            6.160177
          ],
          [
            -75.368931,
            6.160204
          ],
          [
            -75.368854,
            6.16018
          ],
          [
            -75.368774,
            6.160193
          ],
          [
            -75.368739,
            6.160213
          ],
          [
            -75.368685,
            6.160277
          ],
          [
            -75.368669,
            6.160359
          ],
          [
            -75.368676,
            6.1604
          ],
          [
            -75.368629,
            6.16067
          ],
          [
            -75.36859,
            6.160786
          ],
          [
            -75.368263,
            6.161185
          ],
          [
            -75.367849,
            6.161681
          ],
          [
            -75.367649,
            6.162101
          ],
          [
            -75.367374,
            6.162353
          ],
          [
            -75.367315,
            6.162439
          ],
          [
            -75.367303,
            6.162541
          ],
          [
            -75.367316,
            6.162592
          ],
          [
            -75.36735,
            6.162862
          ],
          [
            -75.367339,
            6.162994
          ],
          [
            -75.36694,
            6.164064
          ],
          [
            -75.366857,
            6.164363
          ],
          [
            -75.366837,
            6.164549
          ],
          [
            -75.366847,
            6.164744
          ],
          [
            -75.367055,
            6.166087
          ],
          [
            -75.36711,
            6.166244
          ],
          [
            -75.367236,
            6.166478
          ],
          [
            -75.36761,
            6.166841
          ],
          [
            -75.367825,
            6.167096
          ],
          [
            -75.367948,
            6.167349
          ],
          [
            -75.368094,
            6.168036
          ],
          [
            -75.368154,
            6.168362
          ],
          [
            -75.368241,
            6.16875
          ],
          [
            -75.368319,
            6.168916
          ],
          [
            -75.368567,
            6.169243
          ],
          [
            -75.368672,
            6.169305
          ],
          [
            -75.368736,
            6.169287
          ],
          [
            -75.368759,
            6.16925
          ],
          [
            -75.368748,
            6.16914
          ],
          [
            -75.368485,
            6.16885
          ],
          [
            -75.368392,
            6.16871
          ],
          [
            -75.368301,
            6.168524
          ],
          [
            -75.368245,
            6.168309
          ],
          [
            -75.368184,
            6.167914
          ],
          [
            -75.368049,
            6.167304
          ],
          [
            -75.367927,
            6.167025
          ],
          [
            -75.367759,
            6.166821
          ],
          [
            -75.367312,
            6.1664
          ],
          [
            -75.36721,
            6.166224
          ],
          [
            -75.36711,
            6.165867
          ],
          [
            -75.367009,
            6.165033
          ],
          [
            -75.36696,
            6.164754
          ],
          [
            -75.366947,
            6.164553
          ],
          [
            -75.366962,
            6.164397
          ],
          [
            -75.367034,
            6.16416
          ],
          [
            -75.367119,
            6.164203
          ],
          [
            -75.367068,
            6.164426
          ]
        ],
        "type": "LineString"
      }
    }
  ],
  "metadata": {
    "attribution": "openrouteservice.org | OpenStreetMap contributors",
    "service": "routing",
    "timestamp": 1764859514273,
    "query": {
      "coordinates": [
        [
          -75.37576399999999,
          6.1515135
        ],
        [
          -75.3671169,
          6.1644366
        ]
      ],
      "profile": "driving-hgv",
      "profileName": "driving-hgv",
      "preference": "recommended",
      "format": "geojson",
      "language": "es",
      "options": {
        "profile_params": {
          "restrictions": {
            "length": 8.0,
            "width": 2.5,
            "height": 3.5
          },
          "surface_quality_known": false,
          "allow_unsuitable": false
        },
        "avoid_polygons": {
          "coordinates": [
            [
              [
                [
                  -75.53398800000001,
                  6.1525436
                ],
                [
                  -75.531988,
                  6.1525436
                ],
                [
                  -75.531988,
                  6.1545436
                ],
                [
                  -75.53398800000001,
                  6.1545436
                ],
                [
                  -75.53398800000001,
                  6.1525436
                ]
              ]
            ],
            [
              [
                [
                  -75.49099790000001,
                  6.0932509999999995
                ],
                [
                  -75.4889979,
                  6.0932509999999995
                ],
                [
                  -75.4889979,
                  6.095251
                ],
                [
                  -75.49099790000001,
                  6.095251
                ],
                [
                  -75.49099790000001,
                  6.0932509999999995
                ]
              ]
            ],
            [
              [
                [
                  -75.44939930000001,
                  6.1764060999999995
                ],
                [
                  -75.4473993,
                  6.1764060999999995
                ],
                [
                  -75.4473993,
                  6.1784061
                ],
                [
                  -75.44939930000001,
                  6.1784061
                ],
                [
                  -75.44939930000001,
                  6.1764060999999995
                ]
              ]
            ],
            [
              [
                [
                  -75.4890572,
                  6.2037862
                ],
                [
                  -75.4870572,
                  6.2037862
                ],
                [
                  -75.4870572,
                  6.2057862
                ],
                [
                  -75.4890572,
                  6.2057862
                ],
                [
                  -75.4890572,
                  6.2037862
                ]
              ]
            ],
            [
              [
                [
                  -75.46672650000001,
                  6.1850524
                ],
                [
                  -75.4647265,
                  6.1850524
                ],
                [
                  -75.4647265,
                  6.187052400000001
                ],
                [
                  -75.46672650000001,
                  6.187052400000001
                ],
                [
                  -75.46672650000001,
                  6.1850524
                ]
              ]
            ],
            [
              [
                [
                  -75.5035304,
                  6.2159613
                ],
                [
                  -75.5015304,
                  6.2159613
                ],
                [
                  -75.5015304,
                  6.217961300000001
                ],
                [
                  -75.5035304,
                  6.217961300000001
                ],
                [
                  -75.5035304,
                  6.2159613
                ]
              ]
            ],
            [
              [
                [
                  -75.4913478,
                  6.170510299999999
                ],
                [
                  -75.48934779999999,
                  6.170510299999999
                ],
                [
                  -75.48934779999999,
                  6.1725103
                ],
                [
                  -75.4913478,
                  6.1725103
                ],
                [
                  -75.4913478,
                  6.170510299999999
                ]
              ]
            ],
            [
              [
                [
                  -75.5250472,
                  6.1422792
                ],
                [
                  -75.5230472,
                  6.1422792
                ],
                [
                  -75.5230472,
                  6.144279200000001
                ],
                [
                  -75.5250472,
                  6.144279200000001
                ],
                [
                  -75.5250472,
                  6.1422792
                ]
              ]
            ],
            [
              [
                [
                  -75.42459550000001,
                  6.123615999999999
                ],
                [
                  -75.4225955,
                  6.123615999999999
                ],
                [
                  -75.4225955,
                  6.125616
                ],
                [
                  -75.42459550000001,
                  6.125616
                ],
                [
                  -75.42459550000001,
                  6.123615999999999
                ]
              ]
            ],
            [
              [
                [
                  -75.5600752,
                  6.2197343
                ],
                [
                  -75.55807519999999,
                  6.2197343
                ],
                [
                  -75.55807519999999,
                  6.2217343000000005
                ],
                [
                  -75.5600752,
                  6.2217343000000005
                ],
                [
                  -75.5600752,
                  6.2197343
                ]
              ]
            ],
            [
              [
                [
                  -75.4291982,
                  6.0892721
                ],
                [
                  -75.42719819999999,
                  6.0892721
                ],
                [
                  -75.42719819999999,
                  6.0912721
                ],
                [
                  -75.4291982,
                  6.0912721
                ],
                [
                  -75.4291982,
                  6.0892721
                ]
              ]
            ],
            [
              [
                [
                  -75.50124240000001,
                  6.1697112
                ],
                [
                  -75.4992424,
                  6.1697112
                ],
                [
                  -75.4992424,
                  6.171711200000001
                ],
                [
                  -75.50124240000001,
                  6.171711200000001
                ],
                [
                  -75.50124240000001,
                  6.1697112
                ]
              ]
            ],
            [
              [
                [
                  -75.4364807,
                  6.1772187
                ],
                [
                  -75.4344807,
                  6.1772187
                ],
                [
                  -75.4344807,
                  6.179218700000001
                ],
                [
                  -75.4364807,
                  6.179218700000001
                ],
                [
                  -75.4364807,
                  6.1772187
                ]
              ]
            ],
            [
              [
                [
                  -75.4336162,
                  6.2493549999999995
                ],
                [
                  -75.4316162,
                  6.2493549999999995
                ],
                [
                  -75.4316162,
                  6.251355
                ],
                [
                  -75.4336162,
                  6.251355
                ],
                [
                  -75.4336162,
                  6.2493549999999995
                ]
              ]
            ],
            [
              [
                [
                  -75.555226,
                  6.133627199999999
                ],
                [
                  -75.553226,
                  6.133627199999999
                ],
                [
                  -75.553226,
                  6.1356272
                ],
                [
                  -75.555226,
                  6.1356272
                ],
                [
                  -75.555226,
                  6.133627199999999
                ]
              ]
            ],
            [
              [
                [
                  -75.481297,
                  6.089910199999999
                ],
                [
                  -75.47929699999999,
                  6.089910199999999
                ],
                [
                  -75.47929699999999,
                  6.0919102
                ],
                [
                  -75.481297,
                  6.0919102
                ],
                [
                  -75.481297,
                  6.089910199999999
                ]
              ]
            ],
            [
              [
                [
                  -75.4232837,
                  6.059844
                ],
                [
                  -75.42128369999999,
                  6.059844
                ],
                [
                  -75.42128369999999,
                  6.061844000000001
                ],
                [
                  -75.4232837,
                  6.061844000000001
                ],
                [
                  -75.4232837,
                  6.059844
                ]
              ]
            ],
            [
              [
                [
                  -75.4577368,
                  6.0576535
                ],
                [
                  -75.4557368,
                  6.0576535
                ],
                [
                  -75.4557368,
                  6.0596535000000005
                ],
                [
                  -75.4577368,
                  6.0596535000000005
                ],
                [
                  -75.4577368,
                  6.0576535
                ]
              ]
            ],
            [
              [
                [
                  -75.43430260000001,
                  6.1414703
                ],
                [
                  -75.4323026,
                  6.1414703
                ],
                [
                  -75.4323026,
                  6.143470300000001
                ],
                [
                  -75.43430260000001,
                  6.143470300000001
                ],
                [
                  -75.43430260000001,
                  6.1414703
                ]
              ]
            ],
            [
              [
                [
                  -75.452403,
                  6.112123599999999
                ],
                [
                  -75.450403,
                  6.112123599999999
                ],
                [
                  -75.450403,
                  6.1141236
                ],
                [
                  -75.452403,
                  6.1141236
                ],
                [
                  -75.452403,
                  6.112123599999999
                ]
              ]
            ],
            [
              [
                [
                  -75.6342218,
                  6.0668213
                ],
                [
                  -75.6322218,
                  6.0668213
                ],
                [
                  -75.6322218,
                  6.068821300000001
                ],
                [
                  -75.6342218,
                  6.068821300000001
                ],
                [
                  -75.6342218,
                  6.0668213
                ]
              ]
            ],
            [
              [
                [
                  -75.4502234,
                  6.0178674
                ],
                [
                  -75.44822339999999,
                  6.0178674
                ],
                [
                  -75.44822339999999,
                  6.019867400000001
                ],
                [
                  -75.4502234,
                  6.019867400000001
                ],
                [
                  -75.4502234,
                  6.0178674
                ]
              ]
            ],
            [
              [
                [
                  -75.4329548,
                  6.008317399999999
                ],
                [
                  -75.4309548,
                  6.008317399999999
                ],
                [
                  -75.4309548,
                  6.0103174
                ],
                [
                  -75.4329548,
                  6.0103174
                ],
                [
                  -75.4329548,
                  6.008317399999999
                ]
              ]
            ],
            [
              [
                [
                  -75.4134652,
                  6.022465599999999
                ],
                [
                  -75.4114652,
                  6.022465599999999
                ],
                [
                  -75.4114652,
                  6.0244656
                ],
                [
                  -75.4134652,
                  6.0244656
                ],
                [
                  -75.4134652,
                  6.022465599999999
                ]
              ]
            ],
            [
              [
                [
                  -75.3412419,
                  6.138306399999999
                ],
                [
                  -75.33924189999999,
                  6.138306399999999
                ],
                [
                  -75.33924189999999,
                  6.1403064
                ],
                [
                  -75.3412419,
                  6.1403064
                ],
                [
                  -75.3412419,
                  6.138306399999999
                ]
              ]
            ]
          ],
          "type": "MultiPolygon"
        }
      }
    },
    "engine": {
      "version": "9.5.0",
      "build_date": "2025-10-31T12:33:09Z",
      "graph_date": "2025-12-01T03:52:42Z",
      "osm_date": "2025-11-24T00:59:59Z"
    }
  }
}