{
  "type": "FeatureCollection",
  "bbox": [
    -75.337477,
    6.082623,
    -75.26889,
    6.138177
  ],
  "features": [
    {
      "bbox": [
        -75.337477,
        6.082623,
        -75.26889,
        6.138177
      ],
      "type": "Feature",
      "properties": {
        "way_points": [
          0,
          443
        ],
        "summary": {
          "distance": 15175.3,
          "duration": 1576.3
        }
      },
      "geometry": {
        "coordinates": [
          [
            -75.26889,
            6.138177
          ],
          [
            -75.26912,
            6.137885
          ],
          [
            -75.269158,
            6.137813
          ],
          [
            -75.269168,
            6.1372
          ],
          [
            -75.269205,
            6.137117
          ],
          [
            -75.269306,
            6.137016
          ],
          [
            -75.269488,
            6.136906
          ],
          [
            -75.269417,
            6.136843
          ],
          [
            -75.269302,
            6.136681
          ],
          [
            -75.269174,
            6.136567
          ],
          [
            -75.269099,
            6.136468
          ],
          [
            -75.268957,
            6.136211
          ],
          [
            -75.268986,
            6.136085
          ],
          [
            -75.269172,
            6.135672
          ],
          [
            -75.269396,
            6.135123
          ],
          [
            -75.270347,
            6.134852
          ],
          [
            -75.270692,
            6.134762
          ],
          [
            -75.271316,
            6.134642
          ],
          [
            -75.272625,
            6.134561
          ],
          [
            -75.274148,
            6.134494
          ],
          [
            -75.274522,
            6.134535
          ],
          [
            -75.27478,
            6.134586
          ],
          [
            -75.275019,
            6.13463
          ],
          [
            -75.275454,
            6.134752
          ],
          [
            -75.275621,
            6.134811
          ],
          [
            -75.275884,
            6.134937
          ],
          [
            -75.276646,
            6.135363
          ],
          [
            -75.276914,
            6.135545
          ],
          [
            -75.27706,
            6.135651
          ],
          [
            -75.27732,
            6.135899
          ],
          [
            -75.277596,
            6.136127
          ],
          [
            -75.277781,
            6.136251
          ],
          [
            -75.277976,
            6.136358
          ],
          [
            -75.278179,
            6.136448
          ],
          [
            -75.278246,
            6.136462
          ],
          [
            -75.278314,
            6.136451
          ],
          [
            -75.278373,
            6.136415
          ],
          [
            -75.278414,
            6.13636
          ],
          [
            -75.278431,
            6.136293
          ],
          [
            -75.278423,
            6.136225
          ],
          [
            -75.278389,
            6.136165
          ],
          [
            -75.278335,
            6.136122
          ],
          [
            -75.277792,
            6.13584
          ],
          [
            -75.276091,
            6.134906
          ],
          [
            -75.275818,
            6.13474
          ],
          [
            -75.275396,
            6.134569
          ],
          [
            -75.2752,
            6.134521
          ],
          [
            -75.274949,
            6.13445
          ],
          [
            -75.274633,
            6.134406
          ],
          [
            -75.274182,
            6.13438
          ],
          [
            -75.272473,
            6.134441
          ],
          [
            -75.272025,
            6.134435
          ],
          [
            -75.271335,
            6.134468
          ],
          [
            -75.271272,
            6.134458
          ],
          [
            -75.271192,
            6.134404
          ],
          [
            -75.271168,
            6.13437
          ],
          [
            -75.271194,
            6.134137
          ],
          [
            -75.271191,
            6.133949
          ],
          [
            -75.271106,
            6.133696
          ],
          [
            -75.271051,
            6.13361
          ],
          [
            -75.270822,
            6.133332
          ],
          [
            -75.270801,
            6.133244
          ],
          [
            -75.270711,
            6.132521
          ],
          [
            -75.270708,
            6.132377
          ],
          [
            -75.270748,
            6.132252
          ],
          [
            -75.270844,
            6.132074
          ],
          [
            -75.271069,
            6.131404
          ],
          [
            -75.271154,
            6.13085
          ],
          [
            -75.271349,
            6.130394
          ],
          [
            -75.271491,
            6.129994
          ],
          [
            -75.271726,
            6.129001
          ],
          [
            -75.271863,
            6.128323
          ],
          [
            -75.271975,
            6.127964
          ],
          [
            -75.2721,
            6.127285
          ],
          [
            -75.272151,
            6.127082
          ],
          [
            -75.272198,
            6.126982
          ],
          [
            -75.272462,
            6.126905
          ],
          [
            -75.272782,
            6.126684
          ],
          [
            -75.273072,
            6.126637
          ],
          [
            -75.273198,
            6.126565
          ],
          [
            -75.273601,
            6.126063
          ],
          [
            -75.273954,
            6.1255
          ],
          [
            -75.274064,
            6.125392
          ],
          [
            -75.274506,
            6.125085
          ],
          [
            -75.274537,
            6.125037
          ],
          [
            -75.27456,
            6.124904
          ],
          [
            -75.274523,
            6.124471
          ],
          [
            -75.27447,
            6.124234
          ],
          [
            -75.274391,
            6.123982
          ],
          [
            -75.274196,
            6.123547
          ],
          [
            -75.274007,
            6.123162
          ],
          [
            -75.273994,
            6.123068
          ],
          [
            -75.274009,
            6.122982
          ],
          [
            -75.274678,
            6.121685
          ],
          [
            -75.274722,
            6.121587
          ],
          [
            -75.27487,
            6.121336
          ],
          [
            -75.275035,
            6.121189
          ],
          [
            -75.275099,
            6.121171
          ],
          [
            -75.276384,
            6.121199
          ],
          [
            -75.276883,
            6.121116
          ],
          [
            -75.277064,
            6.121113
          ],
          [
            -75.277614,
            6.121176
          ],
          [
            -75.279247,
            6.121147
          ],
          [
            -75.279441,
            6.121116
          ],
          [
            -75.279546,
            6.121075
          ],
          [
            -75.280204,
            6.120686
          ],
          [
            -75.280331,
            6.120539
          ],
          [
            -75.280584,
            6.120087
          ],
          [
            -75.280672,
            6.119918
          ],
          [
            -75.28075,
            6.119567
          ],
          [
            -75.280937,
            6.119221
          ],
          [
            -75.28133,
            6.118684
          ],
          [
            -75.281446,
            6.11858
          ],
          [
            -75.281581,
            6.118497
          ],
          [
            -75.281687,
            6.118454
          ],
          [
            -75.282361,
            6.11823
          ],
          [
            -75.283195,
            6.117901
          ],
          [
            -75.283643,
            6.117673
          ],
          [
            -75.283788,
            6.117589
          ],
          [
            -75.283934,
            6.11748
          ],
          [
            -75.284245,
            6.117151
          ],
          [
            -75.284276,
            6.117113
          ],
          [
            -75.284677,
            6.11667
          ],
          [
            -75.284747,
            6.116609
          ],
          [
            -75.284846,
            6.116558
          ],
          [
            -75.284965,
            6.116532
          ],
          [
            -75.285122,
            6.116529
          ],
          [
            -75.285372,
            6.116572
          ],
          [
            -75.286062,
            6.116898
          ],
          [
            -75.286339,
            6.116977
          ],
          [
            -75.286406,
            6.11698
          ],
          [
            -75.286481,
            6.116956
          ],
          [
            -75.286525,
            6.116914
          ],
          [
            -75.286595,
            6.116782
          ],
          [
            -75.286781,
            6.116369
          ],
          [
            -75.286842,
            6.116278
          ],
          [
            -75.286884,
            6.116243
          ],
          [
            -75.287035,
            6.116204
          ],
          [
            -75.287417,
            6.116196
          ],
          [
            -75.287554,
            6.11623
          ],
          [
            -75.287657,
            6.116285
          ],
          [
            -75.288361,
            6.116839
          ],
          [
            -75.288718,
            6.117224
          ],
          [
            -75.288792,
            6.117278
          ],
          [
            -75.288901,
            6.1173
          ],
          [
            -75.28901,
            6.117296
          ],
          [
            -75.289155,
            6.117261
          ],
          [
            -75.289282,
            6.117178
          ],
          [
            -75.289331,
            6.117093
          ],
          [
            -75.289343,
            6.117001
          ],
          [
            -75.289272,
            6.116572
          ],
          [
            -75.289306,
            6.11612
          ],
          [
            -75.289287,
            6.116034
          ],
          [
            -75.289189,
            6.115922
          ],
          [
            -75.288877,
            6.115729
          ],
          [
            -75.288773,
            6.11561
          ],
          [
            -75.288683,
            6.115443
          ],
          [
            -75.288643,
            6.115298
          ],
          [
            -75.288625,
            6.115198
          ],
          [
            -75.288655,
            6.115079
          ],
          [
            -75.288718,
            6.114978
          ],
          [
            -75.288902,
            6.11477
          ],
          [
            -75.289446,
            6.114287
          ],
          [
            -75.29065,
            6.113451
          ],
          [
            -75.290954,
            6.113147
          ],
          [
            -75.291077,
            6.113007
          ],
          [
            -75.291148,
            6.11289
          ],
          [
            -75.291208,
            6.112738
          ],
          [
            -75.29157,
            6.111531
          ],
          [
            -75.291658,
            6.111286
          ],
          [
            -75.29178,
            6.110982
          ],
          [
            -75.291877,
            6.110692
          ],
          [
            -75.292194,
            6.109583
          ],
          [
            -75.292281,
            6.109347
          ],
          [
            -75.292358,
            6.109249
          ],
          [
            -75.29247,
            6.109177
          ],
          [
            -75.292657,
            6.109127
          ],
          [
            -75.292871,
            6.109108
          ],
          [
            -75.293168,
            6.10918
          ],
          [
            -75.293672,
            6.109407
          ],
          [
            -75.293801,
            6.109447
          ],
          [
            -75.29396,
            6.109463
          ],
          [
            -75.294098,
            6.109449
          ],
          [
            -75.294212,
            6.109429
          ],
          [
            -75.294349,
            6.109367
          ],
          [
            -75.294713,
            6.10924
          ],
          [
            -75.294906,
            6.109183
          ],
          [
            -75.295785,
            6.108883
          ],
          [
            -75.296046,
            6.108817
          ],
          [
            -75.297053,
            6.108729
          ],
          [
            -75.299546,
            6.108574
          ],
          [
            -75.29968,
            6.108545
          ],
          [
            -75.299807,
            6.108493
          ],
          [
            -75.300216,
            6.108251
          ],
          [
            -75.300309,
            6.108176
          ],
          [
            -75.300353,
            6.108092
          ],
          [
            -75.300341,
            6.107645
          ],
          [
            -75.30024,
            6.107146
          ],
          [
            -75.3002,
            6.107037
          ],
          [
            -75.300078,
            6.106826
          ],
          [
            -75.30005,
            6.106668
          ],
          [
            -75.300072,
            6.10655
          ],
          [
            -75.300676,
            6.105537
          ],
          [
            -75.300734,
            6.105383
          ],
          [
            -75.300734,
            6.105234
          ],
          [
            -75.300703,
            6.105058
          ],
          [
            -75.300138,
            6.103657
          ],
          [
            -75.300091,
            6.103435
          ],
          [
            -75.300074,
            6.10315
          ],
          [
            -75.300112,
            6.102801
          ],
          [
            -75.300368,
            6.101833
          ],
          [
            -75.300417,
            6.101741
          ],
          [
            -75.300488,
            6.101654
          ],
          [
            -75.300714,
            6.101479
          ],
          [
            -75.300837,
            6.101419
          ],
          [
            -75.300935,
            6.10133
          ],
          [
            -75.301014,
            6.101214
          ],
          [
            -75.301203,
            6.100871
          ],
          [
            -75.30135,
            6.10072
          ],
          [
            -75.301835,
            6.100439
          ],
          [
            -75.302103,
            6.100186
          ],
          [
            -75.30234,
            6.10014
          ],
          [
            -75.30247,
            6.100086
          ],
          [
            -75.302772,
            6.099861
          ],
          [
            -75.30312,
            6.099666
          ],
          [
            -75.303335,
            6.099527
          ],
          [
            -75.30361,
            6.099339
          ],
          [
            -75.303702,
            6.099303
          ],
          [
            -75.304272,
            6.099238
          ],
          [
            -75.304372,
            6.099204
          ],
          [
            -75.30447,
            6.099155
          ],
          [
            -75.304633,
            6.09901
          ],
          [
            -75.304752,
            6.098878
          ],
          [
            -75.304875,
            6.098793
          ],
          [
            -75.305785,
            6.098264
          ],
          [
            -75.305905,
            6.098209
          ],
          [
            -75.306982,
            6.097579
          ],
          [
            -75.307371,
            6.097343
          ],
          [
            -75.307485,
            6.097315
          ],
          [
            -75.307904,
            6.097347
          ],
          [
            -75.308083,
            6.097333
          ],
          [
            -75.30847,
            6.097257
          ],
          [
            -75.308576,
            6.097249
          ],
          [
            -75.308652,
            6.097261
          ],
          [
            -75.308728,
            6.097293
          ],
          [
            -75.308777,
            6.097364
          ],
          [
            -75.308798,
            6.09746
          ],
          [
            -75.30881,
            6.097811
          ],
          [
            -75.308825,
            6.097887
          ],
          [
            -75.308866,
            6.097969
          ],
          [
            -75.308935,
            6.098023
          ],
          [
            -75.309228,
            6.098141
          ],
          [
            -75.309478,
            6.098278
          ],
          [
            -75.309601,
            6.09835
          ],
          [
            -75.309905,
            6.098584
          ],
          [
            -75.310057,
            6.098648
          ],
          [
            -75.310213,
            6.098618
          ],
          [
            -75.310452,
            6.098455
          ],
          [
            -75.310486,
            6.09838
          ],
          [
            -75.310463,
            6.098287
          ],
          [
            -75.310415,
            6.098238
          ],
          [
            -75.310146,
            6.098084
          ],
          [
            -75.309838,
            6.097943
          ],
          [
            -75.309735,
            6.097858
          ],
          [
            -75.309545,
            6.097613
          ],
          [
            -75.30952,
            6.097536
          ],
          [
            -75.309483,
            6.097171
          ],
          [
            -75.309454,
            6.097112
          ],
          [
            -75.3094,
            6.097057
          ],
          [
            -75.309154,
            6.09689
          ],
          [
            -75.309133,
            6.096849
          ],
          [
            -75.309138,
            6.096783
          ],
          [
            -75.309184,
            6.096691
          ],
          [
            -75.309234,
            6.096645
          ],
          [
            -75.309299,
            6.096622
          ],
          [
            -75.3094,
            6.096615
          ],
          [
            -75.309791,
            6.096643
          ],
          [
            -75.309889,
            6.096695
          ],
          [
            -75.309972,
            6.096814
          ],
          [
            -75.310041,
            6.096856
          ],
          [
            -75.310111,
            6.096865
          ],
          [
            -75.310228,
            6.096845
          ],
          [
            -75.310335,
            6.096774
          ],
          [
            -75.310457,
            6.096637
          ],
          [
            -75.310724,
            6.096199
          ],
          [
            -75.310804,
            6.096035
          ],
          [
            -75.310903,
            6.095739
          ],
          [
            -75.310956,
            6.095597
          ],
          [
            -75.31105,
            6.095421
          ],
          [
            -75.311134,
            6.095341
          ],
          [
            -75.311256,
            6.09526
          ],
          [
            -75.311503,
            6.095192
          ],
          [
            -75.312439,
            6.095098
          ],
          [
            -75.312523,
            6.095072
          ],
          [
            -75.312682,
            6.094993
          ],
          [
            -75.313204,
            6.094644
          ],
          [
            -75.313493,
            6.094552
          ],
          [
            -75.313602,
            6.094483
          ],
          [
            -75.314008,
            6.093979
          ],
          [
            -75.314212,
            6.093455
          ],
          [
            -75.314431,
            6.093051
          ],
          [
            -75.314556,
            6.092679
          ],
          [
            -75.314568,
            6.092517
          ],
          [
            -75.314554,
            6.09245
          ],
          [
            -75.314496,
            6.092379
          ],
          [
            -75.314206,
            6.092223
          ],
          [
            -75.314165,
            6.092171
          ],
          [
            -75.314113,
            6.092015
          ],
          [
            -75.314096,
            6.091817
          ],
          [
            -75.314114,
            6.091568
          ],
          [
            -75.314161,
            6.091452
          ],
          [
            -75.314327,
            6.091236
          ],
          [
            -75.314339,
            6.091156
          ],
          [
            -75.314331,
            6.090916
          ],
          [
            -75.314366,
            6.090839
          ],
          [
            -75.314409,
            6.090799
          ],
          [
            -75.314635,
            6.090692
          ],
          [
            -75.314713,
            6.090639
          ],
          [
            -75.314783,
            6.090546
          ],
          [
            -75.314939,
            6.090133
          ],
          [
            -75.315048,
            6.089984
          ],
          [
            -75.315107,
            6.089952
          ],
          [
            -75.31518,
            6.089937
          ],
          [
            -75.315248,
            6.089944
          ],
          [
            -75.316158,
            6.090251
          ],
          [
            -75.316217,
            6.090257
          ],
          [
            -75.31629,
            6.090237
          ],
          [
            -75.316469,
            6.090148
          ],
          [
            -75.316573,
            6.090109
          ],
          [
            -75.316631,
            6.090104
          ],
          [
            -75.316701,
            6.090119
          ],
          [
            -75.316885,
            6.090213
          ],
          [
            -75.316985,
            6.09023
          ],
          [
            -75.317067,
            6.090226
          ],
          [
            -75.317163,
            6.090194
          ],
          [
            -75.317389,
            6.090001
          ],
          [
            -75.317428,
            6.089956
          ],
          [
            -75.317449,
            6.089891
          ],
          [
            -75.317442,
            6.089766
          ],
          [
            -75.317307,
            6.089537
          ],
          [
            -75.317298,
            6.089401
          ],
          [
            -75.317335,
            6.089328
          ],
          [
            -75.317385,
            6.089294
          ],
          [
            -75.317454,
            6.089279
          ],
          [
            -75.317581,
            6.089279
          ],
          [
            -75.318569,
            6.089675
          ],
          [
            -75.318745,
            6.089695
          ],
          [
            -75.319091,
            6.089605
          ],
          [
            -75.319148,
            6.089605
          ],
          [
            -75.319205,
            6.089623
          ],
          [
            -75.31941,
            6.089784
          ],
          [
            -75.319485,
            6.089811
          ],
          [
            -75.319554,
            6.089813
          ],
          [
            -75.319715,
            6.089749
          ],
          [
            -75.320026,
            6.08952
          ],
          [
            -75.320153,
            6.089452
          ],
          [
            -75.320278,
            6.089424
          ],
          [
            -75.320375,
            6.089419
          ],
          [
            -75.32049,
            6.089436
          ],
          [
            -75.320953,
            6.089572
          ],
          [
            -75.321086,
            6.089582
          ],
          [
            -75.321195,
            6.089568
          ],
          [
            -75.321285,
            6.089529
          ],
          [
            -75.321529,
            6.089135
          ],
          [
            -75.321595,
            6.089069
          ],
          [
            -75.322383,
            6.088624
          ],
          [
            -75.32273,
            6.08845
          ],
          [
            -75.322797,
            6.08836
          ],
          [
            -75.322853,
            6.088181
          ],
          [
            -75.322904,
            6.088092
          ],
          [
            -75.32297,
            6.088031
          ],
          [
            -75.323091,
            6.087963
          ],
          [
            -75.323152,
            6.087893
          ],
          [
            -75.323178,
            6.087819
          ],
          [
            -75.323186,
            6.087747
          ],
          [
            -75.323169,
            6.087649
          ],
          [
            -75.323101,
            6.087409
          ],
          [
            -75.322979,
            6.087116
          ],
          [
            -75.322962,
            6.087038
          ],
          [
            -75.322966,
            6.08694
          ],
          [
            -75.32361,
            6.086464
          ],
          [
            -75.323715,
            6.086403
          ],
          [
            -75.323814,
            6.086393
          ],
          [
            -75.323944,
            6.086361
          ],
          [
            -75.324082,
            6.086262
          ],
          [
            -75.324202,
            6.086119
          ],
          [
            -75.324461,
            6.085818
          ],
          [
            -75.324598,
            6.08574
          ],
          [
            -75.32473,
            6.085712
          ],
          [
            -75.325515,
            6.085874
          ],
          [
            -75.325571,
            6.085822
          ],
          [
            -75.325688,
            6.085607
          ],
          [
            -75.325772,
            6.085454
          ],
          [
            -75.325889,
            6.085286
          ],
          [
            -75.326011,
            6.085275
          ],
          [
            -75.326073,
            6.085296
          ],
          [
            -75.326379,
            6.085534
          ],
          [
            -75.326512,
            6.085528
          ],
          [
            -75.32658,
            6.08549
          ],
          [
            -75.32663,
            6.085418
          ],
          [
            -75.326639,
            6.085335
          ],
          [
            -75.32663,
            6.085285
          ],
          [
            -75.326605,
            6.085243
          ],
          [
            -75.326355,
            6.085091
          ],
          [
            -75.326267,
            6.084967
          ],
          [
            -75.3262,
            6.084777
          ],
          [
            -75.326192,
            6.084711
          ],
          [
            -75.326223,
            6.084612
          ],
          [
            -75.3264,
            6.084399
          ],
          [
            -75.326497,
            6.084303
          ],
          [
            -75.326848,
            6.084108
          ],
          [
            -75.32724,
            6.083891
          ],
          [
            -75.327502,
            6.083791
          ],
          [
            -75.32843,
            6.083422
          ],
          [
            -75.328663,
            6.083373
          ],
          [
            -75.329354,
            6.083259
          ],
          [
            -75.329647,
            6.083211
          ],
          [
            -75.329897,
            6.08319
          ],
          [
            -75.330228,
            6.08319
          ],
          [
            -75.330886,
            6.083249
          ],
          [
            -75.331401,
            6.08331
          ],
          [
            -75.331589,
            6.083349
          ],
          [
            -75.331994,
            6.083497
          ],
          [
            -75.332089,
            6.083515
          ],
          [
            -75.332189,
            6.083497
          ],
          [
            -75.33223,
            6.083479
          ],
          [
            -75.332349,
            6.083348
          ],
          [
            -75.332433,
            6.083241
          ],
          [
            -75.333713,
            6.082623
          ],
          [
            -75.334089,
            6.083417
          ],
          [
            -75.334448,
            6.084152
          ],
          [
            -75.335109,
            6.083816
          ],
          [
            -75.335197,
            6.083677
          ],
          [
            -75.335708,
            6.083418
          ],
          [
            -75.335851,
            6.08345
          ],
          [
            -75.336187,
            6.08422
          ],
          [
            -75.336297,
            6.084467
          ],
          [
            -75.336531,
            6.08497
          ],
          [
            -75.336944,
            6.08576
          ],
          [
            -75.337163,
            6.086173
          ],
          [
            -75.337243,
            6.086616
          ],
          [
            -75.337348,
            6.087284
          ],
          [
            -75.337477,
            6.087978
          ],
          [
            -75.337475,
            6.088041
          ]
        ],
        "type": "LineString"
      }
    }
  ],
  "metadata": {
    "attribution": "openrouteservice.org | OpenStreetMap contributors",
    "service": "routing",
    "timestamp": 1764859622302,
    "query": {
      "coordinates": [
        [
          -75.268945,
          6.1382195
        ],
        [
          -75.337484,
          6.088041
        ]
      ],
      "profile": "driving-hgv",
      "profileName": "driving-hgv",
      "preference": "recommended",
      "format": "geojson",
      "language": "es",
      "options": {
        "profile_params": {
          "restrictions": {
            "length": 8.0,
            "width": 2.5,
            "height": 3.5
          },
          "surface_quality_known": false,
          "allow_unsuitable": false
        },
        "avoid_polygons": {
          "coordinates": [
            [
              [
                [
                  -75.53398800000001,
                  6.1525436
                ],
                [
                  -75.531988,
                  6.1525436
                ],
                [
                  -75.531988,
                  6.1545436
                ],
                [
                  -75.53398800000001,
                  6.1545436
                ],
                [
                  -75.53398800000001,
                  6.1525436
                ]
              ]
            ],
            [
              [
                [
                  -75.49099790000001,
                  6.0932509999999995
                ],
                [
                  -75.4889979,
                  6.0932509999999995
                ],
                [
                  -75.4889979,
                  6.095251
                ],
                [
                  -75.49099790000001,
                  6.095251
                ],
                [
                  -75.49099790000001,
                  6.0932509999999995
                ]
              ]
            ],
            [
              [
                [
                  -75.44939930000001,
                  6.1764060999999995
                ],
                [
                  -75.4473993,
                  6.1764060999999995
                ],
                [
                  -75.4473993,
                  6.1784061
                ],
                [
                  -75.44939930000001,
                  6.1784061
                ],
                [
                  -75.44939930000001,
                  6.1764060999999995
                ]
              ]
            ],
            [
              [
                [
                  -75.4890572,
                  6.2037862
                ],
                [
                  -75.4870572,
                  6.2037862
                ],
                [
                  -75.4870572,
                  6.2057862
                ],
                [
                  -75.4890572,
                  6.2057862
                ],
                [
                  -75.4890572,
                  6.2037862
                ]
              ]
            ],
            [
              [
                [
                  -75.46672650000001,
                  6.1850524
                ],
                [
                  -75.4647265,
                  6.1850524
                ],
                [
                  -75.4647265,
                  6.187052400000001
                ],
                [
                  -75.46672650000001,
                  6.187052400000001
                ],
                [
                  -75.46672650000001,
                  6.1850524
                ]
              ]
            ],
            [
              [
                [
                  -75.5035304,
                  6.2159613
                ],
                [
                  -75.5015304,
                  6.2159613
                ],
                [
                  -75.5015304,
                  6.217961300000001
                ],
                [
                  -75.5035304,
                  6.217961300000001
                ],
                [
                  -75.5035304,
                  6.2159613
                ]
              ]
            ],
            [
              [
                [
                  -75.4913478,
                  6.170510299999999
                ],
                [
                  -75.48934779999999,
                  6.170510299999999
                ],
                [
                  -75.48934779999999,
                  6.1725103
                ],
                [
                  -75.4913478,
                  6.1725103
                ],
                [
                  -75.4913478,
                  6.170510299999999
                ]
              ]
            ],
            [
              [
                [
                  -75.5250472,
                  6.1422792
                ],
                [
                  -75.5230472,
                  6.1422792
                ],
                [
                  -75.5230472,
                  6.144279200000001
                ],
                [
                  -75.5250472,
                  6.144279200000001
                ],
                [
                  -75.5250472,
                  6.1422792
                ]
              ]
            ],
            [
              [
                [
                  -75.42459550000001,
                  6.123615999999999
                ],
                [
                  -75.4225955,
                  6.123615999999999
                ],
                [
                  -75.4225955,
                  6.125616
                ],
                [
                  -75.42459550000001,
                  6.125616
                ],
                [
                  -75.42459550000001,
                  6.123615999999999
                ]
              ]
            ],
            [
              [
                [
                  -75.5600752,
                  6.2197343
                ],
                [
                  -75.55807519999999,
                  6.2197343
                ],
                [
                  -75.55807519999999,
                  6.2217343000000005
                ],
                [
                  -75.5600752,
                  6.2217343000000005
                ],
                [
                  -75.5600752,
                  6.2197343
                ]
              ]
            ],
            [
              [
                [
                  -75.4291982,
                  6.0892721
                ],
                [
                  -75.42719819999999,
                  6.0892721
                ],
                [
                  -75.42719819999999,
                  6.0912721
                ],
                [
                  -75.4291982,
                  6.0912721
                ],
                [
                  -75.4291982,
                  6.0892721
                ]
              ]
            ],
            [
              [
                [
                  -75.50124240000001,
                  6.1697112
                ],
                [
                  -75.4992424,
                  6.1697112
                ],
                [
                  -75.4992424,
                  6.171711200000001
                ],
                [
                  -75.50124240000001,
                  6.171711200000001
                ],
                [
                  -75.50124240000001,
                  6.1697112
                ]
              ]
            ],
            [
              [
                [
                  -75.4364807,
                  6.1772187
                ],
                [
                  -75.4344807,
                  6.1772187
                ],
                [
                  -75.4344807,
                  6.179218700000001
                ],
                [
                  -75.4364807,
                  6.179218700000001
                ],
                [
                  -75.4364807,
                  6.1772187
                ]
              ]
            ],
            [
              [
                [
                  -75.4336162,
                  6.2493549999999995
                ],
                [
                  -75.4316162,
                  6.2493549999999995
                ],
                [
                  -75.4316162,
                  6.251355
                ],
                [
                  -75.4336162,
                  6.251355
                ],
                [
                  -75.4336162,
                  6.2493549999999995
                ]
              ]
            ],
            [
              [
                [
                  -75.555226,
                  6.133627199999999
                ],
                [
                  -75.553226,
                  6.133627199999999
                ],
                [
                  -75.553226,
                  6.1356272
                ],
                [
                  -75.555226,
                  6.1356272
                ],
                [
                  -75.555226,
                  6.133627199999999
                ]
              ]
            ],
            [
              [
                [
                  -75.481297,
                  6.089910199999999
                ],
                [
                  -75.47929699999999,
                  6.089910199999999
                ],
                [
                  -75.47929699999999,
                  6.0919102
                ],
                [
                  -75.481297,
                  6.0919102
                ],
                [
                  -75.481297,
                  6.089910199999999
                ]
              ]
            ],
            [
              [
                [
                  -75.4232837,
                  6.059844
                ],
                [
                  -75.42128369999999,
                  6.059844
                ],
                [
                  -75.42128369999999,
                  6.061844000000001
                ],
                [
                  -75.4232837,
                  6.061844000000001
                ],
                [
                  -75.4232837,
                  6.059844
                ]
              ]
            ],
            [
              [
                [
                  -75.4577368,
                  6.0576535
                ],
                [
                  -75.4557368,
                  6.0576535
                ],
                [
                  -75.4557368,
                  6.0596535000000005
                ],
                [
                  -75.4577368,
                  6.0596535000000005
                ],
                [
                  -75.4577368,
                  6.0576535
                ]
              ]
            ],
            [
              [
                [
                  -75.43430260000001,
                  6.1414703
                ],
                [
                  -75.4323026,
                  6.1414703
                ],
                [
                  -75.4323026,
                  6.143470300000001
                ],
                [
                  -75.43430260000001,
                  6.143470300000001
                ],
                [
                  -75.43430260000001,
                  6.1414703
                ]
              ]
            ],
            [
              [
                [
                  -75.452403,
                  6.112123599999999
                ],
                [
                  -75.450403,
                  6.112123599999999
                ],
                [
                  -75.450403,
                  6.1141236
                ],
                [
                  -75.452403,
                  6.1141236
                ],
                [
                  -75.452403,
                  6.112123599999999
                ]
              ]
            ],
            [
              [
                [
                  -75.6342218,
                  6.0668213
                ],
                [
                  -75.6322218,
                  6.0668213
                ],
                [
                  -75.6322218,
                  6.068821300000001
                ],
                [
                  -75.6342218,
                  6.068821300000001
                ],
                [
                  -75.6342218,
                  6.0668213
                ]
              ]
            ],
            [
              [
                [
                  -75.4502234,
                  6.0178674
                ],
                [
                  -75.44822339999999,
                  6.0178674
                ],
                [
                  -75.44822339999999,
                  6.019867400000001
                ],
                [
                  -75.4502234,
                  6.019867400000001
                ],
                [
                  -75.4502234,
                  6.0178674
                ]
              ]
            ],
            [
              [
                [
                  -75.4329548,
                  6.008317399999999
                ],
                [
                  -75.4309548,
                  6.008317399999999
                ],
                [
                  -75.4309548,
                  6.0103174
                ],
                [
                  -75.4329548,
                  6.0103174
                ],
                [
                  -75.4329548,
                  6.008317399999999
                ]
              ]
            ],
            [
              [
                [
                  -75.4134652,
                  6.022465599999999
                ],
                [
                  -75.4114652,
                  6.022465599999999
                ],
                [
                  -75.4114652,
                  6.0244656
                ],
                [
                  -75.4134652,
                  6.0244656
                ],
                [
                  -75.4134652,
                  6.022465599999999
                ]
              ]
            ],
            [
              [
                [
                  -75.3412419,
                  6.138306399999999
                ],
                [
                  -75.33924189999999,
                  6.138306399999999
                ],
                [
                  -75.33924189999999,
                  6.1403064
                ],
                [
                  -75.3412419,
                  6.1403064
                ],
                [
                  -75.3412419,
                  6.138306399999999
                ]
              ]
            ]
          ],
          "type": "MultiPolygon"
        }
      }
    },
    "engine": {
      "version": "9.5.0",
      "build_date": "2025-10-31T12:33:09Z",
      "graph_date": "2025-12-01T03:52:42Z",
      "osm_date": "2025-11-24T00:59:59Z"
    }
  }
}