{
  "type": "FeatureCollection",
  "bbox": [
    -75.375771,
    6.151662,
    -75.337404,
    6.180047
  ],
  "features": [
    {
      "bbox": [
        -75.375771,
        6.151662,
        -75.337404,
        6.180047
      ],
      "type": "Feature",
      "properties": {
        "way_points": [
          0,
          175
        ],
        "summary": {
          "distance": 7848.0,
          "duration": 914.6
        }
      },
      "geometry": {
        "coordinates": [
          [
            -75.339226,
            6.167196
          ],
          [
            -75.339203,
            6.167289
          ],
          [
            -75.339118,
            6.167564
          ],
          [
            -75.338929,
            6.168175
          ],
          [
            -75.33887,
            6.168377
          ],
          [
            -75.33881,
            6.168569
          ],
          [
            -75.338498,
            6.168389
          ],
          [
            -75.338285,
            6.168278
          ],
          [
            -75.338161,
            6.168223
          ],
          [
            -75.338021,
            6.168203
          ],
          [
            -75.337516,
            6.168007
          ],
          [
            -75.337473,
            6.167997
          ],
          [
            -75.337435,
            6.168005
          ],
          [
            -75.337412,
            6.16803
          ],
          [
            -75.337404,
            6.168084
          ],
          [
            -75.337444,
            6.168132
          ],
          [
            -75.337898,
            6.168305
          ],
          [
            -75.337941,
            6.168336
          ],
          [
            -75.337982,
            6.1684
          ],
          [
            -75.338086,
            6.168448
          ],
          [
            -75.33843,
            6.168643
          ],
          [
            -75.338723,
            6.168833
          ],
          [
            -75.339931,
            6.169667
          ],
          [
            -75.340629,
            6.170127
          ],
          [
            -75.341121,
            6.17045
          ],
          [
            -75.341185,
            6.170503
          ],
          [
            -75.341764,
            6.170948
          ],
          [
            -75.342387,
            6.171432
          ],
          [
            -75.342815,
            6.171731
          ],
          [
            -75.342971,
            6.171831
          ],
          [
            -75.343441,
            6.172073
          ],
          [
            -75.343688,
            6.172159
          ],
          [
            -75.343971,
            6.172238
          ],
          [
            -75.344796,
            6.172433
          ],
          [
            -75.345386,
            6.172585
          ],
          [
            -75.345638,
            6.172671
          ],
          [
            -75.345844,
            6.172755
          ],
          [
            -75.346042,
            6.172855
          ],
          [
            -75.346302,
            6.173026
          ],
          [
            -75.346763,
            6.173327
          ],
          [
            -75.347428,
            6.17385
          ],
          [
            -75.347641,
            6.174004
          ],
          [
            -75.347831,
            6.174112
          ],
          [
            -75.348202,
            6.174278
          ],
          [
            -75.349305,
            6.174632
          ],
          [
            -75.350074,
            6.174874
          ],
          [
            -75.350641,
            6.175057
          ],
          [
            -75.351375,
            6.175295
          ],
          [
            -75.352559,
            6.175658
          ],
          [
            -75.352882,
            6.175759
          ],
          [
            -75.353869,
            6.176087
          ],
          [
            -75.356982,
            6.177215
          ],
          [
            -75.357711,
            6.177494
          ],
          [
            -75.358725,
            6.177843
          ],
          [
            -75.359203,
            6.177994
          ],
          [
            -75.359836,
            6.178212
          ],
          [
            -75.360178,
            6.178358
          ],
          [
            -75.360334,
            6.178504
          ],
          [
            -75.360376,
            6.178609
          ],
          [
            -75.360462,
            6.178683
          ],
          [
            -75.360554,
            6.178708
          ],
          [
            -75.360649,
            6.178695
          ],
          [
            -75.360692,
            6.178675
          ],
          [
            -75.360952,
            6.178672
          ],
          [
            -75.361049,
            6.178695
          ],
          [
            -75.361396,
            6.178866
          ],
          [
            -75.362047,
            6.179126
          ],
          [
            -75.362669,
            6.179373
          ],
          [
            -75.363003,
            6.179489
          ],
          [
            -75.363345,
            6.179583
          ],
          [
            -75.363695,
            6.179626
          ],
          [
            -75.363962,
            6.179637
          ],
          [
            -75.364384,
            6.179607
          ],
          [
            -75.366102,
            6.179243
          ],
          [
            -75.366282,
            6.179326
          ],
          [
            -75.366373,
            6.17939
          ],
          [
            -75.366446,
            6.179475
          ],
          [
            -75.366549,
            6.179697
          ],
          [
            -75.366635,
            6.179828
          ],
          [
            -75.366724,
            6.179914
          ],
          [
            -75.366827,
            6.179981
          ],
          [
            -75.367019,
            6.180047
          ],
          [
            -75.367198,
            6.179668
          ],
          [
            -75.367251,
            6.179536
          ],
          [
            -75.367456,
            6.179041
          ],
          [
            -75.36749,
            6.178967
          ],
          [
            -75.367568,
            6.178807
          ],
          [
            -75.367726,
            6.178487
          ],
          [
            -75.367895,
            6.17828
          ],
          [
            -75.368482,
            6.17705
          ],
          [
            -75.369059,
            6.175749
          ],
          [
            -75.369459,
            6.174777
          ],
          [
            -75.370463,
            6.172469
          ],
          [
            -75.370594,
            6.172062
          ],
          [
            -75.370582,
            6.171736
          ],
          [
            -75.370513,
            6.171496
          ],
          [
            -75.370364,
            6.171189
          ],
          [
            -75.369794,
            6.170587
          ],
          [
            -75.369317,
            6.170075
          ],
          [
            -75.369164,
            6.169868
          ],
          [
            -75.369075,
            6.169652
          ],
          [
            -75.36899,
            6.169486
          ],
          [
            -75.368748,
            6.16914
          ],
          [
            -75.368485,
            6.16885
          ],
          [
            -75.368392,
            6.16871
          ],
          [
            -75.368301,
            6.168524
          ],
          [
            -75.368245,
            6.168309
          ],
          [
            -75.368184,
            6.167914
          ],
          [
            -75.368049,
            6.167304
          ],
          [
            -75.367927,
            6.167025
          ],
          [
            -75.367759,
            6.166821
          ],
          [
            -75.367312,
            6.1664
          ],
          [
            -75.36721,
            6.166224
          ],
          [
            -75.36711,
            6.165867
          ],
          [
            -75.367009,
            6.165033
          ],
          [
            -75.36696,
            6.164754
          ],
          [
            -75.366947,
            6.164553
          ],
          [
            -75.366962,
            6.164397
          ],
          [
            -75.367034,
            6.16416
          ],
          [
            -75.367096,
            6.163988
          ],
          [
            -75.367171,
            6.163781
          ],
          [
            -75.367485,
            6.162921
          ],
          [
            -75.367524,
            6.162837
          ],
          [
            -75.367617,
            6.162708
          ],
          [
            -75.367679,
            6.162661
          ],
          [
            -75.367724,
            6.162586
          ],
          [
            -75.367736,
            6.162499
          ],
          [
            -75.367717,
            6.162425
          ],
          [
            -75.367722,
            6.162237
          ],
          [
            -75.367781,
            6.162035
          ],
          [
            -75.367932,
            6.161713
          ],
          [
            -75.368002,
            6.161613
          ],
          [
            -75.368159,
            6.161402
          ],
          [
            -75.368322,
            6.161212
          ],
          [
            -75.368446,
            6.161067
          ],
          [
            -75.368634,
            6.160843
          ],
          [
            -75.368745,
            6.160711
          ],
          [
            -75.368939,
            6.160492
          ],
          [
            -75.368969,
            6.160465
          ],
          [
            -75.369007,
            6.160396
          ],
          [
            -75.369171,
            6.160225
          ],
          [
            -75.369277,
            6.160071
          ],
          [
            -75.36932,
            6.159997
          ],
          [
            -75.369415,
            6.15975
          ],
          [
            -75.369501,
            6.159428
          ],
          [
            -75.369562,
            6.159211
          ],
          [
            -75.369574,
            6.159168
          ],
          [
            -75.369659,
            6.15883
          ],
          [
            -75.36968,
            6.158741
          ],
          [
            -75.369728,
            6.158514
          ],
          [
            -75.369828,
            6.158324
          ],
          [
            -75.370095,
            6.157933
          ],
          [
            -75.370424,
            6.157525
          ],
          [
            -75.370722,
            6.156991
          ],
          [
            -75.371022,
            6.156417
          ],
          [
            -75.371243,
            6.155923
          ],
          [
            -75.371508,
            6.155152
          ],
          [
            -75.371537,
            6.154316
          ],
          [
            -75.371574,
            6.153275
          ],
          [
            -75.371551,
            6.152564
          ],
          [
            -75.371779,
            6.152524
          ],
          [
            -75.371831,
            6.152515
          ],
          [
            -75.371935,
            6.152459
          ],
          [
            -75.371995,
            6.152446
          ],
          [
            -75.372089,
            6.152425
          ],
          [
            -75.372129,
            6.152416
          ],
          [
            -75.372529,
            6.15232
          ],
          [
            -75.373092,
            6.152192
          ],
          [
            -75.37381,
            6.152036
          ],
          [
            -75.374204,
            6.151958
          ],
          [
            -75.374643,
            6.151873
          ],
          [
            -75.374715,
            6.151855
          ],
          [
            -75.374977,
            6.15179
          ],
          [
            -75.375228,
            6.151729
          ],
          [
            -75.375478,
            6.151676
          ],
          [
            -75.375771,
            6.151662
          ]
        ],
        "type": "LineString"
      }
    }
  ],
  "metadata": {
    "attribution": "openrouteservice.org | OpenStreetMap contributors",
    "service": "routing",
    "timestamp": 1764859232374,
    "query": {
      "coordinates": [
        [
          -75.3390964,
          6.167163599999999
        ],
        [
          -75.37576399999999,
          6.1515135
        ]
      ],
      "profile": "driving-hgv",
      "profileName": "driving-hgv",
      "preference": "recommended",
      "format": "geojson",
      "language": "es",
      "options": {
        "profile_params": {
          "restrictions": {
            "length": 8.0,
            "width": 2.5,
            "height": 3.5
          },
          "surface_quality_known": false,
          "allow_unsuitable": false
        },
        "avoid_polygons": {
          "coordinates": [
            [
              [
                [
                  -75.53398800000001,
                  6.1525436
                ],
                [
                  -75.531988,
                  6.1525436
                ],
                [
                  -75.531988,
                  6.1545436
                ],
                [
                  -75.53398800000001,
                  6.1545436
                ],
                [
                  -75.53398800000001,
                  6.1525436
                ]
              ]
            ],
            [
              [
                [
                  -75.49099790000001,
                  6.0932509999999995
                ],
                [
                  -75.4889979,
                  6.0932509999999995
                ],
                [
                  -75.4889979,
                  6.095251
                ],
                [
                  -75.49099790000001,
                  6.095251
                ],
                [
                  -75.49099790000001,
                  6.0932509999999995
                ]
              ]
            ],
            [
              [
                [
                  -75.44939930000001,
                  6.1764060999999995
                ],
                [
                  -75.4473993,
                  6.1764060999999995
                ],
                [
                  -75.4473993,
                  6.1784061
                ],
                [
                  -75.44939930000001,
                  6.1784061
                ],
                [
                  -75.44939930000001,
                  6.1764060999999995
                ]
              ]
            ],
            [
              [
                [
                  -75.4890572,
                  6.2037862
                ],
                [
                  -75.4870572,
                  6.2037862
                ],
                [
                  -75.4870572,
                  6.2057862
                ],
                [
                  -75.4890572,
                  6.2057862
                ],
                [
                  -75.4890572,
                  6.2037862
                ]
              ]
            ],
            [
              [
                [
                  -75.46672650000001,
                  6.1850524
                ],
                [
                  -75.4647265,
                  6.1850524
                ],
                [
                  -75.4647265,
                  6.187052400000001
                ],
                [
                  -75.46672650000001,
                  6.187052400000001
                ],
                [
                  -75.46672650000001,
                  6.1850524
                ]
              ]
            ],
            [
              [
                [
                  -75.5035304,
                  6.2159613
                ],
                [
                  -75.5015304,
                  6.2159613
                ],
                [
                  -75.5015304,
                  6.217961300000001
                ],
                [
                  -75.5035304,
                  6.217961300000001
                ],
                [
                  -75.5035304,
                  6.2159613
                ]
              ]
            ],
            [
              [
                [
                  -75.4913478,
                  6.170510299999999
                ],
                [
                  -75.48934779999999,
                  6.170510299999999
                ],
                [
                  -75.48934779999999,
                  6.1725103
                ],
                [
                  -75.4913478,
                  6.1725103
                ],
                [
                  -75.4913478,
                  6.170510299999999
                ]
              ]
            ],
            [
              [
                [
                  -75.5250472,
                  6.1422792
                ],
                [
                  -75.5230472,
                  6.1422792
                ],
                [
                  -75.5230472,
                  6.144279200000001
                ],
                [
                  -75.5250472,
                  6.144279200000001
                ],
                [
                  -75.5250472,
                  6.1422792
                ]
              ]
            ],
            [
              [
                [
                  -75.42459550000001,
                  6.123615999999999
                ],
                [
                  -75.4225955,
                  6.123615999999999
                ],
                [
                  -75.4225955,
                  6.125616
                ],
                [
                  -75.42459550000001,
                  6.125616
                ],
                [
                  -75.42459550000001,
                  6.123615999999999
                ]
              ]
            ],
            [
              [
                [
                  -75.5600752,
                  6.2197343
                ],
                [
                  -75.55807519999999,
                  6.2197343
                ],
                [
                  -75.55807519999999,
                  6.2217343000000005
                ],
                [
                  -75.5600752,
                  6.2217343000000005
                ],
                [
                  -75.5600752,
                  6.2197343
                ]
              ]
            ],
            [
              [
                [
                  -75.4291982,
                  6.0892721
                ],
                [
                  -75.42719819999999,
                  6.0892721
                ],
                [
                  -75.42719819999999,
                  6.0912721
                ],
                [
                  -75.4291982,
                  6.0912721
                ],
                [
                  -75.4291982,
                  6.0892721
                ]
              ]
            ],
            [
              [
                [
                  -75.50124240000001,
                  6.1697112
                ],
                [
                  -75.4992424,
                  6.1697112
                ],
                [
                  -75.4992424,
                  6.171711200000001
                ],
                [
                  -75.50124240000001,
                  6.171711200000001
                ],
                [
                  -75.50124240000001,
                  6.1697112
                ]
              ]
            ],
            [
              [
                [
                  -75.4364807,
                  6.1772187
                ],
                [
                  -75.4344807,
                  6.1772187
                ],
                [
                  -75.4344807,
                  6.179218700000001
                ],
                [
                  -75.4364807,
                  6.179218700000001
                ],
                [
                  -75.4364807,
                  6.1772187
                ]
              ]
            ],
            [
              [
                [
                  -75.4336162,
                  6.2493549999999995
                ],
                [
                  -75.4316162,
                  6.2493549999999995
                ],
                [
                  -75.4316162,
                  6.251355
                ],
                [
                  -75.4336162,
                  6.251355
                ],
                [
                  -75.4336162,
                  6.2493549999999995
                ]
              ]
            ],
            [
              [
                [
                  -75.555226,
                  6.133627199999999
                ],
                [
                  -75.553226,
                  6.133627199999999
                ],
                [
                  -75.553226,
                  6.1356272
                ],
                [
                  -75.555226,
                  6.1356272
                ],
                [
                  -75.555226,
                  6.133627199999999
                ]
              ]
            ],
            [
              [
                [
                  -75.481297,
                  6.089910199999999
                ],
                [
                  -75.47929699999999,
                  6.089910199999999
                ],
                [
                  -75.47929699999999,
                  6.0919102
                ],
                [
                  -75.481297,
                  6.0919102
                ],
                [
                  -75.481297,
                  6.089910199999999
                ]
              ]
            ],
            [
              [
                [
                  -75.4232837,
                  6.059844
                ],
                [
                  -75.42128369999999,
                  6.059844
                ],
                [
                  -75.42128369999999,
                  6.061844000000001
                ],
                [
                  -75.4232837,
                  6.061844000000001
                ],
                [
                  -75.4232837,
                  6.059844
                ]
              ]
            ],
            [
              [
                [
                  -75.4577368,
                  6.0576535
                ],
                [
                  -75.4557368,
                  6.0576535
                ],
                [
                  -75.4557368,
                  6.0596535000000005
                ],
                [
                  -75.4577368,
                  6.0596535000000005
                ],
                [
                  -75.4577368,
                  6.0576535
                ]
              ]
            ],
            [
              [
                [
                  -75.43430260000001,
                  6.1414703
                ],
                [
                  -75.4323026,
                  6.1414703
                ],
                [
                  -75.4323026,
                  6.143470300000001
                ],
                [
                  -75.43430260000001,
                  6.143470300000001
                ],
                [
                  -75.43430260000001,
                  6.1414703
                ]
              ]
            ],
            [
              [
                [
                  -75.452403,
                  6.112123599999999
                ],
                [
                  -75.450403,
                  6.112123599999999
                ],
                [
                  -75.450403,
                  6.1141236
                ],
                [
                  -75.452403,
                  6.1141236
                ],
                [
                  -75.452403,
                  6.112123599999999
                ]
              ]
            ],
            [
              [
                [
                  -75.6342218,
                  6.0668213
                ],
                [
                  -75.6322218,
                  6.0668213
                ],
                [
                  -75.6322218,
                  6.068821300000001
                ],
                [
                  -75.6342218,
                  6.068821300000001
                ],
                [
                  -75.6342218,
                  6.0668213
                ]
              ]
            ],
            [
              [
                [
                  -75.4502234,
                  6.0178674
                ],
                [
                  -75.44822339999999,
                  6.0178674
                ],
                [
                  -75.44822339999999,
                  6.019867400000001
                ],
                [
                  -75.4502234,
                  6.019867400000001
                ],
                [
                  -75.4502234,
                  6.0178674
                ]
              ]
            ],
            [
              [
                [
                  -75.4329548,
                  6.008317399999999
                ],
                [
                  -75.4309548,
                  6.008317399999999
                ],
                [
                  -75.4309548,
                  6.0103174
                ],
                [
                  -75.4329548,
                  6.0103174
                ],
                [
                  -75.4329548,
                  6.008317399999999
                ]
              ]
            ],
            [
              [
                [
                  -75.4134652,
                  6.022465599999999
                ],
                [
                  -75.4114652,
                  6.022465599999999
                ],
                [
                  -75.4114652,
                  6.0244656
                ],
                [
                  -75.4134652,
                  6.0244656
                ],
                [
                  -75.4134652,
                  6.022465599999999
                ]
              ]
            ],
            [
              [
                [
                  -75.3412419,
                  6.138306399999999
                ],
                [
                  -75.33924189999999,
                  6.138306399999999
                ],
                [
                  -75.33924189999999,
                  6.1403064
                ],
                [
                  -75.3412419,
                  6.1403064
                ],
                [
                  -75.3412419,
                  6.138306399999999
                ]
              ]
            ]
          ],
          "type": "MultiPolygon"
        }
      }
    },
    "engine": {
      "version": "9.5.0",
      "build_date": "2025-10-31T12:33:09Z",
      "graph_date": "2025-12-01T03:52:42Z",
      "osm_date": "2025-11-24T00:59:59Z"
    }
  }
}