{
  "type": "FeatureCollection",
  "bbox": [
    -75.372827,
    6.133821,
    -75.259707,
    6.180047
  ],
  "features": [
    {
      "bbox": [
        -75.372827,
        6.133821,
        -75.259707,
        6.180047
      ],
      "type": "Feature",
      "properties": {
        "way_points": [
          0,
          403
        ],
        "summary": {
          "distance": 19932.9,
          "duration": 2144.2
        }
      },
      "geometry": {
        "coordinates": [
          [
            -75.259811,
            6.136868
          ],
          [
            -75.259707,
            6.137127
          ],
          [
            -75.260218,
            6.137339
          ],
          [
            -75.25983,
            6.138161
          ],
          [
            -75.260004,
            6.138234
          ],
          [
            -75.260367,
            6.138351
          ],
          [
            -75.260936,
            6.138565
          ],
          [
            -75.261053,
            6.138588
          ],
          [
            -75.261154,
            6.138642
          ],
          [
            -75.261256,
            6.138725
          ],
          [
            -75.261308,
            6.138753
          ],
          [
            -75.261376,
            6.138765
          ],
          [
            -75.261597,
            6.138751
          ],
          [
            -75.262118,
            6.13866
          ],
          [
            -75.262263,
            6.138617
          ],
          [
            -75.262419,
            6.138611
          ],
          [
            -75.262573,
            6.138627
          ],
          [
            -75.262785,
            6.138703
          ],
          [
            -75.262888,
            6.138756
          ],
          [
            -75.263236,
            6.138969
          ],
          [
            -75.263603,
            6.139189
          ],
          [
            -75.263733,
            6.139276
          ],
          [
            -75.263763,
            6.139289
          ],
          [
            -75.263804,
            6.139307
          ],
          [
            -75.263833,
            6.13932
          ],
          [
            -75.264705,
            6.1396
          ],
          [
            -75.265162,
            6.139718
          ],
          [
            -75.265207,
            6.139721
          ],
          [
            -75.265835,
            6.139903
          ],
          [
            -75.265945,
            6.139549
          ],
          [
            -75.266017,
            6.139381
          ],
          [
            -75.266081,
            6.139271
          ],
          [
            -75.266331,
            6.138704
          ],
          [
            -75.266409,
            6.138498
          ],
          [
            -75.266589,
            6.137992
          ],
          [
            -75.266747,
            6.137532
          ],
          [
            -75.266775,
            6.137456
          ],
          [
            -75.26685,
            6.137221
          ],
          [
            -75.266908,
            6.137215
          ],
          [
            -75.266951,
            6.137175
          ],
          [
            -75.26728,
            6.137275
          ],
          [
            -75.267475,
            6.137291
          ],
          [
            -75.267658,
            6.137307
          ],
          [
            -75.267886,
            6.13728
          ],
          [
            -75.268387,
            6.136984
          ],
          [
            -75.2687,
            6.136762
          ],
          [
            -75.269099,
            6.136468
          ],
          [
            -75.268957,
            6.136211
          ],
          [
            -75.268986,
            6.136085
          ],
          [
            -75.269172,
            6.135672
          ],
          [
            -75.269396,
            6.135123
          ],
          [
            -75.270347,
            6.134852
          ],
          [
            -75.270692,
            6.134762
          ],
          [
            -75.271316,
            6.134642
          ],
          [
            -75.272625,
            6.134561
          ],
          [
            -75.274148,
            6.134494
          ],
          [
            -75.274522,
            6.134535
          ],
          [
            -75.27478,
            6.134586
          ],
          [
            -75.275019,
            6.13463
          ],
          [
            -75.275454,
            6.134752
          ],
          [
            -75.275621,
            6.134811
          ],
          [
            -75.275884,
            6.134937
          ],
          [
            -75.276646,
            6.135363
          ],
          [
            -75.276914,
            6.135545
          ],
          [
            -75.27706,
            6.135651
          ],
          [
            -75.27732,
            6.135899
          ],
          [
            -75.277596,
            6.136127
          ],
          [
            -75.277781,
            6.136251
          ],
          [
            -75.277976,
            6.136358
          ],
          [
            -75.278179,
            6.136448
          ],
          [
            -75.278766,
            6.136586
          ],
          [
            -75.279032,
            6.136664
          ],
          [
            -75.280077,
            6.13713
          ],
          [
            -75.280594,
            6.137282
          ],
          [
            -75.28083,
            6.137339
          ],
          [
            -75.281087,
            6.137372
          ],
          [
            -75.281647,
            6.137412
          ],
          [
            -75.282065,
            6.137386
          ],
          [
            -75.282551,
            6.13733
          ],
          [
            -75.28513,
            6.136853
          ],
          [
            -75.285495,
            6.136713
          ],
          [
            -75.285818,
            6.136513
          ],
          [
            -75.286126,
            6.136304
          ],
          [
            -75.286453,
            6.136041
          ],
          [
            -75.287071,
            6.135449
          ],
          [
            -75.288072,
            6.134508
          ],
          [
            -75.288453,
            6.134236
          ],
          [
            -75.288859,
            6.134033
          ],
          [
            -75.289225,
            6.13392
          ],
          [
            -75.289531,
            6.13385
          ],
          [
            -75.289797,
            6.133822
          ],
          [
            -75.29024,
            6.133821
          ],
          [
            -75.29088,
            6.133942
          ],
          [
            -75.293578,
            6.134831
          ],
          [
            -75.294081,
            6.1351
          ],
          [
            -75.294565,
            6.135403
          ],
          [
            -75.295001,
            6.135776
          ],
          [
            -75.295777,
            6.136405
          ],
          [
            -75.296441,
            6.137158
          ],
          [
            -75.298838,
            6.140358
          ],
          [
            -75.299218,
            6.140718
          ],
          [
            -75.29997,
            6.141112
          ],
          [
            -75.300641,
            6.141277
          ],
          [
            -75.30129,
            6.141313
          ],
          [
            -75.302672,
            6.141252
          ],
          [
            -75.303401,
            6.141316
          ],
          [
            -75.304683,
            6.141531
          ],
          [
            -75.305043,
            6.141598
          ],
          [
            -75.305431,
            6.141695
          ],
          [
            -75.305912,
            6.141927
          ],
          [
            -75.306168,
            6.142089
          ],
          [
            -75.306628,
            6.142477
          ],
          [
            -75.308181,
            6.144248
          ],
          [
            -75.308842,
            6.145002
          ],
          [
            -75.309163,
            6.145361
          ],
          [
            -75.309704,
            6.145975
          ],
          [
            -75.309973,
            6.146278
          ],
          [
            -75.310017,
            6.146327
          ],
          [
            -75.310068,
            6.146384
          ],
          [
            -75.31133,
            6.147806
          ],
          [
            -75.311863,
            6.148408
          ],
          [
            -75.31209,
            6.148678
          ],
          [
            -75.312427,
            6.149213
          ],
          [
            -75.312613,
            6.149691
          ],
          [
            -75.312715,
            6.150076
          ],
          [
            -75.312736,
            6.150519
          ],
          [
            -75.312677,
            6.152221
          ],
          [
            -75.312671,
            6.152397
          ],
          [
            -75.312743,
            6.153011
          ],
          [
            -75.312872,
            6.153418
          ],
          [
            -75.313066,
            6.153889
          ],
          [
            -75.313303,
            6.154221
          ],
          [
            -75.314293,
            6.155372
          ],
          [
            -75.315149,
            6.156367
          ],
          [
            -75.316063,
            6.157418
          ],
          [
            -75.316598,
            6.158097
          ],
          [
            -75.317828,
            6.159545
          ],
          [
            -75.318274,
            6.160153
          ],
          [
            -75.318667,
            6.160837
          ],
          [
            -75.318896,
            6.161367
          ],
          [
            -75.318989,
            6.161576
          ],
          [
            -75.319101,
            6.161898
          ],
          [
            -75.319248,
            6.16255
          ],
          [
            -75.319607,
            6.164691
          ],
          [
            -75.319651,
            6.164935
          ],
          [
            -75.319783,
            6.165269
          ],
          [
            -75.319967,
            6.165635
          ],
          [
            -75.32029,
            6.16607
          ],
          [
            -75.320585,
            6.166363
          ],
          [
            -75.32077,
            6.166499
          ],
          [
            -75.32103,
            6.166691
          ],
          [
            -75.321197,
            6.166762
          ],
          [
            -75.32179,
            6.167014
          ],
          [
            -75.322734,
            6.167311
          ],
          [
            -75.32489,
            6.168001
          ],
          [
            -75.325551,
            6.168153
          ],
          [
            -75.325807,
            6.168193
          ],
          [
            -75.327842,
            6.168424
          ],
          [
            -75.329544,
            6.168597
          ],
          [
            -75.330172,
            6.168701
          ],
          [
            -75.330759,
            6.168738
          ],
          [
            -75.330866,
            6.168832
          ],
          [
            -75.330936,
            6.16896
          ],
          [
            -75.330985,
            6.169283
          ],
          [
            -75.331128,
            6.169862
          ],
          [
            -75.33117,
            6.170012
          ],
          [
            -75.331211,
            6.170176
          ],
          [
            -75.331241,
            6.1703
          ],
          [
            -75.331307,
            6.170547
          ],
          [
            -75.331613,
            6.17064
          ],
          [
            -75.331915,
            6.170877
          ],
          [
            -75.332517,
            6.171269
          ],
          [
            -75.332733,
            6.171373
          ],
          [
            -75.332839,
            6.171407
          ],
          [
            -75.333106,
            6.171436
          ],
          [
            -75.333589,
            6.171442
          ],
          [
            -75.33415,
            6.171483
          ],
          [
            -75.334451,
            6.171519
          ],
          [
            -75.334612,
            6.171572
          ],
          [
            -75.33473,
            6.171607
          ],
          [
            -75.334907,
            6.171684
          ],
          [
            -75.335325,
            6.171839
          ],
          [
            -75.335611,
            6.171997
          ],
          [
            -75.335872,
            6.17219
          ],
          [
            -75.336095,
            6.172429
          ],
          [
            -75.336339,
            6.172695
          ],
          [
            -75.3364,
            6.172742
          ],
          [
            -75.336632,
            6.172836
          ],
          [
            -75.336708,
            6.172854
          ],
          [
            -75.337054,
            6.172836
          ],
          [
            -75.337173,
            6.17287
          ],
          [
            -75.337487,
            6.172958
          ],
          [
            -75.337593,
            6.172967
          ],
          [
            -75.337806,
            6.172984
          ],
          [
            -75.338075,
            6.173029
          ],
          [
            -75.338244,
            6.173055
          ],
          [
            -75.3386,
            6.17313
          ],
          [
            -75.338902,
            6.17312
          ],
          [
            -75.339385,
            6.173092
          ],
          [
            -75.339663,
            6.173139
          ],
          [
            -75.340058,
            6.17324
          ],
          [
            -75.340257,
            6.173286
          ],
          [
            -75.340817,
            6.173429
          ],
          [
            -75.341094,
            6.173496
          ],
          [
            -75.342198,
            6.173775
          ],
          [
            -75.342382,
            6.173834
          ],
          [
            -75.342835,
            6.174013
          ],
          [
            -75.343823,
            6.174446
          ],
          [
            -75.344117,
            6.174596
          ],
          [
            -75.345162,
            6.175379
          ],
          [
            -75.345261,
            6.175292
          ],
          [
            -75.345313,
            6.175261
          ],
          [
            -75.34549,
            6.175022
          ],
          [
            -75.345733,
            6.174705
          ],
          [
            -75.345786,
            6.174631
          ],
          [
            -75.345954,
            6.174398
          ],
          [
            -75.345989,
            6.174346
          ],
          [
            -75.346104,
            6.174242
          ],
          [
            -75.346218,
            6.174178
          ],
          [
            -75.346296,
            6.174185
          ],
          [
            -75.346372,
            6.174167
          ],
          [
            -75.346442,
            6.174124
          ],
          [
            -75.346486,
            6.174072
          ],
          [
            -75.346514,
            6.174011
          ],
          [
            -75.346524,
            6.173944
          ],
          [
            -75.346514,
            6.173877
          ],
          [
            -75.346515,
            6.17379
          ],
          [
            -75.346531,
            6.173734
          ],
          [
            -75.346593,
            6.173616
          ],
          [
            -75.346675,
            6.173549
          ],
          [
            -75.346781,
            6.173516
          ],
          [
            -75.346894,
            6.173541
          ],
          [
            -75.34718,
            6.173721
          ],
          [
            -75.347428,
            6.17385
          ],
          [
            -75.347641,
            6.174004
          ],
          [
            -75.347831,
            6.174112
          ],
          [
            -75.348202,
            6.174278
          ],
          [
            -75.349305,
            6.174632
          ],
          [
            -75.350074,
            6.174874
          ],
          [
            -75.350641,
            6.175057
          ],
          [
            -75.351375,
            6.175295
          ],
          [
            -75.352559,
            6.175658
          ],
          [
            -75.352882,
            6.175759
          ],
          [
            -75.353869,
            6.176087
          ],
          [
            -75.356982,
            6.177215
          ],
          [
            -75.357711,
            6.177494
          ],
          [
            -75.358725,
            6.177843
          ],
          [
            -75.359203,
            6.177994
          ],
          [
            -75.359836,
            6.178212
          ],
          [
            -75.360178,
            6.178358
          ],
          [
            -75.360334,
            6.178504
          ],
          [
            -75.360376,
            6.178609
          ],
          [
            -75.360462,
            6.178683
          ],
          [
            -75.360554,
            6.178708
          ],
          [
            -75.360649,
            6.178695
          ],
          [
            -75.360692,
            6.178675
          ],
          [
            -75.360952,
            6.178672
          ],
          [
            -75.361049,
            6.178695
          ],
          [
            -75.361396,
            6.178866
          ],
          [
            -75.362047,
            6.179126
          ],
          [
            -75.362669,
            6.179373
          ],
          [
            -75.363003,
            6.179489
          ],
          [
            -75.363345,
            6.179583
          ],
          [
            -75.363695,
            6.179626
          ],
          [
            -75.363962,
            6.179637
          ],
          [
            -75.364384,
            6.179607
          ],
          [
            -75.366102,
            6.179243
          ],
          [
            -75.366282,
            6.179326
          ],
          [
            -75.366373,
            6.17939
          ],
          [
            -75.366446,
            6.179475
          ],
          [
            -75.366549,
            6.179697
          ],
          [
            -75.366635,
            6.179828
          ],
          [
            -75.366724,
            6.179914
          ],
          [
            -75.366827,
            6.179981
          ],
          [
            -75.367019,
            6.180047
          ],
          [
            -75.367198,
            6.179668
          ],
          [
            -75.367251,
            6.179536
          ],
          [
            -75.367456,
            6.179041
          ],
          [
            -75.36749,
            6.178967
          ],
          [
            -75.367568,
            6.178807
          ],
          [
            -75.367726,
            6.178487
          ],
          [
            -75.367895,
            6.17828
          ],
          [
            -75.368482,
            6.17705
          ],
          [
            -75.369059,
            6.175749
          ],
          [
            -75.369459,
            6.174777
          ],
          [
            -75.370463,
            6.172469
          ],
          [
            -75.370594,
            6.172062
          ],
          [
            -75.370582,
            6.171736
          ],
          [
            -75.370513,
            6.171496
          ],
          [
            -75.370364,
            6.171189
          ],
          [
            -75.369794,
            6.170587
          ],
          [
            -75.369317,
            6.170075
          ],
          [
            -75.369164,
            6.169868
          ],
          [
            -75.369075,
            6.169652
          ],
          [
            -75.36899,
            6.169486
          ],
          [
            -75.368748,
            6.16914
          ],
          [
            -75.368485,
            6.16885
          ],
          [
            -75.368392,
            6.16871
          ],
          [
            -75.368301,
            6.168524
          ],
          [
            -75.368245,
            6.168309
          ],
          [
            -75.368184,
            6.167914
          ],
          [
            -75.368049,
            6.167304
          ],
          [
            -75.367927,
            6.167025
          ],
          [
            -75.367759,
            6.166821
          ],
          [
            -75.367312,
            6.1664
          ],
          [
            -75.36721,
            6.166224
          ],
          [
            -75.36711,
            6.165867
          ],
          [
            -75.367009,
            6.165033
          ],
          [
            -75.36696,
            6.164754
          ],
          [
            -75.366947,
            6.164553
          ],
          [
            -75.366962,
            6.164397
          ],
          [
            -75.367034,
            6.16416
          ],
          [
            -75.367096,
            6.163988
          ],
          [
            -75.367171,
            6.163781
          ],
          [
            -75.367485,
            6.162921
          ],
          [
            -75.367524,
            6.162837
          ],
          [
            -75.367617,
            6.162708
          ],
          [
            -75.367679,
            6.162661
          ],
          [
            -75.367724,
            6.162586
          ],
          [
            -75.367736,
            6.162499
          ],
          [
            -75.367717,
            6.162425
          ],
          [
            -75.367722,
            6.162237
          ],
          [
            -75.367781,
            6.162035
          ],
          [
            -75.367932,
            6.161713
          ],
          [
            -75.368002,
            6.161613
          ],
          [
            -75.368159,
            6.161402
          ],
          [
            -75.368322,
            6.161212
          ],
          [
            -75.368446,
            6.161067
          ],
          [
            -75.368634,
            6.160843
          ],
          [
            -75.368745,
            6.160711
          ],
          [
            -75.368939,
            6.160492
          ],
          [
            -75.368969,
            6.160465
          ],
          [
            -75.369007,
            6.160396
          ],
          [
            -75.369171,
            6.160225
          ],
          [
            -75.369277,
            6.160071
          ],
          [
            -75.36932,
            6.159997
          ],
          [
            -75.369415,
            6.15975
          ],
          [
            -75.369501,
            6.159428
          ],
          [
            -75.369562,
            6.159211
          ],
          [
            -75.369574,
            6.159168
          ],
          [
            -75.369659,
            6.15883
          ],
          [
            -75.36968,
            6.158741
          ],
          [
            -75.369728,
            6.158514
          ],
          [
            -75.369828,
            6.158324
          ],
          [
            -75.370095,
            6.157933
          ],
          [
            -75.370424,
            6.157525
          ],
          [
            -75.370722,
            6.156991
          ],
          [
            -75.371022,
            6.156417
          ],
          [
            -75.371243,
            6.155923
          ],
          [
            -75.371508,
            6.155152
          ],
          [
            -75.371537,
            6.154316
          ],
          [
            -75.371574,
            6.153275
          ],
          [
            -75.371551,
            6.152564
          ],
          [
            -75.371474,
            6.152494
          ],
          [
            -75.371354,
            6.152463
          ],
          [
            -75.371194,
            6.152374
          ],
          [
            -75.371031,
            6.152219
          ],
          [
            -75.37098,
            6.152109
          ],
          [
            -75.370897,
            6.152021
          ],
          [
            -75.370819,
            6.151802
          ],
          [
            -75.370788,
            6.151471
          ],
          [
            -75.370822,
            6.151293
          ],
          [
            -75.370879,
            6.151157
          ],
          [
            -75.37097,
            6.151029
          ],
          [
            -75.371082,
            6.150912
          ],
          [
            -75.371865,
            6.150198
          ],
          [
            -75.372029,
            6.150054
          ],
          [
            -75.372481,
            6.149743
          ],
          [
            -75.372547,
            6.149701
          ],
          [
            -75.372613,
            6.149664
          ],
          [
            -75.37271,
            6.149609
          ],
          [
            -75.372827,
            6.149836
          ],
          [
            -75.372665,
            6.149928
          ],
          [
            -75.372592,
            6.149787
          ],
          [
            -75.372547,
            6.149701
          ],
          [
            -75.372502,
            6.149616
          ],
          [
            -75.372458,
            6.149533
          ],
          [
            -75.372402,
            6.149432
          ],
          [
            -75.372301,
            6.149256
          ],
          [
            -75.372272,
            6.149205
          ],
          [
            -75.372072,
            6.148813
          ],
          [
            -75.372025,
            6.148762
          ],
          [
            -75.371858,
            6.148472
          ],
          [
            -75.371731,
            6.148241
          ],
          [
            -75.371622,
            6.148014
          ],
          [
            -75.371502,
            6.147875
          ],
          [
            -75.371396,
            6.147817
          ],
          [
            -75.371329,
            6.147813
          ],
          [
            -75.371209,
            6.147861
          ],
          [
            -75.370956,
            6.148146
          ],
          [
            -75.370833,
            6.148231
          ],
          [
            -75.370459,
            6.148745
          ],
          [
            -75.370337,
            6.148995
          ],
          [
            -75.370293,
            6.149116
          ],
          [
            -75.37026,
            6.149323
          ],
          [
            -75.370247,
            6.149563
          ],
          [
            -75.370201,
            6.149996
          ],
          [
            -75.370124,
            6.150248
          ],
          [
            -75.370055,
            6.150418
          ],
          [
            -75.369959,
            6.150553
          ],
          [
            -75.369863,
            6.150645
          ],
          [
            -75.369705,
            6.15074
          ],
          [
            -75.369315,
            6.150305
          ],
          [
            -75.36923,
            6.150216
          ]
        ],
        "type": "LineString"
      }
    }
  ],
  "metadata": {
    "attribution": "openrouteservice.org | OpenStreetMap contributors",
    "service": "routing",
    "timestamp": 1764859177188,
    "query": {
      "coordinates": [
        [
          -75.2598529,
          6.136884299999999
        ],
        [
          -75.3693569,
          6.150095899999999
        ]
      ],
      "profile": "driving-hgv",
      "profileName": "driving-hgv",
      "preference": "recommended",
      "format": "geojson",
      "language": "es",
      "options": {
        "profile_params": {
          "restrictions": {
            "length": 8.0,
            "width": 2.5,
            "height": 3.5
          },
          "surface_quality_known": false,
          "allow_unsuitable": false
        },
        "avoid_polygons": {
          "coordinates": [
            [
              [
                [
                  -75.53398800000001,
                  6.1525436
                ],
                [
                  -75.531988,
                  6.1525436
                ],
                [
                  -75.531988,
                  6.1545436
                ],
                [
                  -75.53398800000001,
                  6.1545436
                ],
                [
                  -75.53398800000001,
                  6.1525436
                ]
              ]
            ],
            [
              [
                [
                  -75.49099790000001,
                  6.0932509999999995
                ],
                [
                  -75.4889979,
                  6.0932509999999995
                ],
                [
                  -75.4889979,
                  6.095251
                ],
                [
                  -75.49099790000001,
                  6.095251
                ],
                [
                  -75.49099790000001,
                  6.0932509999999995
                ]
              ]
            ],
            [
              [
                [
                  -75.44939930000001,
                  6.1764060999999995
                ],
                [
                  -75.4473993,
                  6.1764060999999995
                ],
                [
                  -75.4473993,
                  6.1784061
                ],
                [
                  -75.44939930000001,
                  6.1784061
                ],
                [
                  -75.44939930000001,
                  6.1764060999999995
                ]
              ]
            ],
            [
              [
                [
                  -75.4890572,
                  6.2037862
                ],
                [
                  -75.4870572,
                  6.2037862
                ],
                [
                  -75.4870572,
                  6.2057862
                ],
                [
                  -75.4890572,
                  6.2057862
                ],
                [
                  -75.4890572,
                  6.2037862
                ]
              ]
            ],
            [
              [
                [
                  -75.46672650000001,
                  6.1850524
                ],
                [
                  -75.4647265,
                  6.1850524
                ],
                [
                  -75.4647265,
                  6.187052400000001
                ],
                [
                  -75.46672650000001,
                  6.187052400000001
                ],
                [
                  -75.46672650000001,
                  6.1850524
                ]
              ]
            ],
            [
              [
                [
                  -75.5035304,
                  6.2159613
                ],
                [
                  -75.5015304,
                  6.2159613
                ],
                [
                  -75.5015304,
                  6.217961300000001
                ],
                [
                  -75.5035304,
                  6.217961300000001
                ],
                [
                  -75.5035304,
                  6.2159613
                ]
              ]
            ],
            [
              [
                [
                  -75.4913478,
                  6.170510299999999
                ],
                [
                  -75.48934779999999,
                  6.170510299999999
                ],
                [
                  -75.48934779999999,
                  6.1725103
                ],
                [
                  -75.4913478,
                  6.1725103
                ],
                [
                  -75.4913478,
                  6.170510299999999
                ]
              ]
            ],
            [
              [
                [
                  -75.5250472,
                  6.1422792
                ],
                [
                  -75.5230472,
                  6.1422792
                ],
                [
                  -75.5230472,
                  6.144279200000001
                ],
                [
                  -75.5250472,
                  6.144279200000001
                ],
                [
                  -75.5250472,
                  6.1422792
                ]
              ]
            ],
            [
              [
                [
                  -75.42459550000001,
                  6.123615999999999
                ],
                [
                  -75.4225955,
                  6.123615999999999
                ],
                [
                  -75.4225955,
                  6.125616
                ],
                [
                  -75.42459550000001,
                  6.125616
                ],
                [
                  -75.42459550000001,
                  6.123615999999999
                ]
              ]
            ],
            [
              [
                [
                  -75.5600752,
                  6.2197343
                ],
                [
                  -75.55807519999999,
                  6.2197343
                ],
                [
                  -75.55807519999999,
                  6.2217343000000005
                ],
                [
                  -75.5600752,
                  6.2217343000000005
                ],
                [
                  -75.5600752,
                  6.2197343
                ]
              ]
            ],
            [
              [
                [
                  -75.4291982,
                  6.0892721
                ],
                [
                  -75.42719819999999,
                  6.0892721
                ],
                [
                  -75.42719819999999,
                  6.0912721
                ],
                [
                  -75.4291982,
                  6.0912721
                ],
                [
                  -75.4291982,
                  6.0892721
                ]
              ]
            ],
            [
              [
                [
                  -75.50124240000001,
                  6.1697112
                ],
                [
                  -75.4992424,
                  6.1697112
                ],
                [
                  -75.4992424,
                  6.171711200000001
                ],
                [
                  -75.50124240000001,
                  6.171711200000001
                ],
                [
                  -75.50124240000001,
                  6.1697112
                ]
              ]
            ],
            [
              [
                [
                  -75.4364807,
                  6.1772187
                ],
                [
                  -75.4344807,
                  6.1772187
                ],
                [
                  -75.4344807,
                  6.179218700000001
                ],
                [
                  -75.4364807,
                  6.179218700000001
                ],
                [
                  -75.4364807,
                  6.1772187
                ]
              ]
            ],
            [
              [
                [
                  -75.4336162,
                  6.2493549999999995
                ],
                [
                  -75.4316162,
                  6.2493549999999995
                ],
                [
                  -75.4316162,
                  6.251355
                ],
                [
                  -75.4336162,
                  6.251355
                ],
                [
                  -75.4336162,
                  6.2493549999999995
                ]
              ]
            ],
            [
              [
                [
                  -75.555226,
                  6.133627199999999
                ],
                [
                  -75.553226,
                  6.133627199999999
                ],
                [
                  -75.553226,
                  6.1356272
                ],
                [
                  -75.555226,
                  6.1356272
                ],
                [
                  -75.555226,
                  6.133627199999999
                ]
              ]
            ],
            [
              [
                [
                  -75.481297,
                  6.089910199999999
                ],
                [
                  -75.47929699999999,
                  6.089910199999999
                ],
                [
                  -75.47929699999999,
                  6.0919102
                ],
                [
                  -75.481297,
                  6.0919102
                ],
                [
                  -75.481297,
                  6.089910199999999
                ]
              ]
            ],
            [
              [
                [
                  -75.4232837,
                  6.059844
                ],
                [
                  -75.42128369999999,
                  6.059844
                ],
                [
                  -75.42128369999999,
                  6.061844000000001
                ],
                [
                  -75.4232837,
                  6.061844000000001
                ],
                [
                  -75.4232837,
                  6.059844
                ]
              ]
            ],
            [
              [
                [
                  -75.4577368,
                  6.0576535
                ],
                [
                  -75.4557368,
                  6.0576535
                ],
                [
                  -75.4557368,
                  6.0596535000000005
                ],
                [
                  -75.4577368,
                  6.0596535000000005
                ],
                [
                  -75.4577368,
                  6.0576535
                ]
              ]
            ],
            [
              [
                [
                  -75.43430260000001,
                  6.1414703
                ],
                [
                  -75.4323026,
                  6.1414703
                ],
                [
                  -75.4323026,
                  6.143470300000001
                ],
                [
                  -75.43430260000001,
                  6.143470300000001
                ],
                [
                  -75.43430260000001,
                  6.1414703
                ]
              ]
            ],
            [
              [
                [
                  -75.452403,
                  6.112123599999999
                ],
                [
                  -75.450403,
                  6.112123599999999
                ],
                [
                  -75.450403,
                  6.1141236
                ],
                [
                  -75.452403,
                  6.1141236
                ],
                [
                  -75.452403,
                  6.112123599999999
                ]
              ]
            ],
            [
              [
                [
                  -75.6342218,
                  6.0668213
                ],
                [
                  -75.6322218,
                  6.0668213
                ],
                [
                  -75.6322218,
                  6.068821300000001
                ],
                [
                  -75.6342218,
                  6.068821300000001
                ],
                [
                  -75.6342218,
                  6.0668213
                ]
              ]
            ],
            [
              [
                [
                  -75.4502234,
                  6.0178674
                ],
                [
                  -75.44822339999999,
                  6.0178674
                ],
                [
                  -75.44822339999999,
                  6.019867400000001
                ],
                [
                  -75.4502234,
                  6.019867400000001
                ],
                [
                  -75.4502234,
                  6.0178674
                ]
              ]
            ],
            [
              [
                [
                  -75.4329548,
                  6.008317399999999
                ],
                [
                  -75.4309548,
                  6.008317399999999
                ],
                [
                  -75.4309548,
                  6.0103174
                ],
                [
                  -75.4329548,
                  6.0103174
                ],
                [
                  -75.4329548,
                  6.008317399999999
                ]
              ]
            ],
            [
              [
                [
                  -75.4134652,
                  6.022465599999999
                ],
                [
                  -75.4114652,
                  6.022465599999999
                ],
                [
                  -75.4114652,
                  6.0244656
                ],
                [
                  -75.4134652,
                  6.0244656
                ],
                [
                  -75.4134652,
                  6.022465599999999
                ]
              ]
            ],
            [
              [
                [
                  -75.3412419,
                  6.138306399999999
                ],
                [
                  -75.33924189999999,
                  6.138306399999999
                ],
                [
                  -75.33924189999999,
                  6.1403064
                ],
                [
                  -75.3412419,
                  6.1403064
                ],
                [
                  -75.3412419,
                  6.138306399999999
                ]
              ]
            ]
          ],
          "type": "MultiPolygon"
        }
      }
    },
    "engine": {
      "version": "9.5.0",
      "build_date": "2025-10-31T12:33:09Z",
      "graph_date": "2025-12-01T03:52:42Z",
      "osm_date": "2025-11-24T00:59:59Z"
    }
  }
}