{
  "type": "FeatureCollection",
  "bbox": [
    -75.372827,
    6.147813,
    -75.367034,
    6.164426
  ],
  "features": [
    {
      "bbox": [
        -75.372827,
        6.147813,
        -75.367034,
        6.164426
      ],
      "type": "Feature",
      "properties": {
        "way_points": [
          0,
          94
        ],
        "summary": {
          "distance": 2726.0,
          "duration": 338.1
        }
      },
      "geometry": {
        "coordinates": [
          [
            -75.367068,
            6.164426
          ],
          [
            -75.367119,
            6.164203
          ],
          [
            -75.367034,
            6.16416
          ],
          [
            -75.367096,
            6.163988
          ],
          [
            -75.367171,
            6.163781
          ],
          [
            -75.367485,
            6.162921
          ],
          [
            -75.367524,
            6.162837
          ],
          [
            -75.367617,
            6.162708
          ],
          [
            -75.367679,
            6.162661
          ],
          [
            -75.367724,
            6.162586
          ],
          [
            -75.367736,
            6.162499
          ],
          [
            -75.367717,
            6.162425
          ],
          [
            -75.367722,
            6.162237
          ],
          [
            -75.367781,
            6.162035
          ],
          [
            -75.367932,
            6.161713
          ],
          [
            -75.368002,
            6.161613
          ],
          [
            -75.368159,
            6.161402
          ],
          [
            -75.368322,
            6.161212
          ],
          [
            -75.368446,
            6.161067
          ],
          [
            -75.368634,
            6.160843
          ],
          [
            -75.368745,
            6.160711
          ],
          [
            -75.368939,
            6.160492
          ],
          [
            -75.368969,
            6.160465
          ],
          [
            -75.369007,
            6.160396
          ],
          [
            -75.369171,
            6.160225
          ],
          [
            -75.369277,
            6.160071
          ],
          [
            -75.36932,
            6.159997
          ],
          [
            -75.369415,
            6.15975
          ],
          [
            -75.369501,
            6.159428
          ],
          [
            -75.369562,
            6.159211
          ],
          [
            -75.369574,
            6.159168
          ],
          [
            -75.369659,
            6.15883
          ],
          [
            -75.36968,
            6.158741
          ],
          [
            -75.369728,
            6.158514
          ],
          [
            -75.369828,
            6.158324
          ],
          [
            -75.370095,
            6.157933
          ],
          [
            -75.370424,
            6.157525
          ],
          [
            -75.370722,
            6.156991
          ],
          [
            -75.371022,
            6.156417
          ],
          [
            -75.371243,
            6.155923
          ],
          [
            -75.371508,
            6.155152
          ],
          [
            -75.371537,
            6.154316
          ],
          [
            -75.371574,
            6.153275
          ],
          [
            -75.371551,
            6.152564
          ],
          [
            -75.371474,
            6.152494
          ],
          [
            -75.371354,
            6.152463
          ],
          [
            -75.371194,
            6.152374
          ],
          [
            -75.371031,
            6.152219
          ],
          [
            -75.37098,
            6.152109
          ],
          [
            -75.370897,
            6.152021
          ],
          [
            -75.370819,
            6.151802
          ],
          [
            -75.370788,
            6.151471
          ],
          [
            -75.370822,
            6.151293
          ],
          [
            -75.370879,
            6.151157
          ],
          [
            -75.37097,
            6.151029
          ],
          [
            -75.371082,
            6.150912
          ],
          [
            -75.371865,
            6.150198
          ],
          [
            -75.372029,
            6.150054
          ],
          [
            -75.372481,
            6.149743
          ],
          [
            -75.372547,
            6.149701
          ],
          [
            -75.372613,
            6.149664
          ],
          [
            -75.37271,
            6.149609
          ],
          [
            -75.372827,
            6.149836
          ],
          [
            -75.372665,
            6.149928
          ],
          [
            -75.372592,
            6.149787
          ],
          [
            -75.372547,
            6.149701
          ],
          [
            -75.372502,
            6.149616
          ],
          [
            -75.372458,
            6.149533
          ],
          [
            -75.372402,
            6.149432
          ],
          [
            -75.372301,
            6.149256
          ],
          [
            -75.372272,
            6.149205
          ],
          [
            -75.372072,
            6.148813
          ],
          [
            -75.372025,
            6.148762
          ],
          [
            -75.371858,
            6.148472
          ],
          [
            -75.371731,
            6.148241
          ],
          [
            -75.371622,
            6.148014
          ],
          [
            -75.371502,
            6.147875
          ],
          [
            -75.371396,
            6.147817
          ],
          [
            -75.371329,
            6.147813
          ],
          [
            -75.371209,
            6.147861
          ],
          [
            -75.370956,
            6.148146
          ],
          [
            -75.370833,
            6.148231
          ],
          [
            -75.370459,
            6.148745
          ],
          [
            -75.370337,
            6.148995
          ],
          [
            -75.370293,
            6.149116
          ],
          [
            -75.37026,
            6.149323
          ],
          [
            -75.370247,
            6.149563
          ],
          [
            -75.370201,
            6.149996
          ],
          [
            -75.370124,
            6.150248
          ],
          [
            -75.370055,
            6.150418
          ],
          [
            -75.369959,
            6.150553
          ],
          [
            -75.369863,
            6.150645
          ],
          [
            -75.369705,
            6.15074
          ],
          [
            -75.369315,
            6.150305
          ],
          [
            -75.36923,
            6.150216
          ]
        ],
        "type": "LineString"
      }
    }
  ],
  "metadata": {
    "attribution": "openrouteservice.org | OpenStreetMap contributors",
    "service": "routing",
    "timestamp": 1764859465994,
    "query": {
      "coordinates": [
        [
          -75.3671169,
          6.1644366
        ],
        [
          -75.3693569,
          6.150095899999999
        ]
      ],
      "profile": "driving-hgv",
      "profileName": "driving-hgv",
      "preference": "recommended",
      "format": "geojson",
      "language": "es",
      "options": {
        "profile_params": {
          "restrictions": {
            "length": 8.0,
            "width": 2.5,
            "height": 3.5
          },
          "surface_quality_known": false,
          "allow_unsuitable": false
        },
        "avoid_polygons": {
          "coordinates": [
            [
              [
                [
                  -75.53398800000001,
                  6.1525436
                ],
                [
                  -75.531988,
                  6.1525436
                ],
                [
                  -75.531988,
                  6.1545436
                ],
                [
                  -75.53398800000001,
                  6.1545436
                ],
                [
                  -75.53398800000001,
                  6.1525436
                ]
              ]
            ],
            [
              [
                [
                  -75.49099790000001,
                  6.0932509999999995
                ],
                [
                  -75.4889979,
                  6.0932509999999995
                ],
                [
                  -75.4889979,
                  6.095251
                ],
                [
                  -75.49099790000001,
                  6.095251
                ],
                [
                  -75.49099790000001,
                  6.0932509999999995
                ]
              ]
            ],
            [
              [
                [
                  -75.44939930000001,
                  6.1764060999999995
                ],
                [
                  -75.4473993,
                  6.1764060999999995
                ],
                [
                  -75.4473993,
                  6.1784061
                ],
                [
                  -75.44939930000001,
                  6.1784061
                ],
                [
                  -75.44939930000001,
                  6.1764060999999995
                ]
              ]
            ],
            [
              [
                [
                  -75.4890572,
                  6.2037862
                ],
                [
                  -75.4870572,
                  6.2037862
                ],
                [
                  -75.4870572,
                  6.2057862
                ],
                [
                  -75.4890572,
                  6.2057862
                ],
                [
                  -75.4890572,
                  6.2037862
                ]
              ]
            ],
            [
              [
                [
                  -75.46672650000001,
                  6.1850524
                ],
                [
                  -75.4647265,
                  6.1850524
                ],
                [
                  -75.4647265,
                  6.187052400000001
                ],
                [
                  -75.46672650000001,
                  6.187052400000001
                ],
                [
                  -75.46672650000001,
                  6.1850524
                ]
              ]
            ],
            [
              [
                [
                  -75.5035304,
                  6.2159613
                ],
                [
                  -75.5015304,
                  6.2159613
                ],
                [
                  -75.5015304,
                  6.217961300000001
                ],
                [
                  -75.5035304,
                  6.217961300000001
                ],
                [
                  -75.5035304,
                  6.2159613
                ]
              ]
            ],
            [
              [
                [
                  -75.4913478,
                  6.170510299999999
                ],
                [
                  -75.48934779999999,
                  6.170510299999999
                ],
                [
                  -75.48934779999999,
                  6.1725103
                ],
                [
                  -75.4913478,
                  6.1725103
                ],
                [
                  -75.4913478,
                  6.170510299999999
                ]
              ]
            ],
            [
              [
                [
                  -75.5250472,
                  6.1422792
                ],
                [
                  -75.5230472,
                  6.1422792
                ],
                [
                  -75.5230472,
                  6.144279200000001
                ],
                [
                  -75.5250472,
                  6.144279200000001
                ],
                [
                  -75.5250472,
                  6.1422792
                ]
              ]
            ],
            [
              [
                [
                  -75.42459550000001,
                  6.123615999999999
                ],
                [
                  -75.4225955,
                  6.123615999999999
                ],
                [
                  -75.4225955,
                  6.125616
                ],
                [
                  -75.42459550000001,
                  6.125616
                ],
                [
                  -75.42459550000001,
                  6.123615999999999
                ]
              ]
            ],
            [
              [
                [
                  -75.5600752,
                  6.2197343
                ],
                [
                  -75.55807519999999,
                  6.2197343
                ],
                [
                  -75.55807519999999,
                  6.2217343000000005
                ],
                [
                  -75.5600752,
                  6.2217343000000005
                ],
                [
                  -75.5600752,
                  6.2197343
                ]
              ]
            ],
            [
              [
                [
                  -75.4291982,
                  6.0892721
                ],
                [
                  -75.42719819999999,
                  6.0892721
                ],
                [
                  -75.42719819999999,
                  6.0912721
                ],
                [
                  -75.4291982,
                  6.0912721
                ],
                [
                  -75.4291982,
                  6.0892721
                ]
              ]
            ],
            [
              [
                [
                  -75.50124240000001,
                  6.1697112
                ],
                [
                  -75.4992424,
                  6.1697112
                ],
                [
                  -75.4992424,
                  6.171711200000001
                ],
                [
                  -75.50124240000001,
                  6.171711200000001
                ],
                [
                  -75.50124240000001,
                  6.1697112
                ]
              ]
            ],
            [
              [
                [
                  -75.4364807,
                  6.1772187
                ],
                [
                  -75.4344807,
                  6.1772187
                ],
                [
                  -75.4344807,
                  6.179218700000001
                ],
                [
                  -75.4364807,
                  6.179218700000001
                ],
                [
                  -75.4364807,
                  6.1772187
                ]
              ]
            ],
            [
              [
                [
                  -75.4336162,
                  6.2493549999999995
                ],
                [
                  -75.4316162,
                  6.2493549999999995
                ],
                [
                  -75.4316162,
                  6.251355
                ],
                [
                  -75.4336162,
                  6.251355
                ],
                [
                  -75.4336162,
                  6.2493549999999995
                ]
              ]
            ],
            [
              [
                [
                  -75.555226,
                  6.133627199999999
                ],
                [
                  -75.553226,
                  6.133627199999999
                ],
                [
                  -75.553226,
                  6.1356272
                ],
                [
                  -75.555226,
                  6.1356272
                ],
                [
                  -75.555226,
                  6.133627199999999
                ]
              ]
            ],
            [
              [
                [
                  -75.481297,
                  6.089910199999999
                ],
                [
                  -75.47929699999999,
                  6.089910199999999
                ],
                [
                  -75.47929699999999,
                  6.0919102
                ],
                [
                  -75.481297,
                  6.0919102
                ],
                [
                  -75.481297,
                  6.089910199999999
                ]
              ]
            ],
            [
              [
                [
                  -75.4232837,
                  6.059844
                ],
                [
                  -75.42128369999999,
                  6.059844
                ],
                [
                  -75.42128369999999,
                  6.061844000000001
                ],
                [
                  -75.4232837,
                  6.061844000000001
                ],
                [
                  -75.4232837,
                  6.059844
                ]
              ]
            ],
            [
              [
                [
                  -75.4577368,
                  6.0576535
                ],
                [
                  -75.4557368,
                  6.0576535
                ],
                [
                  -75.4557368,
                  6.0596535000000005
                ],
                [
                  -75.4577368,
                  6.0596535000000005
                ],
                [
                  -75.4577368,
                  6.0576535
                ]
              ]
            ],
            [
              [
                [
                  -75.43430260000001,
                  6.1414703
                ],
                [
                  -75.4323026,
                  6.1414703
                ],
                [
                  -75.4323026,
                  6.143470300000001
                ],
                [
                  -75.43430260000001,
                  6.143470300000001
                ],
                [
                  -75.43430260000001,
                  6.1414703
                ]
              ]
            ],
            [
              [
                [
                  -75.452403,
                  6.112123599999999
                ],
                [
                  -75.450403,
                  6.112123599999999
                ],
                [
                  -75.450403,
                  6.1141236
                ],
                [
                  -75.452403,
                  6.1141236
                ],
                [
                  -75.452403,
                  6.112123599999999
                ]
              ]
            ],
            [
              [
                [
                  -75.6342218,
                  6.0668213
                ],
                [
                  -75.6322218,
                  6.0668213
                ],
                [
                  -75.6322218,
                  6.068821300000001
                ],
                [
                  -75.6342218,
                  6.068821300000001
                ],
                [
                  -75.6342218,
                  6.0668213
                ]
              ]
            ],
            [
              [
                [
                  -75.4502234,
                  6.0178674
                ],
                [
                  -75.44822339999999,
                  6.0178674
                ],
                [
                  -75.44822339999999,
                  6.019867400000001
                ],
                [
                  -75.4502234,
                  6.019867400000001
                ],
                [
                  -75.4502234,
                  6.0178674
                ]
              ]
            ],
            [
              [
                [
                  -75.4329548,
                  6.008317399999999
                ],
                [
                  -75.4309548,
                  6.008317399999999
                ],
                [
                  -75.4309548,
                  6.0103174
                ],
                [
                  -75.4329548,
                  6.0103174
                ],
                [
                  -75.4329548,
                  6.008317399999999
                ]
              ]
            ],
            [
              [
                [
                  -75.4134652,
                  6.022465599999999
                ],
                [
                  -75.4114652,
                  6.022465599999999
                ],
                [
                  -75.4114652,
                  6.0244656
                ],
                [
                  -75.4134652,
                  6.0244656
                ],
                [
                  -75.4134652,
                  6.022465599999999
                ]
              ]
            ],
            [
              [
                [
                  -75.3412419,
                  6.138306399999999
                ],
                [
                  -75.33924189999999,
                  6.138306399999999
                ],
                [
                  -75.33924189999999,
                  6.1403064
                ],
                [
                  -75.3412419,
                  6.1403064
                ],
                [
                  -75.3412419,
                  6.138306399999999
                ]
              ]
            ]
          ],
          "type": "MultiPolygon"
        }
      }
    },
    "engine": {
      "version": "9.5.0",
      "build_date": "2025-10-31T12:33:09Z",
      "graph_date": "2025-12-01T03:52:42Z",
      "osm_date": "2025-11-24T00:59:59Z"
    }
  }
}