{
  "type": "FeatureCollection",
  "bbox": [
    -75.572604,
    6.218094,
    -75.569243,
    6.238118
  ],
  "features": [
    {
      "bbox": [
        -75.572604,
        6.218094,
        -75.569243,
        6.238118
      ],
      "type": "Feature",
      "properties": {
        "way_points": [
          0,
          39
        ],
        "summary": {
          "distance": 2821.3,
          "duration": 313.9
        }
      },
      "geometry": {
        "coordinates": [
          [
            -75.571586,
            6.238118
          ],
          [
            -75.571695,
            6.237859
          ],
          [
            -75.571739,
            6.237749
          ],
          [
            -75.571007,
            6.237444
          ],
          [
            -75.571284,
            6.236758
          ],
          [
            -75.570576,
            6.236463
          ],
          [
            -75.57044,
            6.236376
          ],
          [
            -75.570372,
            6.236261
          ],
          [
            -75.570296,
            6.235283
          ],
          [
            -75.570225,
            6.234832
          ],
          [
            -75.570204,
            6.234466
          ],
          [
            -75.570178,
            6.234005
          ],
          [
            -75.570027,
            6.231662
          ],
          [
            -75.569986,
            6.23123
          ],
          [
            -75.569887,
            6.229844
          ],
          [
            -75.56977,
            6.229171
          ],
          [
            -75.569701,
            6.228399
          ],
          [
            -75.569287,
            6.227018
          ],
          [
            -75.569261,
            6.226878
          ],
          [
            -75.569243,
            6.226539
          ],
          [
            -75.569272,
            6.225943
          ],
          [
            -75.569283,
            6.224294
          ],
          [
            -75.56929,
            6.223396
          ],
          [
            -75.569311,
            6.223057
          ],
          [
            -75.569573,
            6.223204
          ],
          [
            -75.569934,
            6.223408
          ],
          [
            -75.570478,
            6.223704
          ],
          [
            -75.570759,
            6.223858
          ],
          [
            -75.571137,
            6.224065
          ],
          [
            -75.571236,
            6.224149
          ],
          [
            -75.571271,
            6.224197
          ],
          [
            -75.571345,
            6.224206
          ],
          [
            -75.571396,
            6.224152
          ],
          [
            -75.571392,
            6.224092
          ],
          [
            -75.571433,
            6.223734
          ],
          [
            -75.571811,
            6.219976
          ],
          [
            -75.571888,
            6.219234
          ],
          [
            -75.57194,
            6.218764
          ],
          [
            -75.572022,
            6.218094
          ],
          [
            -75.572604,
            6.218152
          ]
        ],
        "type": "LineString"
      }
    }
  ],
  "metadata": {
    "attribution": "openrouteservice.org | OpenStreetMap contributors",
    "service": "routing",
    "timestamp": 1765570650591,
    "query": {
      "coordinates": [
        [
          -75.571634,
          6.238138
        ],
        [
          -75.5726194,
          6.2180009
        ]
      ],
      "profile": "driving-hgv",
      "profileName": "driving-hgv",
      "preference": "recommended",
      "format": "geojson",
      "language": "es"
    },
    "engine": {
      "version": "9.5.0",
      "build_date": "2025-10-31T12:33:09Z",
      "graph_date": "2025-12-01T03:52:42Z",
      "osm_date": "2025-11-24T00:59:59Z"
    }
  }
}