{
  "type": "FeatureCollection",
  "bbox": [
    -75.370247,
    6.14898,
    -75.334408,
    6.178263
  ],
  "features": [
    {
      "bbox": [
        -75.370247,
        6.14898,
        -75.334408,
        6.178263
      ],
      "type": "Feature",
      "properties": {
        "way_points": [
          0,
          189
        ],
        "summary": {
          "distance": 7832.3,
          "duration": 888.6
        }
      },
      "geometry": {
        "coordinates": [
          [
            -75.36923,
            6.150216
          ],
          [
            -75.3689,
            6.149874
          ],
          [
            -75.36926,
            6.149423
          ],
          [
            -75.369606,
            6.14898
          ],
          [
            -75.370247,
            6.149563
          ],
          [
            -75.370201,
            6.149996
          ],
          [
            -75.370124,
            6.150248
          ],
          [
            -75.370055,
            6.150418
          ],
          [
            -75.369959,
            6.150553
          ],
          [
            -75.369863,
            6.150645
          ],
          [
            -75.369705,
            6.15074
          ],
          [
            -75.369056,
            6.151035
          ],
          [
            -75.368769,
            6.151178
          ],
          [
            -75.367715,
            6.151711
          ],
          [
            -75.367014,
            6.152089
          ],
          [
            -75.36677,
            6.152292
          ],
          [
            -75.366653,
            6.152441
          ],
          [
            -75.366532,
            6.15272
          ],
          [
            -75.366503,
            6.152836
          ],
          [
            -75.366489,
            6.153103
          ],
          [
            -75.366529,
            6.15345
          ],
          [
            -75.366598,
            6.153624
          ],
          [
            -75.366722,
            6.15383
          ],
          [
            -75.366836,
            6.153971
          ],
          [
            -75.367043,
            6.154185
          ],
          [
            -75.367162,
            6.154332
          ],
          [
            -75.367225,
            6.154457
          ],
          [
            -75.367276,
            6.154603
          ],
          [
            -75.367279,
            6.154729
          ],
          [
            -75.367271,
            6.154799
          ],
          [
            -75.367246,
            6.155037
          ],
          [
            -75.367257,
            6.155099
          ],
          [
            -75.367317,
            6.155231
          ],
          [
            -75.367325,
            6.15529
          ],
          [
            -75.367315,
            6.155328
          ],
          [
            -75.36729,
            6.15537
          ],
          [
            -75.367221,
            6.155428
          ],
          [
            -75.367106,
            6.155493
          ],
          [
            -75.366761,
            6.155606
          ],
          [
            -75.366545,
            6.155643
          ],
          [
            -75.36589,
            6.155694
          ],
          [
            -75.365756,
            6.155713
          ],
          [
            -75.365564,
            6.155772
          ],
          [
            -75.365326,
            6.155917
          ],
          [
            -75.365207,
            6.156019
          ],
          [
            -75.365111,
            6.156173
          ],
          [
            -75.365006,
            6.15652
          ],
          [
            -75.364901,
            6.156922
          ],
          [
            -75.364821,
            6.157226
          ],
          [
            -75.364741,
            6.157573
          ],
          [
            -75.364733,
            6.157657
          ],
          [
            -75.364757,
            6.157928
          ],
          [
            -75.364796,
            6.158111
          ],
          [
            -75.364917,
            6.158495
          ],
          [
            -75.364996,
            6.158678
          ],
          [
            -75.365232,
            6.159051
          ],
          [
            -75.365555,
            6.159457
          ],
          [
            -75.365636,
            6.159582
          ],
          [
            -75.365683,
            6.159666
          ],
          [
            -75.365718,
            6.159807
          ],
          [
            -75.365735,
            6.159962
          ],
          [
            -75.365714,
            6.160171
          ],
          [
            -75.365678,
            6.1603
          ],
          [
            -75.365564,
            6.160508
          ],
          [
            -75.365493,
            6.16059
          ],
          [
            -75.365385,
            6.160689
          ],
          [
            -75.364899,
            6.160992
          ],
          [
            -75.364663,
            6.161179
          ],
          [
            -75.364218,
            6.161602
          ],
          [
            -75.36359,
            6.162247
          ],
          [
            -75.361735,
            6.164127
          ],
          [
            -75.361613,
            6.164309
          ],
          [
            -75.361474,
            6.164651
          ],
          [
            -75.36137,
            6.164848
          ],
          [
            -75.36125,
            6.164933
          ],
          [
            -75.361186,
            6.165022
          ],
          [
            -75.361151,
            6.165125
          ],
          [
            -75.361147,
            6.165239
          ],
          [
            -75.361178,
            6.165349
          ],
          [
            -75.36124,
            6.165444
          ],
          [
            -75.361328,
            6.165518
          ],
          [
            -75.361434,
            6.165561
          ],
          [
            -75.361541,
            6.165653
          ],
          [
            -75.361603,
            6.165741
          ],
          [
            -75.361681,
            6.165931
          ],
          [
            -75.36298,
            6.169712
          ],
          [
            -75.363095,
            6.169993
          ],
          [
            -75.36377,
            6.17119
          ],
          [
            -75.363838,
            6.171339
          ],
          [
            -75.363881,
            6.171485
          ],
          [
            -75.363894,
            6.171678
          ],
          [
            -75.363878,
            6.171837
          ],
          [
            -75.363799,
            6.172028
          ],
          [
            -75.363113,
            6.172811
          ],
          [
            -75.362925,
            6.173048
          ],
          [
            -75.362821,
            6.173195
          ],
          [
            -75.362732,
            6.173401
          ],
          [
            -75.362532,
            6.17381
          ],
          [
            -75.362408,
            6.17404
          ],
          [
            -75.362157,
            6.174578
          ],
          [
            -75.361936,
            6.175285
          ],
          [
            -75.36177,
            6.175773
          ],
          [
            -75.361666,
            6.176066
          ],
          [
            -75.361472,
            6.176489
          ],
          [
            -75.361396,
            6.176666
          ],
          [
            -75.361203,
            6.177077
          ],
          [
            -75.361006,
            6.177507
          ],
          [
            -75.360815,
            6.177928
          ],
          [
            -75.360689,
            6.178133
          ],
          [
            -75.360614,
            6.178202
          ],
          [
            -75.36056,
            6.178236
          ],
          [
            -75.360525,
            6.17824
          ],
          [
            -75.360459,
            6.178263
          ],
          [
            -75.360223,
            6.178233
          ],
          [
            -75.358878,
            6.177769
          ],
          [
            -75.357971,
            6.177445
          ],
          [
            -75.35773,
            6.177359
          ],
          [
            -75.357564,
            6.177308
          ],
          [
            -75.356487,
            6.176906
          ],
          [
            -75.356401,
            6.176874
          ],
          [
            -75.35482,
            6.176317
          ],
          [
            -75.353895,
            6.175981
          ],
          [
            -75.352936,
            6.17566
          ],
          [
            -75.352101,
            6.175392
          ],
          [
            -75.35148,
            6.175194
          ],
          [
            -75.350161,
            6.174781
          ],
          [
            -75.349739,
            6.174649
          ],
          [
            -75.349512,
            6.174578
          ],
          [
            -75.349275,
            6.174504
          ],
          [
            -75.348435,
            6.174233
          ],
          [
            -75.348055,
            6.174089
          ],
          [
            -75.347853,
            6.173981
          ],
          [
            -75.347659,
            6.173854
          ],
          [
            -75.346763,
            6.173173
          ],
          [
            -75.346501,
            6.172976
          ],
          [
            -75.346101,
            6.17273
          ],
          [
            -75.345853,
            6.172595
          ],
          [
            -75.345549,
            6.172481
          ],
          [
            -75.345086,
            6.172351
          ],
          [
            -75.344134,
            6.172148
          ],
          [
            -75.343808,
            6.172063
          ],
          [
            -75.34338,
            6.17191
          ],
          [
            -75.342995,
            6.171704
          ],
          [
            -75.342624,
            6.171451
          ],
          [
            -75.342439,
            6.171323
          ],
          [
            -75.341472,
            6.170511
          ],
          [
            -75.341272,
            6.170341
          ],
          [
            -75.341199,
            6.170309
          ],
          [
            -75.34066,
            6.169942
          ],
          [
            -75.340609,
            6.169931
          ],
          [
            -75.340576,
            6.169943
          ],
          [
            -75.340556,
            6.169978
          ],
          [
            -75.340585,
            6.17004
          ],
          [
            -75.341077,
            6.170373
          ],
          [
            -75.341121,
            6.17045
          ],
          [
            -75.341185,
            6.170503
          ],
          [
            -75.340878,
            6.170669
          ],
          [
            -75.340511,
            6.17075
          ],
          [
            -75.339769,
            6.170863
          ],
          [
            -75.339508,
            6.170898
          ],
          [
            -75.339265,
            6.170932
          ],
          [
            -75.339111,
            6.170945
          ],
          [
            -75.338889,
            6.171012
          ],
          [
            -75.338782,
            6.171063
          ],
          [
            -75.338702,
            6.171136
          ],
          [
            -75.338446,
            6.171473
          ],
          [
            -75.338402,
            6.171509
          ],
          [
            -75.33831,
            6.171605
          ],
          [
            -75.338119,
            6.171756
          ],
          [
            -75.337971,
            6.172281
          ],
          [
            -75.337536,
            6.172275
          ],
          [
            -75.33679,
            6.17236
          ],
          [
            -75.336662,
            6.17232
          ],
          [
            -75.336426,
            6.172108
          ],
          [
            -75.336369,
            6.172046
          ],
          [
            -75.336141,
            6.171862
          ],
          [
            -75.336084,
            6.17175
          ],
          [
            -75.336046,
            6.17159
          ],
          [
            -75.336018,
            6.171531
          ],
          [
            -75.335841,
            6.171311
          ],
          [
            -75.335871,
            6.171267
          ],
          [
            -75.335886,
            6.17121
          ],
          [
            -75.335878,
            6.171152
          ],
          [
            -75.33585,
            6.171101
          ],
          [
            -75.335805,
            6.171063
          ],
          [
            -75.335769,
            6.171016
          ],
          [
            -75.335634,
            6.170945
          ],
          [
            -75.334408,
            6.170321
          ],
          [
            -75.334656,
            6.169877
          ],
          [
            -75.334605,
            6.169851
          ]
        ],
        "type": "LineString"
      }
    }
  ],
  "metadata": {
    "attribution": "openrouteservice.org | OpenStreetMap contributors",
    "service": "routing",
    "timestamp": 1764859107165,
    "query": {
      "coordinates": [
        [
          -75.3693569,
          6.150095899999999
        ],
        [
          -75.33459119999999,
          6.169877899999999
        ]
      ],
      "profile": "driving-hgv",
      "profileName": "driving-hgv",
      "preference": "recommended",
      "format": "geojson",
      "language": "es",
      "options": {
        "profile_params": {
          "restrictions": {
            "length": 8.0,
            "width": 2.5,
            "height": 3.5
          },
          "surface_quality_known": false,
          "allow_unsuitable": false
        },
        "avoid_polygons": {
          "coordinates": [
            [
              [
                [
                  -75.53398800000001,
                  6.1525436
                ],
                [
                  -75.531988,
                  6.1525436
                ],
                [
                  -75.531988,
                  6.1545436
                ],
                [
                  -75.53398800000001,
                  6.1545436
                ],
                [
                  -75.53398800000001,
                  6.1525436
                ]
              ]
            ],
            [
              [
                [
                  -75.49099790000001,
                  6.0932509999999995
                ],
                [
                  -75.4889979,
                  6.0932509999999995
                ],
                [
                  -75.4889979,
                  6.095251
                ],
                [
                  -75.49099790000001,
                  6.095251
                ],
                [
                  -75.49099790000001,
                  6.0932509999999995
                ]
              ]
            ],
            [
              [
                [
                  -75.44939930000001,
                  6.1764060999999995
                ],
                [
                  -75.4473993,
                  6.1764060999999995
                ],
                [
                  -75.4473993,
                  6.1784061
                ],
                [
                  -75.44939930000001,
                  6.1784061
                ],
                [
                  -75.44939930000001,
                  6.1764060999999995
                ]
              ]
            ],
            [
              [
                [
                  -75.4890572,
                  6.2037862
                ],
                [
                  -75.4870572,
                  6.2037862
                ],
                [
                  -75.4870572,
                  6.2057862
                ],
                [
                  -75.4890572,
                  6.2057862
                ],
                [
                  -75.4890572,
                  6.2037862
                ]
              ]
            ],
            [
              [
                [
                  -75.46672650000001,
                  6.1850524
                ],
                [
                  -75.4647265,
                  6.1850524
                ],
                [
                  -75.4647265,
                  6.187052400000001
                ],
                [
                  -75.46672650000001,
                  6.187052400000001
                ],
                [
                  -75.46672650000001,
                  6.1850524
                ]
              ]
            ],
            [
              [
                [
                  -75.5035304,
                  6.2159613
                ],
                [
                  -75.5015304,
                  6.2159613
                ],
                [
                  -75.5015304,
                  6.217961300000001
                ],
                [
                  -75.5035304,
                  6.217961300000001
                ],
                [
                  -75.5035304,
                  6.2159613
                ]
              ]
            ],
            [
              [
                [
                  -75.4913478,
                  6.170510299999999
                ],
                [
                  -75.48934779999999,
                  6.170510299999999
                ],
                [
                  -75.48934779999999,
                  6.1725103
                ],
                [
                  -75.4913478,
                  6.1725103
                ],
                [
                  -75.4913478,
                  6.170510299999999
                ]
              ]
            ],
            [
              [
                [
                  -75.5250472,
                  6.1422792
                ],
                [
                  -75.5230472,
                  6.1422792
                ],
                [
                  -75.5230472,
                  6.144279200000001
                ],
                [
                  -75.5250472,
                  6.144279200000001
                ],
                [
                  -75.5250472,
                  6.1422792
                ]
              ]
            ],
            [
              [
                [
                  -75.42459550000001,
                  6.123615999999999
                ],
                [
                  -75.4225955,
                  6.123615999999999
                ],
                [
                  -75.4225955,
                  6.125616
                ],
                [
                  -75.42459550000001,
                  6.125616
                ],
                [
                  -75.42459550000001,
                  6.123615999999999
                ]
              ]
            ],
            [
              [
                [
                  -75.5600752,
                  6.2197343
                ],
                [
                  -75.55807519999999,
                  6.2197343
                ],
                [
                  -75.55807519999999,
                  6.2217343000000005
                ],
                [
                  -75.5600752,
                  6.2217343000000005
                ],
                [
                  -75.5600752,
                  6.2197343
                ]
              ]
            ],
            [
              [
                [
                  -75.4291982,
                  6.0892721
                ],
                [
                  -75.42719819999999,
                  6.0892721
                ],
                [
                  -75.42719819999999,
                  6.0912721
                ],
                [
                  -75.4291982,
                  6.0912721
                ],
                [
                  -75.4291982,
                  6.0892721
                ]
              ]
            ],
            [
              [
                [
                  -75.50124240000001,
                  6.1697112
                ],
                [
                  -75.4992424,
                  6.1697112
                ],
                [
                  -75.4992424,
                  6.171711200000001
                ],
                [
                  -75.50124240000001,
                  6.171711200000001
                ],
                [
                  -75.50124240000001,
                  6.1697112
                ]
              ]
            ],
            [
              [
                [
                  -75.4364807,
                  6.1772187
                ],
                [
                  -75.4344807,
                  6.1772187
                ],
                [
                  -75.4344807,
                  6.179218700000001
                ],
                [
                  -75.4364807,
                  6.179218700000001
                ],
                [
                  -75.4364807,
                  6.1772187
                ]
              ]
            ],
            [
              [
                [
                  -75.4336162,
                  6.2493549999999995
                ],
                [
                  -75.4316162,
                  6.2493549999999995
                ],
                [
                  -75.4316162,
                  6.251355
                ],
                [
                  -75.4336162,
                  6.251355
                ],
                [
                  -75.4336162,
                  6.2493549999999995
                ]
              ]
            ],
            [
              [
                [
                  -75.555226,
                  6.133627199999999
                ],
                [
                  -75.553226,
                  6.133627199999999
                ],
                [
                  -75.553226,
                  6.1356272
                ],
                [
                  -75.555226,
                  6.1356272
                ],
                [
                  -75.555226,
                  6.133627199999999
                ]
              ]
            ],
            [
              [
                [
                  -75.481297,
                  6.089910199999999
                ],
                [
                  -75.47929699999999,
                  6.089910199999999
                ],
                [
                  -75.47929699999999,
                  6.0919102
                ],
                [
                  -75.481297,
                  6.0919102
                ],
                [
                  -75.481297,
                  6.089910199999999
                ]
              ]
            ],
            [
              [
                [
                  -75.4232837,
                  6.059844
                ],
                [
                  -75.42128369999999,
                  6.059844
                ],
                [
                  -75.42128369999999,
                  6.061844000000001
                ],
                [
                  -75.4232837,
                  6.061844000000001
                ],
                [
                  -75.4232837,
                  6.059844
                ]
              ]
            ],
            [
              [
                [
                  -75.4577368,
                  6.0576535
                ],
                [
                  -75.4557368,
                  6.0576535
                ],
                [
                  -75.4557368,
                  6.0596535000000005
                ],
                [
                  -75.4577368,
                  6.0596535000000005
                ],
                [
                  -75.4577368,
                  6.0576535
                ]
              ]
            ],
            [
              [
                [
                  -75.43430260000001,
                  6.1414703
                ],
                [
                  -75.4323026,
                  6.1414703
                ],
                [
                  -75.4323026,
                  6.143470300000001
                ],
                [
                  -75.43430260000001,
                  6.143470300000001
                ],
                [
                  -75.43430260000001,
                  6.1414703
                ]
              ]
            ],
            [
              [
                [
                  -75.452403,
                  6.112123599999999
                ],
                [
                  -75.450403,
                  6.112123599999999
                ],
                [
                  -75.450403,
                  6.1141236
                ],
                [
                  -75.452403,
                  6.1141236
                ],
                [
                  -75.452403,
                  6.112123599999999
                ]
              ]
            ],
            [
              [
                [
                  -75.6342218,
                  6.0668213
                ],
                [
                  -75.6322218,
                  6.0668213
                ],
                [
                  -75.6322218,
                  6.068821300000001
                ],
                [
                  -75.6342218,
                  6.068821300000001
                ],
                [
                  -75.6342218,
                  6.0668213
                ]
              ]
            ],
            [
              [
                [
                  -75.4502234,
                  6.0178674
                ],
                [
                  -75.44822339999999,
                  6.0178674
                ],
                [
                  -75.44822339999999,
                  6.019867400000001
                ],
                [
                  -75.4502234,
                  6.019867400000001
                ],
                [
                  -75.4502234,
                  6.0178674
                ]
              ]
            ],
            [
              [
                [
                  -75.4329548,
                  6.008317399999999
                ],
                [
                  -75.4309548,
                  6.008317399999999
                ],
                [
                  -75.4309548,
                  6.0103174
                ],
                [
                  -75.4329548,
                  6.0103174
                ],
                [
                  -75.4329548,
                  6.008317399999999
                ]
              ]
            ],
            [
              [
                [
                  -75.4134652,
                  6.022465599999999
                ],
                [
                  -75.4114652,
                  6.022465599999999
                ],
                [
                  -75.4114652,
                  6.0244656
                ],
                [
                  -75.4134652,
                  6.0244656
                ],
                [
                  -75.4134652,
                  6.022465599999999
                ]
              ]
            ],
            [
              [
                [
                  -75.3412419,
                  6.138306399999999
                ],
                [
                  -75.33924189999999,
                  6.138306399999999
                ],
                [
                  -75.33924189999999,
                  6.1403064
                ],
                [
                  -75.3412419,
                  6.1403064
                ],
                [
                  -75.3412419,
                  6.138306399999999
                ]
              ]
            ]
          ],
          "type": "MultiPolygon"
        }
      }
    },
    "engine": {
      "version": "9.5.0",
      "build_date": "2025-10-31T12:33:09Z",
      "graph_date": "2025-12-01T03:52:42Z",
      "osm_date": "2025-11-24T00:59:59Z"
    }
  }
}