{
  "type": "FeatureCollection",
  "bbox": [
    -75.576837,
    6.218152,
    -75.571028,
    6.239772
  ],
  "features": [
    {
      "bbox": [
        -75.576837,
        6.218152,
        -75.571028,
        6.239772
      ],
      "type": "Feature",
      "properties": {
        "way_points": [
          0,
          41
        ],
        "summary": {
          "distance": 3378.2,
          "duration": 358.5
        }
      },
      "geometry": {
        "coordinates": [
          [
            -75.572604,
            6.218152
          ],
          [
            -75.573268,
            6.218219
          ],
          [
            -75.575672,
            6.218461
          ],
          [
            -75.575768,
            6.21847
          ],
          [
            -75.575788,
            6.218263
          ],
          [
            -75.575922,
            6.218283
          ],
          [
            -75.575881,
            6.218628
          ],
          [
            -75.576114,
            6.218656
          ],
          [
            -75.57674,
            6.218744
          ],
          [
            -75.576837,
            6.218892
          ],
          [
            -75.57669,
            6.219944
          ],
          [
            -75.576491,
            6.221378
          ],
          [
            -75.576262,
            6.223024
          ],
          [
            -75.576143,
            6.223894
          ],
          [
            -75.575902,
            6.225611
          ],
          [
            -75.575704,
            6.227009
          ],
          [
            -75.575663,
            6.227339
          ],
          [
            -75.575271,
            6.230156
          ],
          [
            -75.575195,
            6.230701
          ],
          [
            -75.575037,
            6.231786
          ],
          [
            -75.574912,
            6.232837
          ],
          [
            -75.574897,
            6.23327
          ],
          [
            -75.574905,
            6.23347
          ],
          [
            -75.575058,
            6.234087
          ],
          [
            -75.57514,
            6.234603
          ],
          [
            -75.575132,
            6.23484
          ],
          [
            -75.57489,
            6.235545
          ],
          [
            -75.574709,
            6.236047
          ],
          [
            -75.574473,
            6.236699
          ],
          [
            -75.574068,
            6.237822
          ],
          [
            -75.57381,
            6.237734
          ],
          [
            -75.573549,
            6.237646
          ],
          [
            -75.573386,
            6.23759
          ],
          [
            -75.572773,
            6.23737
          ],
          [
            -75.572482,
            6.238058
          ],
          [
            -75.572433,
            6.238172
          ],
          [
            -75.572118,
            6.238917
          ],
          [
            -75.571765,
            6.239772
          ],
          [
            -75.571028,
            6.23947
          ],
          [
            -75.571212,
            6.239018
          ],
          [
            -75.571355,
            6.238668
          ],
          [
            -75.571586,
            6.238118
          ]
        ],
        "type": "LineString"
      }
    }
  ],
  "metadata": {
    "attribution": "openrouteservice.org | OpenStreetMap contributors",
    "service": "routing",
    "timestamp": 1765570661259,
    "query": {
      "coordinates": [
        [
          -75.5726194,
          6.2180009
        ],
        [
          -75.571634,
          6.238138
        ]
      ],
      "profile": "driving-hgv",
      "profileName": "driving-hgv",
      "preference": "recommended",
      "format": "geojson",
      "language": "es"
    },
    "engine": {
      "version": "9.5.0",
      "build_date": "2025-10-31T12:33:09Z",
      "graph_date": "2025-12-01T03:52:42Z",
      "osm_date": "2025-11-24T00:59:59Z"
    }
  }
}