{
  "type": "FeatureCollection",
  "bbox": [
    -75.43439,
    6.029012,
    -75.3689,
    6.150273
  ],
  "features": [
    {
      "bbox": [
        -75.43439,
        6.029012,
        -75.3689,
        6.150273
      ],
      "type": "Feature",
      "properties": {
        "way_points": [
          0,
          438
        ],
        "summary": {
          "distance": 19947.9,
          "duration": 1819.9
        }
      },
      "geometry": {
        "coordinates": [
          [
            -75.36923,
            6.150216
          ],
          [
            -75.3689,
            6.149874
          ],
          [
            -75.36926,
            6.149423
          ],
          [
            -75.369606,
            6.14898
          ],
          [
            -75.370247,
            6.149563
          ],
          [
            -75.370201,
            6.149996
          ],
          [
            -75.370226,
            6.150155
          ],
          [
            -75.370301,
            6.150248
          ],
          [
            -75.370371,
            6.150273
          ],
          [
            -75.370454,
            6.150263
          ],
          [
            -75.370673,
            6.150195
          ],
          [
            -75.370914,
            6.150038
          ],
          [
            -75.371125,
            6.149751
          ],
          [
            -75.371209,
            6.149651
          ],
          [
            -75.371317,
            6.149555
          ],
          [
            -75.371974,
            6.149174
          ],
          [
            -75.372031,
            6.14909
          ],
          [
            -75.372059,
            6.149008
          ],
          [
            -75.372053,
            6.148871
          ],
          [
            -75.372025,
            6.148762
          ],
          [
            -75.371858,
            6.148472
          ],
          [
            -75.371731,
            6.148241
          ],
          [
            -75.371622,
            6.148014
          ],
          [
            -75.371609,
            6.147859
          ],
          [
            -75.371642,
            6.147746
          ],
          [
            -75.371734,
            6.147627
          ],
          [
            -75.371972,
            6.147412
          ],
          [
            -75.372064,
            6.147284
          ],
          [
            -75.372097,
            6.147201
          ],
          [
            -75.372132,
            6.147093
          ],
          [
            -75.372161,
            6.146915
          ],
          [
            -75.372248,
            6.146176
          ],
          [
            -75.372344,
            6.145971
          ],
          [
            -75.372396,
            6.145897
          ],
          [
            -75.372528,
            6.14577
          ],
          [
            -75.372692,
            6.145693
          ],
          [
            -75.372799,
            6.145658
          ],
          [
            -75.37292,
            6.145649
          ],
          [
            -75.373043,
            6.14567
          ],
          [
            -75.373146,
            6.145689
          ],
          [
            -75.373818,
            6.14583
          ],
          [
            -75.3743,
            6.145913
          ],
          [
            -75.374506,
            6.14589
          ],
          [
            -75.374674,
            6.145827
          ],
          [
            -75.374861,
            6.145699
          ],
          [
            -75.375001,
            6.145529
          ],
          [
            -75.3753,
            6.145149
          ],
          [
            -75.375368,
            6.145067
          ],
          [
            -75.375636,
            6.144734
          ],
          [
            -75.37584,
            6.14444
          ],
          [
            -75.375899,
            6.144331
          ],
          [
            -75.375963,
            6.144158
          ],
          [
            -75.376191,
            6.143166
          ],
          [
            -75.376258,
            6.14296
          ],
          [
            -75.376384,
            6.142578
          ],
          [
            -75.376483,
            6.142298
          ],
          [
            -75.376642,
            6.14189
          ],
          [
            -75.376681,
            6.141826
          ],
          [
            -75.376752,
            6.141735
          ],
          [
            -75.376951,
            6.14157
          ],
          [
            -75.377083,
            6.141484
          ],
          [
            -75.377599,
            6.141202
          ],
          [
            -75.377718,
            6.141148
          ],
          [
            -75.377912,
            6.141108
          ],
          [
            -75.377975,
            6.141107
          ],
          [
            -75.378255,
            6.141177
          ],
          [
            -75.378348,
            6.141193
          ],
          [
            -75.378442,
            6.14117
          ],
          [
            -75.378517,
            6.141109
          ],
          [
            -75.378561,
            6.141019
          ],
          [
            -75.378554,
            6.140896
          ],
          [
            -75.378542,
            6.140866
          ],
          [
            -75.378526,
            6.140841
          ],
          [
            -75.378522,
            6.140588
          ],
          [
            -75.378532,
            6.140461
          ],
          [
            -75.378563,
            6.140254
          ],
          [
            -75.378588,
            6.140005
          ],
          [
            -75.378579,
            6.139852
          ],
          [
            -75.378548,
            6.139729
          ],
          [
            -75.378514,
            6.139595
          ],
          [
            -75.378321,
            6.138865
          ],
          [
            -75.378194,
            6.138315
          ],
          [
            -75.378187,
            6.137916
          ],
          [
            -75.378219,
            6.137385
          ],
          [
            -75.378273,
            6.136838
          ],
          [
            -75.378347,
            6.135542
          ],
          [
            -75.378347,
            6.135209
          ],
          [
            -75.378362,
            6.134773
          ],
          [
            -75.378386,
            6.134621
          ],
          [
            -75.378475,
            6.134465
          ],
          [
            -75.378524,
            6.134428
          ],
          [
            -75.378613,
            6.134387
          ],
          [
            -75.378739,
            6.134362
          ],
          [
            -75.378996,
            6.134403
          ],
          [
            -75.379099,
            6.1344
          ],
          [
            -75.37919,
            6.13438
          ],
          [
            -75.379291,
            6.134328
          ],
          [
            -75.379387,
            6.13425
          ],
          [
            -75.379448,
            6.134167
          ],
          [
            -75.379552,
            6.133977
          ],
          [
            -75.380054,
            6.133015
          ],
          [
            -75.380088,
            6.132897
          ],
          [
            -75.380133,
            6.132468
          ],
          [
            -75.380165,
            6.132361
          ],
          [
            -75.380219,
            6.132255
          ],
          [
            -75.381073,
            6.131082
          ],
          [
            -75.38117,
            6.130983
          ],
          [
            -75.38125,
            6.130932
          ],
          [
            -75.381393,
            6.1309
          ],
          [
            -75.381462,
            6.130906
          ],
          [
            -75.381695,
            6.130969
          ],
          [
            -75.381781,
            6.130994
          ],
          [
            -75.382973,
            6.131326
          ],
          [
            -75.383251,
            6.131417
          ],
          [
            -75.383379,
            6.131478
          ],
          [
            -75.383589,
            6.131612
          ],
          [
            -75.383651,
            6.131674
          ],
          [
            -75.383722,
            6.131802
          ],
          [
            -75.383729,
            6.131904
          ],
          [
            -75.383782,
            6.131991
          ],
          [
            -75.383823,
            6.132023
          ],
          [
            -75.383909,
            6.132052
          ],
          [
            -75.383998,
            6.132043
          ],
          [
            -75.384075,
            6.132001
          ],
          [
            -75.384128,
            6.131932
          ],
          [
            -75.384149,
            6.131849
          ],
          [
            -75.384136,
            6.131763
          ],
          [
            -75.384125,
            6.131709
          ],
          [
            -75.384156,
            6.13162
          ],
          [
            -75.384441,
            6.131197
          ],
          [
            -75.384504,
            6.131061
          ],
          [
            -75.384543,
            6.130903
          ],
          [
            -75.384543,
            6.13076
          ],
          [
            -75.384423,
            6.130076
          ],
          [
            -75.384457,
            6.129964
          ],
          [
            -75.384536,
            6.129805
          ],
          [
            -75.384778,
            6.129361
          ],
          [
            -75.384952,
            6.128761
          ],
          [
            -75.385068,
            6.128426
          ],
          [
            -75.385423,
            6.127485
          ],
          [
            -75.385623,
            6.126874
          ],
          [
            -75.38563,
            6.126808
          ],
          [
            -75.385616,
            6.126716
          ],
          [
            -75.385572,
            6.126572
          ],
          [
            -75.385524,
            6.126495
          ],
          [
            -75.385125,
            6.126047
          ],
          [
            -75.385094,
            6.125965
          ],
          [
            -75.385098,
            6.12583
          ],
          [
            -75.385129,
            6.125774
          ],
          [
            -75.38516,
            6.12565
          ],
          [
            -75.385158,
            6.125586
          ],
          [
            -75.385143,
            6.125519
          ],
          [
            -75.385198,
            6.125317
          ],
          [
            -75.385282,
            6.12516
          ],
          [
            -75.385902,
            6.124324
          ],
          [
            -75.386036,
            6.124136
          ],
          [
            -75.387423,
            6.12219
          ],
          [
            -75.387911,
            6.121525
          ],
          [
            -75.388221,
            6.121093
          ],
          [
            -75.389218,
            6.119708
          ],
          [
            -75.389356,
            6.119422
          ],
          [
            -75.389518,
            6.11929
          ],
          [
            -75.38959,
            6.119184
          ],
          [
            -75.389587,
            6.119006
          ],
          [
            -75.389663,
            6.118699
          ],
          [
            -75.389647,
            6.118417
          ],
          [
            -75.38959,
            6.118017
          ],
          [
            -75.389518,
            6.117558
          ],
          [
            -75.389499,
            6.117455
          ],
          [
            -75.389481,
            6.117353
          ],
          [
            -75.389431,
            6.117038
          ],
          [
            -75.38937,
            6.116562
          ],
          [
            -75.389119,
            6.11514
          ],
          [
            -75.389003,
            6.114619
          ],
          [
            -75.388914,
            6.114344
          ],
          [
            -75.388643,
            6.113721
          ],
          [
            -75.388551,
            6.113471
          ],
          [
            -75.388505,
            6.113266
          ],
          [
            -75.38853,
            6.113157
          ],
          [
            -75.388531,
            6.113039
          ],
          [
            -75.388578,
            6.112678
          ],
          [
            -75.388717,
            6.112171
          ],
          [
            -75.389139,
            6.111087
          ],
          [
            -75.389207,
            6.110844
          ],
          [
            -75.389223,
            6.11069
          ],
          [
            -75.389191,
            6.11044
          ],
          [
            -75.389127,
            6.110235
          ],
          [
            -75.389054,
            6.110087
          ],
          [
            -75.388957,
            6.109945
          ],
          [
            -75.388651,
            6.109629
          ],
          [
            -75.388632,
            6.109611
          ],
          [
            -75.38849,
            6.109464
          ],
          [
            -75.388385,
            6.109358
          ],
          [
            -75.388035,
            6.109006
          ],
          [
            -75.387618,
            6.108563
          ],
          [
            -75.387291,
            6.108127
          ],
          [
            -75.386791,
            6.107375
          ],
          [
            -75.386669,
            6.107182
          ],
          [
            -75.386492,
            6.106847
          ],
          [
            -75.386424,
            6.106717
          ],
          [
            -75.386367,
            6.106519
          ],
          [
            -75.386327,
            6.106405
          ],
          [
            -75.386278,
            6.10609
          ],
          [
            -75.386227,
            6.105926
          ],
          [
            -75.386141,
            6.105743
          ],
          [
            -75.385966,
            6.105414
          ],
          [
            -75.385869,
            6.10523
          ],
          [
            -75.385547,
            6.104628
          ],
          [
            -75.385476,
            6.104504
          ],
          [
            -75.385367,
            6.104356
          ],
          [
            -75.384864,
            6.103817
          ],
          [
            -75.384669,
            6.103438
          ],
          [
            -75.384351,
            6.10282
          ],
          [
            -75.383793,
            6.101747
          ],
          [
            -75.383733,
            6.101608
          ],
          [
            -75.383665,
            6.101378
          ],
          [
            -75.383409,
            6.100218
          ],
          [
            -75.383254,
            6.099476
          ],
          [
            -75.383218,
            6.098875
          ],
          [
            -75.383218,
            6.098824
          ],
          [
            -75.383249,
            6.098369
          ],
          [
            -75.383315,
            6.097852
          ],
          [
            -75.383353,
            6.097548
          ],
          [
            -75.383449,
            6.096781
          ],
          [
            -75.383452,
            6.096504
          ],
          [
            -75.383423,
            6.096338
          ],
          [
            -75.383262,
            6.095958
          ],
          [
            -75.383007,
            6.095564
          ],
          [
            -75.382932,
            6.095388
          ],
          [
            -75.382635,
            6.094638
          ],
          [
            -75.382487,
            6.094242
          ],
          [
            -75.38239,
            6.093983
          ],
          [
            -75.382187,
            6.093441
          ],
          [
            -75.38214,
            6.093337
          ],
          [
            -75.381563,
            6.092001
          ],
          [
            -75.381451,
            6.091776
          ],
          [
            -75.380918,
            6.090794
          ],
          [
            -75.380644,
            6.090309
          ],
          [
            -75.38045,
            6.089957
          ],
          [
            -75.380196,
            6.089422
          ],
          [
            -75.380042,
            6.089019
          ],
          [
            -75.379983,
            6.088763
          ],
          [
            -75.379955,
            6.088281
          ],
          [
            -75.379967,
            6.088061
          ],
          [
            -75.379999,
            6.087879
          ],
          [
            -75.380091,
            6.087562
          ],
          [
            -75.380452,
            6.086625
          ],
          [
            -75.380517,
            6.086404
          ],
          [
            -75.380555,
            6.086198
          ],
          [
            -75.380571,
            6.085956
          ],
          [
            -75.380558,
            6.08576
          ],
          [
            -75.380489,
            6.085413
          ],
          [
            -75.380009,
            6.083964
          ],
          [
            -75.379792,
            6.083177
          ],
          [
            -75.379743,
            6.082918
          ],
          [
            -75.379703,
            6.082605
          ],
          [
            -75.379694,
            6.082283
          ],
          [
            -75.379703,
            6.08197
          ],
          [
            -75.379766,
            6.081376
          ],
          [
            -75.379816,
            6.080989
          ],
          [
            -75.379976,
            6.079384
          ],
          [
            -75.379979,
            6.07935
          ],
          [
            -75.37999,
            6.079245
          ],
          [
            -75.380006,
            6.079006
          ],
          [
            -75.379991,
            6.078877
          ],
          [
            -75.379743,
            6.078316
          ],
          [
            -75.3797,
            6.078144
          ],
          [
            -75.379708,
            6.077937
          ],
          [
            -75.379945,
            6.077209
          ],
          [
            -75.379971,
            6.077067
          ],
          [
            -75.379976,
            6.076932
          ],
          [
            -75.379874,
            6.076427
          ],
          [
            -75.379745,
            6.075924
          ],
          [
            -75.379684,
            6.075734
          ],
          [
            -75.379505,
            6.075055
          ],
          [
            -75.379457,
            6.074342
          ],
          [
            -75.379426,
            6.074004
          ],
          [
            -75.379426,
            6.073833
          ],
          [
            -75.379456,
            6.073493
          ],
          [
            -75.379505,
            6.07326
          ],
          [
            -75.379546,
            6.073052
          ],
          [
            -75.379528,
            6.072711
          ],
          [
            -75.379543,
            6.072635
          ],
          [
            -75.379573,
            6.072454
          ],
          [
            -75.379735,
            6.071683
          ],
          [
            -75.379792,
            6.07148
          ],
          [
            -75.379824,
            6.07135
          ],
          [
            -75.379912,
            6.071085
          ],
          [
            -75.38013,
            6.070588
          ],
          [
            -75.380297,
            6.070286
          ],
          [
            -75.380489,
            6.069989
          ],
          [
            -75.380808,
            6.069633
          ],
          [
            -75.38088,
            6.069556
          ],
          [
            -75.381396,
            6.068905
          ],
          [
            -75.381478,
            6.068797
          ],
          [
            -75.381753,
            6.068314
          ],
          [
            -75.382309,
            6.066981
          ],
          [
            -75.382442,
            6.066662
          ],
          [
            -75.382458,
            6.066626
          ],
          [
            -75.382494,
            6.066547
          ],
          [
            -75.382902,
            6.065561
          ],
          [
            -75.38346,
            6.064528
          ],
          [
            -75.383646,
            6.064192
          ],
          [
            -75.383989,
            6.063646
          ],
          [
            -75.384387,
            6.062925
          ],
          [
            -75.384536,
            6.062533
          ],
          [
            -75.384618,
            6.062195
          ],
          [
            -75.384655,
            6.061614
          ],
          [
            -75.384659,
            6.060953
          ],
          [
            -75.384715,
            6.060609
          ],
          [
            -75.384766,
            6.060371
          ],
          [
            -75.38519,
            6.059383
          ],
          [
            -75.385315,
            6.059063
          ],
          [
            -75.385616,
            6.0578
          ],
          [
            -75.385672,
            6.057626
          ],
          [
            -75.385755,
            6.057455
          ],
          [
            -75.385961,
            6.057154
          ],
          [
            -75.386202,
            6.056879
          ],
          [
            -75.386991,
            6.056274
          ],
          [
            -75.387122,
            6.056155
          ],
          [
            -75.387597,
            6.055534
          ],
          [
            -75.388002,
            6.055031
          ],
          [
            -75.388528,
            6.054435
          ],
          [
            -75.388891,
            6.054049
          ],
          [
            -75.388976,
            6.053955
          ],
          [
            -75.389725,
            6.053128
          ],
          [
            -75.390349,
            6.052306
          ],
          [
            -75.39122,
            6.050976
          ],
          [
            -75.391596,
            6.050636
          ],
          [
            -75.393227,
            6.049688
          ],
          [
            -75.393464,
            6.049502
          ],
          [
            -75.393898,
            6.048928
          ],
          [
            -75.394227,
            6.04858
          ],
          [
            -75.394573,
            6.048339
          ],
          [
            -75.395656,
            6.047498
          ],
          [
            -75.395924,
            6.047251
          ],
          [
            -75.39599,
            6.047191
          ],
          [
            -75.397068,
            6.046152
          ],
          [
            -75.397563,
            6.045679
          ],
          [
            -75.397728,
            6.04551
          ],
          [
            -75.398315,
            6.044958
          ],
          [
            -75.399833,
            6.043504
          ],
          [
            -75.400822,
            6.042682
          ],
          [
            -75.401231,
            6.042427
          ],
          [
            -75.401877,
            6.042157
          ],
          [
            -75.40229,
            6.042043
          ],
          [
            -75.402531,
            6.042006
          ],
          [
            -75.404192,
            6.041782
          ],
          [
            -75.40464,
            6.041667
          ],
          [
            -75.404948,
            6.041663
          ],
          [
            -75.405189,
            6.041738
          ],
          [
            -75.405434,
            6.04189
          ],
          [
            -75.405635,
            6.042071
          ],
          [
            -75.406154,
            6.042554
          ],
          [
            -75.406357,
            6.042716
          ],
          [
            -75.406495,
            6.042767
          ],
          [
            -75.406691,
            6.042788
          ],
          [
            -75.406886,
            6.042733
          ],
          [
            -75.407215,
            6.042478
          ],
          [
            -75.407935,
            6.041996
          ],
          [
            -75.40844,
            6.041617
          ],
          [
            -75.40925,
            6.040913
          ],
          [
            -75.409831,
            6.040424
          ],
          [
            -75.410078,
            6.040237
          ],
          [
            -75.411038,
            6.039511
          ],
          [
            -75.411786,
            6.038885
          ],
          [
            -75.412028,
            6.038735
          ],
          [
            -75.412167,
            6.038681
          ],
          [
            -75.412437,
            6.038613
          ],
          [
            -75.412932,
            6.038586
          ],
          [
            -75.413165,
            6.038752
          ],
          [
            -75.413224,
            6.03881
          ],
          [
            -75.413298,
            6.038847
          ],
          [
            -75.413381,
            6.03886
          ],
          [
            -75.413463,
            6.038846
          ],
          [
            -75.413536,
            6.038807
          ],
          [
            -75.413594,
            6.038748
          ],
          [
            -75.41383,
            6.038617
          ],
          [
            -75.414272,
            6.038675
          ],
          [
            -75.414714,
            6.038834
          ],
          [
            -75.414961,
            6.038935
          ],
          [
            -75.415643,
            6.039215
          ],
          [
            -75.416022,
            6.039371
          ],
          [
            -75.416383,
            6.039494
          ],
          [
            -75.416577,
            6.039509
          ],
          [
            -75.41679,
            6.039499
          ],
          [
            -75.416903,
            6.039483
          ],
          [
            -75.417059,
            6.039436
          ],
          [
            -75.417232,
            6.039351
          ],
          [
            -75.417392,
            6.039245
          ],
          [
            -75.417645,
            6.039018
          ],
          [
            -75.418136,
            6.03861
          ],
          [
            -75.418304,
            6.038501
          ],
          [
            -75.418449,
            6.038444
          ],
          [
            -75.419179,
            6.037827
          ],
          [
            -75.419606,
            6.037429
          ],
          [
            -75.419853,
            6.037237
          ],
          [
            -75.420296,
            6.036727
          ],
          [
            -75.420676,
            6.03637
          ],
          [
            -75.420917,
            6.036174
          ],
          [
            -75.421278,
            6.035962
          ],
          [
            -75.421632,
            6.035841
          ],
          [
            -75.421887,
            6.035771
          ],
          [
            -75.422138,
            6.035734
          ],
          [
            -75.422616,
            6.035707
          ],
          [
            -75.423253,
            6.035618
          ],
          [
            -75.423678,
            6.035495
          ],
          [
            -75.423714,
            6.03549
          ],
          [
            -75.423813,
            6.035484
          ],
          [
            -75.423953,
            6.03548
          ],
          [
            -75.42415,
            6.035476
          ],
          [
            -75.424545,
            6.035496
          ],
          [
            -75.425453,
            6.035614
          ],
          [
            -75.426227,
            6.035695
          ],
          [
            -75.426392,
            6.035713
          ],
          [
            -75.426742,
            6.035786
          ],
          [
            -75.42703,
            6.035865
          ],
          [
            -75.427349,
            6.035946
          ],
          [
            -75.427431,
            6.035968
          ],
          [
            -75.427848,
            6.036086
          ],
          [
            -75.428678,
            6.036301
          ],
          [
            -75.428901,
            6.035565
          ],
          [
            -75.429135,
            6.03479
          ],
          [
            -75.429253,
            6.034399
          ],
          [
            -75.42939,
            6.033949
          ],
          [
            -75.429503,
            6.033573
          ],
          [
            -75.429636,
            6.033137
          ],
          [
            -75.429877,
            6.03234
          ],
          [
            -75.430124,
            6.031524
          ],
          [
            -75.430358,
            6.030749
          ],
          [
            -75.43119,
            6.030996
          ],
          [
            -75.432018,
            6.031242
          ],
          [
            -75.432855,
            6.03149
          ],
          [
            -75.433672,
            6.031733
          ],
          [
            -75.433892,
            6.030889
          ],
          [
            -75.434172,
            6.029989
          ],
          [
            -75.43439,
            6.029239
          ],
          [
            -75.433594,
            6.029012
          ],
          [
            -75.433517,
            6.029269
          ]
        ],
        "type": "LineString"
      }
    }
  ],
  "metadata": {
    "attribution": "openrouteservice.org | OpenStreetMap contributors",
    "service": "routing",
    "timestamp": 1764859105849,
    "query": {
      "coordinates": [
        [
          -75.3693569,
          6.150095899999999
        ],
        [
          -75.4336924,
          6.0293204
        ]
      ],
      "profile": "driving-hgv",
      "profileName": "driving-hgv",
      "preference": "recommended",
      "format": "geojson",
      "language": "es",
      "options": {
        "profile_params": {
          "restrictions": {
            "length": 8.0,
            "width": 2.5,
            "height": 3.5
          },
          "surface_quality_known": false,
          "allow_unsuitable": false
        },
        "avoid_polygons": {
          "coordinates": [
            [
              [
                [
                  -75.53398800000001,
                  6.1525436
                ],
                [
                  -75.531988,
                  6.1525436
                ],
                [
                  -75.531988,
                  6.1545436
                ],
                [
                  -75.53398800000001,
                  6.1545436
                ],
                [
                  -75.53398800000001,
                  6.1525436
                ]
              ]
            ],
            [
              [
                [
                  -75.49099790000001,
                  6.0932509999999995
                ],
                [
                  -75.4889979,
                  6.0932509999999995
                ],
                [
                  -75.4889979,
                  6.095251
                ],
                [
                  -75.49099790000001,
                  6.095251
                ],
                [
                  -75.49099790000001,
                  6.0932509999999995
                ]
              ]
            ],
            [
              [
                [
                  -75.44939930000001,
                  6.1764060999999995
                ],
                [
                  -75.4473993,
                  6.1764060999999995
                ],
                [
                  -75.4473993,
                  6.1784061
                ],
                [
                  -75.44939930000001,
                  6.1784061
                ],
                [
                  -75.44939930000001,
                  6.1764060999999995
                ]
              ]
            ],
            [
              [
                [
                  -75.4890572,
                  6.2037862
                ],
                [
                  -75.4870572,
                  6.2037862
                ],
                [
                  -75.4870572,
                  6.2057862
                ],
                [
                  -75.4890572,
                  6.2057862
                ],
                [
                  -75.4890572,
                  6.2037862
                ]
              ]
            ],
            [
              [
                [
                  -75.46672650000001,
                  6.1850524
                ],
                [
                  -75.4647265,
                  6.1850524
                ],
                [
                  -75.4647265,
                  6.187052400000001
                ],
                [
                  -75.46672650000001,
                  6.187052400000001
                ],
                [
                  -75.46672650000001,
                  6.1850524
                ]
              ]
            ],
            [
              [
                [
                  -75.5035304,
                  6.2159613
                ],
                [
                  -75.5015304,
                  6.2159613
                ],
                [
                  -75.5015304,
                  6.217961300000001
                ],
                [
                  -75.5035304,
                  6.217961300000001
                ],
                [
                  -75.5035304,
                  6.2159613
                ]
              ]
            ],
            [
              [
                [
                  -75.4913478,
                  6.170510299999999
                ],
                [
                  -75.48934779999999,
                  6.170510299999999
                ],
                [
                  -75.48934779999999,
                  6.1725103
                ],
                [
                  -75.4913478,
                  6.1725103
                ],
                [
                  -75.4913478,
                  6.170510299999999
                ]
              ]
            ],
            [
              [
                [
                  -75.5250472,
                  6.1422792
                ],
                [
                  -75.5230472,
                  6.1422792
                ],
                [
                  -75.5230472,
                  6.144279200000001
                ],
                [
                  -75.5250472,
                  6.144279200000001
                ],
                [
                  -75.5250472,
                  6.1422792
                ]
              ]
            ],
            [
              [
                [
                  -75.42459550000001,
                  6.123615999999999
                ],
                [
                  -75.4225955,
                  6.123615999999999
                ],
                [
                  -75.4225955,
                  6.125616
                ],
                [
                  -75.42459550000001,
                  6.125616
                ],
                [
                  -75.42459550000001,
                  6.123615999999999
                ]
              ]
            ],
            [
              [
                [
                  -75.5600752,
                  6.2197343
                ],
                [
                  -75.55807519999999,
                  6.2197343
                ],
                [
                  -75.55807519999999,
                  6.2217343000000005
                ],
                [
                  -75.5600752,
                  6.2217343000000005
                ],
                [
                  -75.5600752,
                  6.2197343
                ]
              ]
            ],
            [
              [
                [
                  -75.4291982,
                  6.0892721
                ],
                [
                  -75.42719819999999,
                  6.0892721
                ],
                [
                  -75.42719819999999,
                  6.0912721
                ],
                [
                  -75.4291982,
                  6.0912721
                ],
                [
                  -75.4291982,
                  6.0892721
                ]
              ]
            ],
            [
              [
                [
                  -75.50124240000001,
                  6.1697112
                ],
                [
                  -75.4992424,
                  6.1697112
                ],
                [
                  -75.4992424,
                  6.171711200000001
                ],
                [
                  -75.50124240000001,
                  6.171711200000001
                ],
                [
                  -75.50124240000001,
                  6.1697112
                ]
              ]
            ],
            [
              [
                [
                  -75.4364807,
                  6.1772187
                ],
                [
                  -75.4344807,
                  6.1772187
                ],
                [
                  -75.4344807,
                  6.179218700000001
                ],
                [
                  -75.4364807,
                  6.179218700000001
                ],
                [
                  -75.4364807,
                  6.1772187
                ]
              ]
            ],
            [
              [
                [
                  -75.4336162,
                  6.2493549999999995
                ],
                [
                  -75.4316162,
                  6.2493549999999995
                ],
                [
                  -75.4316162,
                  6.251355
                ],
                [
                  -75.4336162,
                  6.251355
                ],
                [
                  -75.4336162,
                  6.2493549999999995
                ]
              ]
            ],
            [
              [
                [
                  -75.555226,
                  6.133627199999999
                ],
                [
                  -75.553226,
                  6.133627199999999
                ],
                [
                  -75.553226,
                  6.1356272
                ],
                [
                  -75.555226,
                  6.1356272
                ],
                [
                  -75.555226,
                  6.133627199999999
                ]
              ]
            ],
            [
              [
                [
                  -75.481297,
                  6.089910199999999
                ],
                [
                  -75.47929699999999,
                  6.089910199999999
                ],
                [
                  -75.47929699999999,
                  6.0919102
                ],
                [
                  -75.481297,
                  6.0919102
                ],
                [
                  -75.481297,
                  6.089910199999999
                ]
              ]
            ],
            [
              [
                [
                  -75.4232837,
                  6.059844
                ],
                [
                  -75.42128369999999,
                  6.059844
                ],
                [
                  -75.42128369999999,
                  6.061844000000001
                ],
                [
                  -75.4232837,
                  6.061844000000001
                ],
                [
                  -75.4232837,
                  6.059844
                ]
              ]
            ],
            [
              [
                [
                  -75.4577368,
                  6.0576535
                ],
                [
                  -75.4557368,
                  6.0576535
                ],
                [
                  -75.4557368,
                  6.0596535000000005
                ],
                [
                  -75.4577368,
                  6.0596535000000005
                ],
                [
                  -75.4577368,
                  6.0576535
                ]
              ]
            ],
            [
              [
                [
                  -75.43430260000001,
                  6.1414703
                ],
                [
                  -75.4323026,
                  6.1414703
                ],
                [
                  -75.4323026,
                  6.143470300000001
                ],
                [
                  -75.43430260000001,
                  6.143470300000001
                ],
                [
                  -75.43430260000001,
                  6.1414703
                ]
              ]
            ],
            [
              [
                [
                  -75.452403,
                  6.112123599999999
                ],
                [
                  -75.450403,
                  6.112123599999999
                ],
                [
                  -75.450403,
                  6.1141236
                ],
                [
                  -75.452403,
                  6.1141236
                ],
                [
                  -75.452403,
                  6.112123599999999
                ]
              ]
            ],
            [
              [
                [
                  -75.6342218,
                  6.0668213
                ],
                [
                  -75.6322218,
                  6.0668213
                ],
                [
                  -75.6322218,
                  6.068821300000001
                ],
                [
                  -75.6342218,
                  6.068821300000001
                ],
                [
                  -75.6342218,
                  6.0668213
                ]
              ]
            ],
            [
              [
                [
                  -75.4502234,
                  6.0178674
                ],
                [
                  -75.44822339999999,
                  6.0178674
                ],
                [
                  -75.44822339999999,
                  6.019867400000001
                ],
                [
                  -75.4502234,
                  6.019867400000001
                ],
                [
                  -75.4502234,
                  6.0178674
                ]
              ]
            ],
            [
              [
                [
                  -75.4329548,
                  6.008317399999999
                ],
                [
                  -75.4309548,
                  6.008317399999999
                ],
                [
                  -75.4309548,
                  6.0103174
                ],
                [
                  -75.4329548,
                  6.0103174
                ],
                [
                  -75.4329548,
                  6.008317399999999
                ]
              ]
            ],
            [
              [
                [
                  -75.4134652,
                  6.022465599999999
                ],
                [
                  -75.4114652,
                  6.022465599999999
                ],
                [
                  -75.4114652,
                  6.0244656
                ],
                [
                  -75.4134652,
                  6.0244656
                ],
                [
                  -75.4134652,
                  6.022465599999999
                ]
              ]
            ],
            [
              [
                [
                  -75.3412419,
                  6.138306399999999
                ],
                [
                  -75.33924189999999,
                  6.138306399999999
                ],
                [
                  -75.33924189999999,
                  6.1403064
                ],
                [
                  -75.3412419,
                  6.1403064
                ],
                [
                  -75.3412419,
                  6.138306399999999
                ]
              ]
            ]
          ],
          "type": "MultiPolygon"
        }
      }
    },
    "engine": {
      "version": "9.5.0",
      "build_date": "2025-10-31T12:33:09Z",
      "graph_date": "2025-12-01T03:52:42Z",
      "osm_date": "2025-11-24T00:59:59Z"
    }
  }
}