{
  "type": "FeatureCollection",
  "bbox": [
    -75.579395,
    6.212872,
    -75.572022,
    6.218152
  ],
  "features": [
    {
      "bbox": [
        -75.579395,
        6.212872,
        -75.572022,
        6.218152
      ],
      "type": "Feature",
      "properties": {
        "way_points": [
          0,
          57
        ],
        "summary": {
          "distance": 2131.3,
          "duration": 268.0
        }
      },
      "geometry": {
        "coordinates": [
          [
            -75.579319,
            6.216274
          ],
          [
            -75.579167,
            6.217235
          ],
          [
            -75.578605,
            6.217114
          ],
          [
            -75.57827,
            6.217035
          ],
          [
            -75.578144,
            6.216993
          ],
          [
            -75.578093,
            6.216946
          ],
          [
            -75.578046,
            6.216876
          ],
          [
            -75.578,
            6.216766
          ],
          [
            -75.578111,
            6.216017
          ],
          [
            -75.578234,
            6.215192
          ],
          [
            -75.578381,
            6.214015
          ],
          [
            -75.578485,
            6.213354
          ],
          [
            -75.578578,
            6.213159
          ],
          [
            -75.578656,
            6.213091
          ],
          [
            -75.578752,
            6.213048
          ],
          [
            -75.578857,
            6.213031
          ],
          [
            -75.578989,
            6.213031
          ],
          [
            -75.579114,
            6.213052
          ],
          [
            -75.579229,
            6.213093
          ],
          [
            -75.579319,
            6.21316
          ],
          [
            -75.579377,
            6.213256
          ],
          [
            -75.579395,
            6.21338
          ],
          [
            -75.579371,
            6.213488
          ],
          [
            -75.579317,
            6.213578
          ],
          [
            -75.579218,
            6.213657
          ],
          [
            -75.579103,
            6.213712
          ],
          [
            -75.57898,
            6.213738
          ],
          [
            -75.578799,
            6.213747
          ],
          [
            -75.578785,
            6.213745
          ],
          [
            -75.577514,
            6.213509
          ],
          [
            -75.577364,
            6.213437
          ],
          [
            -75.576853,
            6.213315
          ],
          [
            -75.576734,
            6.21325
          ],
          [
            -75.576655,
            6.213187
          ],
          [
            -75.57663,
            6.213116
          ],
          [
            -75.576531,
            6.212978
          ],
          [
            -75.576443,
            6.212917
          ],
          [
            -75.576343,
            6.21288
          ],
          [
            -75.576212,
            6.212872
          ],
          [
            -75.576136,
            6.213681
          ],
          [
            -75.5761,
            6.214055
          ],
          [
            -75.576077,
            6.214303
          ],
          [
            -75.576018,
            6.214951
          ],
          [
            -75.575407,
            6.214871
          ],
          [
            -75.575018,
            6.214829
          ],
          [
            -75.574832,
            6.214822
          ],
          [
            -75.574453,
            6.214906
          ],
          [
            -75.574099,
            6.215052
          ],
          [
            -75.573564,
            6.215302
          ],
          [
            -75.573376,
            6.215425
          ],
          [
            -75.573128,
            6.215631
          ],
          [
            -75.572558,
            6.216149
          ],
          [
            -75.57243,
            6.216299
          ],
          [
            -75.572283,
            6.216521
          ],
          [
            -75.572216,
            6.216675
          ],
          [
            -75.572143,
            6.217012
          ],
          [
            -75.572022,
            6.218094
          ],
          [
            -75.572604,
            6.218152
          ]
        ],
        "type": "LineString"
      }
    }
  ],
  "metadata": {
    "attribution": "openrouteservice.org | OpenStreetMap contributors",
    "service": "routing",
    "timestamp": 1765570658886,
    "query": {
      "coordinates": [
        [
          -75.5794057,
          6.2162872
        ],
        [
          -75.5726194,
          6.2180009
        ]
      ],
      "profile": "driving-hgv",
      "profileName": "driving-hgv",
      "preference": "recommended",
      "format": "geojson",
      "language": "es"
    },
    "engine": {
      "version": "9.5.0",
      "build_date": "2025-10-31T12:33:09Z",
      "graph_date": "2025-12-01T03:52:42Z",
      "osm_date": "2025-11-24T00:59:59Z"
    }
  }
}