{
  "type": "FeatureCollection",
  "bbox": [
    -75.440233,
    6.020123,
    -75.334089,
    6.178263
  ],
  "features": [
    {
      "bbox": [
        -75.440233,
        6.020123,
        -75.334089,
        6.178263
      ],
      "type": "Feature",
      "properties": {
        "extras": {
          "roadaccessrestrictions": {
            "values": [
              [
                0,
                30,
                0
              ],
              [
                30,
                31,
                32
              ],
              [
                31,
                722,
                0
              ],
              [
                722,
                731,
                32
              ],
              [
                731,
                740,
                0
              ]
            ],
            "summary": [
              {
                "value": 0.0,
                "distance": 33293.9,
                "amount": 99.28
              },
              {
                "value": 32.0,
                "distance": 240.1,
                "amount": 0.72
              }
            ]
          }
        },
        "warnings": [
          {
            "code": 1,
            "message": "There may be restrictions on some roads"
          }
        ],
        "way_points": [
          0,
          740
        ],
        "summary": {
          "distance": 33534.0,
          "duration": 2722.7
        }
      },
      "geometry": {
        "coordinates": [
          [
            -75.439887,
            6.021248
          ],
          [
            -75.439812,
            6.021162
          ],
          [
            -75.440233,
            6.020755
          ],
          [
            -75.439841,
            6.020558
          ],
          [
            -75.43936,
            6.020299
          ],
          [
            -75.438988,
            6.020123
          ],
          [
            -75.438918,
            6.020206
          ],
          [
            -75.438814,
            6.020293
          ],
          [
            -75.438103,
            6.020722
          ],
          [
            -75.437418,
            6.021135
          ],
          [
            -75.436792,
            6.021437
          ],
          [
            -75.43662,
            6.021543
          ],
          [
            -75.435609,
            6.022139
          ],
          [
            -75.435014,
            6.022474
          ],
          [
            -75.43496,
            6.022488
          ],
          [
            -75.434622,
            6.022529
          ],
          [
            -75.433659,
            6.022243
          ],
          [
            -75.433315,
            6.022144
          ],
          [
            -75.433266,
            6.02276
          ],
          [
            -75.433246,
            6.023256
          ],
          [
            -75.433242,
            6.023745
          ],
          [
            -75.433005,
            6.024581
          ],
          [
            -75.432813,
            6.02524
          ],
          [
            -75.432604,
            6.026033
          ],
          [
            -75.432578,
            6.026112
          ],
          [
            -75.432533,
            6.02627
          ],
          [
            -75.432316,
            6.027039
          ],
          [
            -75.432047,
            6.02799
          ],
          [
            -75.431898,
            6.028518
          ],
          [
            -75.431668,
            6.02933
          ],
          [
            -75.431436,
            6.030151
          ],
          [
            -75.43119,
            6.030996
          ],
          [
            -75.430954,
            6.031759
          ],
          [
            -75.430706,
            6.032563
          ],
          [
            -75.430458,
            6.033367
          ],
          [
            -75.430208,
            6.034173
          ],
          [
            -75.429953,
            6.034999
          ],
          [
            -75.429716,
            6.035767
          ],
          [
            -75.429483,
            6.036519
          ],
          [
            -75.428678,
            6.036301
          ],
          [
            -75.427848,
            6.036086
          ],
          [
            -75.427431,
            6.035968
          ],
          [
            -75.427349,
            6.035946
          ],
          [
            -75.42703,
            6.035865
          ],
          [
            -75.426742,
            6.035786
          ],
          [
            -75.426392,
            6.035713
          ],
          [
            -75.426227,
            6.035695
          ],
          [
            -75.425453,
            6.035614
          ],
          [
            -75.424545,
            6.035496
          ],
          [
            -75.42415,
            6.035476
          ],
          [
            -75.423953,
            6.03548
          ],
          [
            -75.423813,
            6.035484
          ],
          [
            -75.423714,
            6.03549
          ],
          [
            -75.423678,
            6.035495
          ],
          [
            -75.42347,
            6.035483
          ],
          [
            -75.423289,
            6.035472
          ],
          [
            -75.422579,
            6.03546
          ],
          [
            -75.421773,
            6.035638
          ],
          [
            -75.421357,
            6.035783
          ],
          [
            -75.42124,
            6.035859
          ],
          [
            -75.421147,
            6.035912
          ],
          [
            -75.421132,
            6.035924
          ],
          [
            -75.420836,
            6.036094
          ],
          [
            -75.420507,
            6.036386
          ],
          [
            -75.420207,
            6.036641
          ],
          [
            -75.420091,
            6.036784
          ],
          [
            -75.419879,
            6.037007
          ],
          [
            -75.41977,
            6.037143
          ],
          [
            -75.419628,
            6.037253
          ],
          [
            -75.419067,
            6.037718
          ],
          [
            -75.418368,
            6.03837
          ],
          [
            -75.418304,
            6.038501
          ],
          [
            -75.418136,
            6.03861
          ],
          [
            -75.417645,
            6.039018
          ],
          [
            -75.417392,
            6.039245
          ],
          [
            -75.417232,
            6.039351
          ],
          [
            -75.417059,
            6.039436
          ],
          [
            -75.416903,
            6.039483
          ],
          [
            -75.41679,
            6.039499
          ],
          [
            -75.416577,
            6.039509
          ],
          [
            -75.416383,
            6.039494
          ],
          [
            -75.416022,
            6.039371
          ],
          [
            -75.415643,
            6.039215
          ],
          [
            -75.414961,
            6.038935
          ],
          [
            -75.414714,
            6.038834
          ],
          [
            -75.414272,
            6.038675
          ],
          [
            -75.41383,
            6.038617
          ],
          [
            -75.413632,
            6.038523
          ],
          [
            -75.413604,
            6.038459
          ],
          [
            -75.413559,
            6.038405
          ],
          [
            -75.413503,
            6.038365
          ],
          [
            -75.413417,
            6.038336
          ],
          [
            -75.413326,
            6.038338
          ],
          [
            -75.413242,
            6.038371
          ],
          [
            -75.413173,
            6.03843
          ],
          [
            -75.412932,
            6.038586
          ],
          [
            -75.412437,
            6.038613
          ],
          [
            -75.412167,
            6.038681
          ],
          [
            -75.412028,
            6.038735
          ],
          [
            -75.411786,
            6.038885
          ],
          [
            -75.411038,
            6.039511
          ],
          [
            -75.410078,
            6.040237
          ],
          [
            -75.409831,
            6.040424
          ],
          [
            -75.40925,
            6.040913
          ],
          [
            -75.40844,
            6.041617
          ],
          [
            -75.407935,
            6.041996
          ],
          [
            -75.407215,
            6.042478
          ],
          [
            -75.406886,
            6.042733
          ],
          [
            -75.406691,
            6.042788
          ],
          [
            -75.406495,
            6.042767
          ],
          [
            -75.406357,
            6.042716
          ],
          [
            -75.406154,
            6.042554
          ],
          [
            -75.405635,
            6.042071
          ],
          [
            -75.405434,
            6.04189
          ],
          [
            -75.405189,
            6.041738
          ],
          [
            -75.404948,
            6.041663
          ],
          [
            -75.40464,
            6.041667
          ],
          [
            -75.404192,
            6.041782
          ],
          [
            -75.402531,
            6.042006
          ],
          [
            -75.40229,
            6.042043
          ],
          [
            -75.401877,
            6.042157
          ],
          [
            -75.401231,
            6.042427
          ],
          [
            -75.400822,
            6.042682
          ],
          [
            -75.399833,
            6.043504
          ],
          [
            -75.398315,
            6.044958
          ],
          [
            -75.397728,
            6.04551
          ],
          [
            -75.397563,
            6.045679
          ],
          [
            -75.397068,
            6.046152
          ],
          [
            -75.39599,
            6.047191
          ],
          [
            -75.395924,
            6.047251
          ],
          [
            -75.395656,
            6.047498
          ],
          [
            -75.394573,
            6.048339
          ],
          [
            -75.394227,
            6.04858
          ],
          [
            -75.393898,
            6.048928
          ],
          [
            -75.393464,
            6.049502
          ],
          [
            -75.393227,
            6.049688
          ],
          [
            -75.391596,
            6.050636
          ],
          [
            -75.39122,
            6.050976
          ],
          [
            -75.390349,
            6.052306
          ],
          [
            -75.389725,
            6.053128
          ],
          [
            -75.388976,
            6.053955
          ],
          [
            -75.388891,
            6.054049
          ],
          [
            -75.388528,
            6.054435
          ],
          [
            -75.388002,
            6.055031
          ],
          [
            -75.387597,
            6.055534
          ],
          [
            -75.387122,
            6.056155
          ],
          [
            -75.386991,
            6.056274
          ],
          [
            -75.386202,
            6.056879
          ],
          [
            -75.385961,
            6.057154
          ],
          [
            -75.385755,
            6.057455
          ],
          [
            -75.385672,
            6.057626
          ],
          [
            -75.385616,
            6.0578
          ],
          [
            -75.385315,
            6.059063
          ],
          [
            -75.38519,
            6.059383
          ],
          [
            -75.384766,
            6.060371
          ],
          [
            -75.384715,
            6.060609
          ],
          [
            -75.384659,
            6.060953
          ],
          [
            -75.384655,
            6.061614
          ],
          [
            -75.384618,
            6.062195
          ],
          [
            -75.384536,
            6.062533
          ],
          [
            -75.384387,
            6.062925
          ],
          [
            -75.383989,
            6.063646
          ],
          [
            -75.383646,
            6.064192
          ],
          [
            -75.38346,
            6.064528
          ],
          [
            -75.382902,
            6.065561
          ],
          [
            -75.382494,
            6.066547
          ],
          [
            -75.382458,
            6.066626
          ],
          [
            -75.382442,
            6.066662
          ],
          [
            -75.382309,
            6.066981
          ],
          [
            -75.381753,
            6.068314
          ],
          [
            -75.381478,
            6.068797
          ],
          [
            -75.381396,
            6.068905
          ],
          [
            -75.38088,
            6.069556
          ],
          [
            -75.380808,
            6.069633
          ],
          [
            -75.380489,
            6.069989
          ],
          [
            -75.380297,
            6.070286
          ],
          [
            -75.38013,
            6.070588
          ],
          [
            -75.379912,
            6.071085
          ],
          [
            -75.379824,
            6.07135
          ],
          [
            -75.379792,
            6.07148
          ],
          [
            -75.379735,
            6.071683
          ],
          [
            -75.379573,
            6.072454
          ],
          [
            -75.379543,
            6.072635
          ],
          [
            -75.379528,
            6.072711
          ],
          [
            -75.379445,
            6.072925
          ],
          [
            -75.379365,
            6.073231
          ],
          [
            -75.37931,
            6.073489
          ],
          [
            -75.379284,
            6.07377
          ],
          [
            -75.379277,
            6.073796
          ],
          [
            -75.379238,
            6.073813
          ],
          [
            -75.379155,
            6.073821
          ],
          [
            -75.379038,
            6.073745
          ],
          [
            -75.378852,
            6.073453
          ],
          [
            -75.378688,
            6.073272
          ],
          [
            -75.378016,
            6.072824
          ],
          [
            -75.377579,
            6.072644
          ],
          [
            -75.377296,
            6.072472
          ],
          [
            -75.376751,
            6.072083
          ],
          [
            -75.376337,
            6.071693
          ],
          [
            -75.375662,
            6.071219
          ],
          [
            -75.375282,
            6.070902
          ],
          [
            -75.374977,
            6.070626
          ],
          [
            -75.374684,
            6.070494
          ],
          [
            -75.374624,
            6.070482
          ],
          [
            -75.374474,
            6.070465
          ],
          [
            -75.374133,
            6.070418
          ],
          [
            -75.373657,
            6.070415
          ],
          [
            -75.373321,
            6.070464
          ],
          [
            -75.372746,
            6.070713
          ],
          [
            -75.372197,
            6.070954
          ],
          [
            -75.371707,
            6.071158
          ],
          [
            -75.371331,
            6.071292
          ],
          [
            -75.371154,
            6.07134
          ],
          [
            -75.370944,
            6.071375
          ],
          [
            -75.370682,
            6.071415
          ],
          [
            -75.370448,
            6.071451
          ],
          [
            -75.370265,
            6.07148
          ],
          [
            -75.370024,
            6.071476
          ],
          [
            -75.369616,
            6.071342
          ],
          [
            -75.368693,
            6.070876
          ],
          [
            -75.367795,
            6.070599
          ],
          [
            -75.367215,
            6.070598
          ],
          [
            -75.366465,
            6.070534
          ],
          [
            -75.365795,
            6.070574
          ],
          [
            -75.365348,
            6.070577
          ],
          [
            -75.365118,
            6.070599
          ],
          [
            -75.364624,
            6.070744
          ],
          [
            -75.364066,
            6.070796
          ],
          [
            -75.363851,
            6.070858
          ],
          [
            -75.363486,
            6.071101
          ],
          [
            -75.363265,
            6.071165
          ],
          [
            -75.362605,
            6.071309
          ],
          [
            -75.362433,
            6.071383
          ],
          [
            -75.362191,
            6.071646
          ],
          [
            -75.362004,
            6.071757
          ],
          [
            -75.361823,
            6.071744
          ],
          [
            -75.361531,
            6.071557
          ],
          [
            -75.361366,
            6.071511
          ],
          [
            -75.36105,
            6.0715
          ],
          [
            -75.360798,
            6.071522
          ],
          [
            -75.360392,
            6.071584
          ],
          [
            -75.360278,
            6.071564
          ],
          [
            -75.360144,
            6.071484
          ],
          [
            -75.359898,
            6.071297
          ],
          [
            -75.359511,
            6.071032
          ],
          [
            -75.359171,
            6.070812
          ],
          [
            -75.358844,
            6.070567
          ],
          [
            -75.358552,
            6.070254
          ],
          [
            -75.357857,
            6.069572
          ],
          [
            -75.3576,
            6.0694
          ],
          [
            -75.357095,
            6.069118
          ],
          [
            -75.356758,
            6.068996
          ],
          [
            -75.356567,
            6.06897
          ],
          [
            -75.356467,
            6.068951
          ],
          [
            -75.35589,
            6.069
          ],
          [
            -75.355467,
            6.069026
          ],
          [
            -75.354984,
            6.069057
          ],
          [
            -75.354733,
            6.069153
          ],
          [
            -75.354327,
            6.069378
          ],
          [
            -75.354084,
            6.069503
          ],
          [
            -75.35401,
            6.069519
          ],
          [
            -75.353725,
            6.069581
          ],
          [
            -75.353555,
            6.069703
          ],
          [
            -75.353478,
            6.069831
          ],
          [
            -75.353379,
            6.070183
          ],
          [
            -75.353402,
            6.070582
          ],
          [
            -75.353398,
            6.07069
          ],
          [
            -75.35334,
            6.070845
          ],
          [
            -75.353099,
            6.071115
          ],
          [
            -75.352825,
            6.071421
          ],
          [
            -75.352728,
            6.071651
          ],
          [
            -75.352716,
            6.072052
          ],
          [
            -75.352648,
            6.072274
          ],
          [
            -75.352472,
            6.072524
          ],
          [
            -75.352198,
            6.073393
          ],
          [
            -75.352106,
            6.073559
          ],
          [
            -75.351927,
            6.07369
          ],
          [
            -75.351318,
            6.073948
          ],
          [
            -75.350965,
            6.074334
          ],
          [
            -75.350403,
            6.074998
          ],
          [
            -75.350297,
            6.0752
          ],
          [
            -75.350234,
            6.075394
          ],
          [
            -75.350205,
            6.07581
          ],
          [
            -75.350237,
            6.076452
          ],
          [
            -75.350228,
            6.076902
          ],
          [
            -75.3502,
            6.07701
          ],
          [
            -75.350157,
            6.077106
          ],
          [
            -75.349844,
            6.077462
          ],
          [
            -75.349683,
            6.077638
          ],
          [
            -75.349581,
            6.077788
          ],
          [
            -75.349442,
            6.078081
          ],
          [
            -75.3493,
            6.07846
          ],
          [
            -75.349085,
            6.078951
          ],
          [
            -75.348884,
            6.079096
          ],
          [
            -75.348817,
            6.079149
          ],
          [
            -75.348664,
            6.079297
          ],
          [
            -75.34859,
            6.079354
          ],
          [
            -75.348498,
            6.079475
          ],
          [
            -75.348147,
            6.08
          ],
          [
            -75.347865,
            6.080501
          ],
          [
            -75.347743,
            6.080705
          ],
          [
            -75.347649,
            6.080802
          ],
          [
            -75.347535,
            6.080891
          ],
          [
            -75.34738,
            6.080956
          ],
          [
            -75.346776,
            6.081118
          ],
          [
            -75.34669,
            6.081133
          ],
          [
            -75.346532,
            6.081116
          ],
          [
            -75.346459,
            6.081098
          ],
          [
            -75.346322,
            6.081033
          ],
          [
            -75.346077,
            6.080868
          ],
          [
            -75.345776,
            6.080496
          ],
          [
            -75.345697,
            6.080433
          ],
          [
            -75.345572,
            6.080407
          ],
          [
            -75.345364,
            6.080424
          ],
          [
            -75.345302,
            6.080457
          ],
          [
            -75.345169,
            6.080543
          ],
          [
            -75.344903,
            6.080752
          ],
          [
            -75.344773,
            6.080826
          ],
          [
            -75.344683,
            6.080853
          ],
          [
            -75.344239,
            6.080908
          ],
          [
            -75.343972,
            6.080961
          ],
          [
            -75.343578,
            6.0811
          ],
          [
            -75.342741,
            6.081613
          ],
          [
            -75.342571,
            6.08168
          ],
          [
            -75.341721,
            6.081944
          ],
          [
            -75.341525,
            6.082018
          ],
          [
            -75.341363,
            6.08206
          ],
          [
            -75.340903,
            6.082116
          ],
          [
            -75.34059,
            6.082191
          ],
          [
            -75.340172,
            6.082402
          ],
          [
            -75.339738,
            6.082578
          ],
          [
            -75.339653,
            6.082599
          ],
          [
            -75.339461,
            6.082668
          ],
          [
            -75.338765,
            6.082778
          ],
          [
            -75.338666,
            6.082764
          ],
          [
            -75.338455,
            6.082687
          ],
          [
            -75.338353,
            6.082605
          ],
          [
            -75.338192,
            6.08242
          ],
          [
            -75.338011,
            6.08219
          ],
          [
            -75.337753,
            6.081973
          ],
          [
            -75.337663,
            6.08192
          ],
          [
            -75.337513,
            6.081865
          ],
          [
            -75.337263,
            6.081863
          ],
          [
            -75.33655,
            6.082198
          ],
          [
            -75.33626,
            6.082336
          ],
          [
            -75.335478,
            6.082708
          ],
          [
            -75.335405,
            6.082826
          ],
          [
            -75.334896,
            6.083084
          ],
          [
            -75.334743,
            6.083087
          ],
          [
            -75.334089,
            6.083417
          ],
          [
            -75.334448,
            6.084152
          ],
          [
            -75.335109,
            6.083816
          ],
          [
            -75.335197,
            6.083677
          ],
          [
            -75.335708,
            6.083418
          ],
          [
            -75.335851,
            6.08345
          ],
          [
            -75.336187,
            6.08422
          ],
          [
            -75.336297,
            6.084467
          ],
          [
            -75.336531,
            6.08497
          ],
          [
            -75.336944,
            6.08576
          ],
          [
            -75.337163,
            6.086173
          ],
          [
            -75.337243,
            6.086616
          ],
          [
            -75.337348,
            6.087284
          ],
          [
            -75.337477,
            6.087978
          ],
          [
            -75.337447,
            6.089005
          ],
          [
            -75.337424,
            6.089811
          ],
          [
            -75.337424,
            6.089872
          ],
          [
            -75.337422,
            6.090374
          ],
          [
            -75.337457,
            6.090937
          ],
          [
            -75.337529,
            6.091189
          ],
          [
            -75.337597,
            6.091274
          ],
          [
            -75.337614,
            6.091317
          ],
          [
            -75.337751,
            6.091654
          ],
          [
            -75.337836,
            6.091863
          ],
          [
            -75.3379,
            6.092004
          ],
          [
            -75.338114,
            6.092509
          ],
          [
            -75.338154,
            6.092605
          ],
          [
            -75.338354,
            6.093131
          ],
          [
            -75.33876,
            6.094139
          ],
          [
            -75.338836,
            6.094292
          ],
          [
            -75.338858,
            6.094371
          ],
          [
            -75.339036,
            6.094707
          ],
          [
            -75.339345,
            6.095218
          ],
          [
            -75.339567,
            6.095587
          ],
          [
            -75.33993,
            6.096144
          ],
          [
            -75.34006,
            6.096374
          ],
          [
            -75.340091,
            6.09644
          ],
          [
            -75.340348,
            6.096824
          ],
          [
            -75.340624,
            6.097191
          ],
          [
            -75.340764,
            6.097324
          ],
          [
            -75.341051,
            6.097554
          ],
          [
            -75.34122,
            6.097702
          ],
          [
            -75.34142,
            6.097852
          ],
          [
            -75.341678,
            6.098044
          ],
          [
            -75.341801,
            6.098099
          ],
          [
            -75.341921,
            6.098134
          ],
          [
            -75.342106,
            6.098149
          ],
          [
            -75.342552,
            6.098114
          ],
          [
            -75.342656,
            6.098112
          ],
          [
            -75.342956,
            6.098083
          ],
          [
            -75.343303,
            6.098077
          ],
          [
            -75.343432,
            6.098093
          ],
          [
            -75.343635,
            6.098143
          ],
          [
            -75.3438,
            6.098215
          ],
          [
            -75.344424,
            6.098559
          ],
          [
            -75.344542,
            6.09859
          ],
          [
            -75.34476,
            6.098573
          ],
          [
            -75.345056,
            6.098468
          ],
          [
            -75.345242,
            6.098431
          ],
          [
            -75.345408,
            6.098448
          ],
          [
            -75.345889,
            6.098693
          ],
          [
            -75.34643,
            6.099002
          ],
          [
            -75.346542,
            6.099072
          ],
          [
            -75.346698,
            6.099207
          ],
          [
            -75.346822,
            6.099464
          ],
          [
            -75.346913,
            6.099903
          ],
          [
            -75.347016,
            6.100589
          ],
          [
            -75.347122,
            6.100826
          ],
          [
            -75.347283,
            6.101068
          ],
          [
            -75.347375,
            6.101293
          ],
          [
            -75.347529,
            6.10188
          ],
          [
            -75.34767,
            6.102426
          ],
          [
            -75.347676,
            6.102727
          ],
          [
            -75.347586,
            6.103137
          ],
          [
            -75.34739,
            6.103894
          ],
          [
            -75.347196,
            6.104592
          ],
          [
            -75.347185,
            6.105256
          ],
          [
            -75.347187,
            6.106821
          ],
          [
            -75.347189,
            6.106949
          ],
          [
            -75.347172,
            6.107237
          ],
          [
            -75.347138,
            6.107384
          ],
          [
            -75.346817,
            6.108343
          ],
          [
            -75.346765,
            6.10854
          ],
          [
            -75.34677,
            6.108712
          ],
          [
            -75.346813,
            6.108873
          ],
          [
            -75.346999,
            6.109345
          ],
          [
            -75.347379,
            6.110215
          ],
          [
            -75.34743,
            6.110423
          ],
          [
            -75.347431,
            6.110538
          ],
          [
            -75.347386,
            6.110647
          ],
          [
            -75.347304,
            6.110769
          ],
          [
            -75.346902,
            6.111107
          ],
          [
            -75.346776,
            6.111231
          ],
          [
            -75.346676,
            6.111375
          ],
          [
            -75.346577,
            6.111613
          ],
          [
            -75.34651,
            6.111882
          ],
          [
            -75.346482,
            6.112152
          ],
          [
            -75.346498,
            6.112343
          ],
          [
            -75.346551,
            6.112522
          ],
          [
            -75.34682,
            6.1131
          ],
          [
            -75.347162,
            6.113905
          ],
          [
            -75.347475,
            6.11483
          ],
          [
            -75.347636,
            6.115669
          ],
          [
            -75.347861,
            6.116731
          ],
          [
            -75.347939,
            6.117334
          ],
          [
            -75.347952,
            6.117903
          ],
          [
            -75.347976,
            6.119434
          ],
          [
            -75.34796,
            6.119919
          ],
          [
            -75.348,
            6.120531
          ],
          [
            -75.348246,
            6.121337
          ],
          [
            -75.348344,
            6.121568
          ],
          [
            -75.348477,
            6.121726
          ],
          [
            -75.349323,
            6.122615
          ],
          [
            -75.349472,
            6.122839
          ],
          [
            -75.349624,
            6.123199
          ],
          [
            -75.349694,
            6.123318
          ],
          [
            -75.350125,
            6.12392
          ],
          [
            -75.350283,
            6.124267
          ],
          [
            -75.350322,
            6.124417
          ],
          [
            -75.350367,
            6.124477
          ],
          [
            -75.350432,
            6.124764
          ],
          [
            -75.350524,
            6.124868
          ],
          [
            -75.350803,
            6.125096
          ],
          [
            -75.351065,
            6.125361
          ],
          [
            -75.351179,
            6.125432
          ],
          [
            -75.351469,
            6.125507
          ],
          [
            -75.352059,
            6.12638
          ],
          [
            -75.352321,
            6.126869
          ],
          [
            -75.352429,
            6.127168
          ],
          [
            -75.352517,
            6.127474
          ],
          [
            -75.352568,
            6.127722
          ],
          [
            -75.352592,
            6.127965
          ],
          [
            -75.352577,
            6.128199
          ],
          [
            -75.352481,
            6.128707
          ],
          [
            -75.352351,
            6.129245
          ],
          [
            -75.35225,
            6.129621
          ],
          [
            -75.352172,
            6.129992
          ],
          [
            -75.352145,
            6.13017
          ],
          [
            -75.352141,
            6.130427
          ],
          [
            -75.352183,
            6.130897
          ],
          [
            -75.352249,
            6.131239
          ],
          [
            -75.352348,
            6.132005
          ],
          [
            -75.352363,
            6.132488
          ],
          [
            -75.352339,
            6.13351
          ],
          [
            -75.352313,
            6.133734
          ],
          [
            -75.351668,
            6.135682
          ],
          [
            -75.351543,
            6.136065
          ],
          [
            -75.351524,
            6.136197
          ],
          [
            -75.351515,
            6.137347
          ],
          [
            -75.351359,
            6.138207
          ],
          [
            -75.351339,
            6.13848
          ],
          [
            -75.351338,
            6.139063
          ],
          [
            -75.351369,
            6.13937
          ],
          [
            -75.351406,
            6.139523
          ],
          [
            -75.351434,
            6.139605
          ],
          [
            -75.351469,
            6.139738
          ],
          [
            -75.351496,
            6.139978
          ],
          [
            -75.351487,
            6.140064
          ],
          [
            -75.351462,
            6.14013
          ],
          [
            -75.351288,
            6.140445
          ],
          [
            -75.351262,
            6.140527
          ],
          [
            -75.351246,
            6.140648
          ],
          [
            -75.351266,
            6.140763
          ],
          [
            -75.351307,
            6.140885
          ],
          [
            -75.351382,
            6.141004
          ],
          [
            -75.351589,
            6.141214
          ],
          [
            -75.351697,
            6.141417
          ],
          [
            -75.351795,
            6.141556
          ],
          [
            -75.351901,
            6.141831
          ],
          [
            -75.351937,
            6.142059
          ],
          [
            -75.352109,
            6.14251
          ],
          [
            -75.352181,
            6.142643
          ],
          [
            -75.352345,
            6.142841
          ],
          [
            -75.352366,
            6.142865
          ],
          [
            -75.352489,
            6.143014
          ],
          [
            -75.352518,
            6.143188
          ],
          [
            -75.352448,
            6.143692
          ],
          [
            -75.352499,
            6.143951
          ],
          [
            -75.352735,
            6.144279
          ],
          [
            -75.353109,
            6.144706
          ],
          [
            -75.353598,
            6.145264
          ],
          [
            -75.354186,
            6.146079
          ],
          [
            -75.354302,
            6.146348
          ],
          [
            -75.354348,
            6.146611
          ],
          [
            -75.354356,
            6.146743
          ],
          [
            -75.354481,
            6.147218
          ],
          [
            -75.354835,
            6.147682
          ],
          [
            -75.354904,
            6.147772
          ],
          [
            -75.355449,
            6.148308
          ],
          [
            -75.355719,
            6.148495
          ],
          [
            -75.355965,
            6.148587
          ],
          [
            -75.356468,
            6.148738
          ],
          [
            -75.356648,
            6.148792
          ],
          [
            -75.356943,
            6.148881
          ],
          [
            -75.357182,
            6.148953
          ],
          [
            -75.357449,
            6.148917
          ],
          [
            -75.357616,
            6.148849
          ],
          [
            -75.357932,
            6.148659
          ],
          [
            -75.358339,
            6.148449
          ],
          [
            -75.358453,
            6.148411
          ],
          [
            -75.358554,
            6.148404
          ],
          [
            -75.358666,
            6.148418
          ],
          [
            -75.35885,
            6.148472
          ],
          [
            -75.359371,
            6.148745
          ],
          [
            -75.359481,
            6.14884
          ],
          [
            -75.359627,
            6.149044
          ],
          [
            -75.35968,
            6.149124
          ],
          [
            -75.359835,
            6.14938
          ],
          [
            -75.359883,
            6.149452
          ],
          [
            -75.360129,
            6.149816
          ],
          [
            -75.360301,
            6.150035
          ],
          [
            -75.360398,
            6.150159
          ],
          [
            -75.360977,
            6.150743
          ],
          [
            -75.361547,
            6.151214
          ],
          [
            -75.362963,
            6.152504
          ],
          [
            -75.363142,
            6.15265
          ],
          [
            -75.363309,
            6.152763
          ],
          [
            -75.363379,
            6.152901
          ],
          [
            -75.363378,
            6.152952
          ],
          [
            -75.363271,
            6.153152
          ],
          [
            -75.363249,
            6.153166
          ],
          [
            -75.363621,
            6.153737
          ],
          [
            -75.363694,
            6.153776
          ],
          [
            -75.363889,
            6.153827
          ],
          [
            -75.364038,
            6.153922
          ],
          [
            -75.364529,
            6.15447
          ],
          [
            -75.364614,
            6.154574
          ],
          [
            -75.364666,
            6.154672
          ],
          [
            -75.3648,
            6.155151
          ],
          [
            -75.3651,
            6.155835
          ],
          [
            -75.365207,
            6.156019
          ],
          [
            -75.365111,
            6.156173
          ],
          [
            -75.365006,
            6.15652
          ],
          [
            -75.364901,
            6.156922
          ],
          [
            -75.364821,
            6.157226
          ],
          [
            -75.364741,
            6.157573
          ],
          [
            -75.364733,
            6.157657
          ],
          [
            -75.364757,
            6.157928
          ],
          [
            -75.364796,
            6.158111
          ],
          [
            -75.364917,
            6.158495
          ],
          [
            -75.364996,
            6.158678
          ],
          [
            -75.365232,
            6.159051
          ],
          [
            -75.365555,
            6.159457
          ],
          [
            -75.365636,
            6.159582
          ],
          [
            -75.365683,
            6.159666
          ],
          [
            -75.365718,
            6.159807
          ],
          [
            -75.365735,
            6.159962
          ],
          [
            -75.365714,
            6.160171
          ],
          [
            -75.365678,
            6.1603
          ],
          [
            -75.365564,
            6.160508
          ],
          [
            -75.365493,
            6.16059
          ],
          [
            -75.365385,
            6.160689
          ],
          [
            -75.364899,
            6.160992
          ],
          [
            -75.364663,
            6.161179
          ],
          [
            -75.364218,
            6.161602
          ],
          [
            -75.36359,
            6.162247
          ],
          [
            -75.361735,
            6.164127
          ],
          [
            -75.361613,
            6.164309
          ],
          [
            -75.361474,
            6.164651
          ],
          [
            -75.36137,
            6.164848
          ],
          [
            -75.36125,
            6.164933
          ],
          [
            -75.361186,
            6.165022
          ],
          [
            -75.361151,
            6.165125
          ],
          [
            -75.361147,
            6.165239
          ],
          [
            -75.361178,
            6.165349
          ],
          [
            -75.36124,
            6.165444
          ],
          [
            -75.361328,
            6.165518
          ],
          [
            -75.361434,
            6.165561
          ],
          [
            -75.361541,
            6.165653
          ],
          [
            -75.361603,
            6.165741
          ],
          [
            -75.361681,
            6.165931
          ],
          [
            -75.36298,
            6.169712
          ],
          [
            -75.363095,
            6.169993
          ],
          [
            -75.36377,
            6.17119
          ],
          [
            -75.363838,
            6.171339
          ],
          [
            -75.363881,
            6.171485
          ],
          [
            -75.363894,
            6.171678
          ],
          [
            -75.363878,
            6.171837
          ],
          [
            -75.363799,
            6.172028
          ],
          [
            -75.363113,
            6.172811
          ],
          [
            -75.362925,
            6.173048
          ],
          [
            -75.362821,
            6.173195
          ],
          [
            -75.362732,
            6.173401
          ],
          [
            -75.362532,
            6.17381
          ],
          [
            -75.362408,
            6.17404
          ],
          [
            -75.362157,
            6.174578
          ],
          [
            -75.361936,
            6.175285
          ],
          [
            -75.36177,
            6.175773
          ],
          [
            -75.361666,
            6.176066
          ],
          [
            -75.361472,
            6.176489
          ],
          [
            -75.361396,
            6.176666
          ],
          [
            -75.361203,
            6.177077
          ],
          [
            -75.361006,
            6.177507
          ],
          [
            -75.360815,
            6.177928
          ],
          [
            -75.360689,
            6.178133
          ],
          [
            -75.360614,
            6.178202
          ],
          [
            -75.36056,
            6.178236
          ],
          [
            -75.360525,
            6.17824
          ],
          [
            -75.360459,
            6.178263
          ],
          [
            -75.360223,
            6.178233
          ],
          [
            -75.358878,
            6.177769
          ],
          [
            -75.357971,
            6.177445
          ],
          [
            -75.35773,
            6.177359
          ],
          [
            -75.357564,
            6.177308
          ],
          [
            -75.356487,
            6.176906
          ],
          [
            -75.356401,
            6.176874
          ],
          [
            -75.35482,
            6.176317
          ],
          [
            -75.353895,
            6.175981
          ],
          [
            -75.352936,
            6.17566
          ],
          [
            -75.352101,
            6.175392
          ],
          [
            -75.35148,
            6.175194
          ],
          [
            -75.350161,
            6.174781
          ],
          [
            -75.349739,
            6.174649
          ],
          [
            -75.349512,
            6.174578
          ],
          [
            -75.349275,
            6.174504
          ],
          [
            -75.348435,
            6.174233
          ],
          [
            -75.348055,
            6.174089
          ],
          [
            -75.347853,
            6.173981
          ],
          [
            -75.347659,
            6.173854
          ],
          [
            -75.346763,
            6.173173
          ],
          [
            -75.346501,
            6.172976
          ],
          [
            -75.346101,
            6.17273
          ],
          [
            -75.345853,
            6.172595
          ],
          [
            -75.345549,
            6.172481
          ],
          [
            -75.345086,
            6.172351
          ],
          [
            -75.344964,
            6.172286
          ],
          [
            -75.3448,
            6.172243
          ],
          [
            -75.344722,
            6.172196
          ],
          [
            -75.344672,
            6.172139
          ],
          [
            -75.344643,
            6.172063
          ],
          [
            -75.344645,
            6.17185
          ],
          [
            -75.344679,
            6.171756
          ],
          [
            -75.344773,
            6.17167
          ],
          [
            -75.344857,
            6.171652
          ],
          [
            -75.344898,
            6.171621
          ],
          [
            -75.344962,
            6.171642
          ],
          [
            -75.345066,
            6.171657
          ],
          [
            -75.345256,
            6.171739
          ],
          [
            -75.34535,
            6.171792
          ],
          [
            -75.345419,
            6.171852
          ],
          [
            -75.345458,
            6.17192
          ],
          [
            -75.345477,
            6.172003
          ],
          [
            -75.345453,
            6.172178
          ],
          [
            -75.345425,
            6.172295
          ],
          [
            -75.345271,
            6.17285
          ],
          [
            -75.345255,
            6.172986
          ],
          [
            -75.345268,
            6.173091
          ],
          [
            -75.345306,
            6.173203
          ],
          [
            -75.345385,
            6.173322
          ],
          [
            -75.345492,
            6.173416
          ],
          [
            -75.345923,
            6.173704
          ],
          [
            -75.346038,
            6.173901
          ],
          [
            -75.346036,
            6.173964
          ],
          [
            -75.346079,
            6.174083
          ],
          [
            -75.345989,
            6.174346
          ],
          [
            -75.345954,
            6.174398
          ],
          [
            -75.345786,
            6.174631
          ],
          [
            -75.345733,
            6.174705
          ],
          [
            -75.34549,
            6.175022
          ],
          [
            -75.345313,
            6.175261
          ],
          [
            -75.345261,
            6.175292
          ],
          [
            -75.345162,
            6.175379
          ],
          [
            -75.344117,
            6.174596
          ],
          [
            -75.343823,
            6.174446
          ],
          [
            -75.342835,
            6.174013
          ],
          [
            -75.342382,
            6.173834
          ],
          [
            -75.342198,
            6.173775
          ],
          [
            -75.341094,
            6.173496
          ],
          [
            -75.340817,
            6.173429
          ],
          [
            -75.340257,
            6.173286
          ],
          [
            -75.340058,
            6.17324
          ],
          [
            -75.339663,
            6.173139
          ],
          [
            -75.339385,
            6.173092
          ],
          [
            -75.338902,
            6.17312
          ],
          [
            -75.338892,
            6.173264
          ],
          [
            -75.338862,
            6.173588
          ],
          [
            -75.338839,
            6.173645
          ],
          [
            -75.338764,
            6.173741
          ],
          [
            -75.338749,
            6.173777
          ],
          [
            -75.338786,
            6.174066
          ],
          [
            -75.33884,
            6.174116
          ],
          [
            -75.338919,
            6.174147
          ],
          [
            -75.33903,
            6.174231
          ],
          [
            -75.339008,
            6.174274
          ],
          [
            -75.338934,
            6.174412
          ],
          [
            -75.338915,
            6.174491
          ],
          [
            -75.33893,
            6.174528
          ],
          [
            -75.338519,
            6.17444
          ],
          [
            -75.338256,
            6.175163
          ],
          [
            -75.338118,
            6.175445
          ],
          [
            -75.337949,
            6.175777
          ],
          [
            -75.337807,
            6.175745
          ]
        ],
        "type": "LineString"
      }
    }
  ],
  "metadata": {
    "attribution": "openrouteservice.org | OpenStreetMap contributors",
    "service": "routing",
    "timestamp": 1764859410373,
    "query": {
      "coordinates": [
        [
          -75.43997379999999,
          6.0211736
        ],
        [
          -75.3378142,
          6.1757136
        ]
      ],
      "profile": "driving-hgv",
      "profileName": "driving-hgv",
      "preference": "recommended",
      "format": "geojson",
      "language": "es",
      "options": {
        "profile_params": {
          "restrictions": {
            "length": 8.0,
            "width": 2.5,
            "height": 3.5
          },
          "surface_quality_known": false,
          "allow_unsuitable": false
        },
        "avoid_polygons": {
          "coordinates": [
            [
              [
                [
                  -75.53398800000001,
                  6.1525436
                ],
                [
                  -75.531988,
                  6.1525436
                ],
                [
                  -75.531988,
                  6.1545436
                ],
                [
                  -75.53398800000001,
                  6.1545436
                ],
                [
                  -75.53398800000001,
                  6.1525436
                ]
              ]
            ],
            [
              [
                [
                  -75.49099790000001,
                  6.0932509999999995
                ],
                [
                  -75.4889979,
                  6.0932509999999995
                ],
                [
                  -75.4889979,
                  6.095251
                ],
                [
                  -75.49099790000001,
                  6.095251
                ],
                [
                  -75.49099790000001,
                  6.0932509999999995
                ]
              ]
            ],
            [
              [
                [
                  -75.44939930000001,
                  6.1764060999999995
                ],
                [
                  -75.4473993,
                  6.1764060999999995
                ],
                [
                  -75.4473993,
                  6.1784061
                ],
                [
                  -75.44939930000001,
                  6.1784061
                ],
                [
                  -75.44939930000001,
                  6.1764060999999995
                ]
              ]
            ],
            [
              [
                [
                  -75.4890572,
                  6.2037862
                ],
                [
                  -75.4870572,
                  6.2037862
                ],
                [
                  -75.4870572,
                  6.2057862
                ],
                [
                  -75.4890572,
                  6.2057862
                ],
                [
                  -75.4890572,
                  6.2037862
                ]
              ]
            ],
            [
              [
                [
                  -75.46672650000001,
                  6.1850524
                ],
                [
                  -75.4647265,
                  6.1850524
                ],
                [
                  -75.4647265,
                  6.187052400000001
                ],
                [
                  -75.46672650000001,
                  6.187052400000001
                ],
                [
                  -75.46672650000001,
                  6.1850524
                ]
              ]
            ],
            [
              [
                [
                  -75.5035304,
                  6.2159613
                ],
                [
                  -75.5015304,
                  6.2159613
                ],
                [
                  -75.5015304,
                  6.217961300000001
                ],
                [
                  -75.5035304,
                  6.217961300000001
                ],
                [
                  -75.5035304,
                  6.2159613
                ]
              ]
            ],
            [
              [
                [
                  -75.4913478,
                  6.170510299999999
                ],
                [
                  -75.48934779999999,
                  6.170510299999999
                ],
                [
                  -75.48934779999999,
                  6.1725103
                ],
                [
                  -75.4913478,
                  6.1725103
                ],
                [
                  -75.4913478,
                  6.170510299999999
                ]
              ]
            ],
            [
              [
                [
                  -75.5250472,
                  6.1422792
                ],
                [
                  -75.5230472,
                  6.1422792
                ],
                [
                  -75.5230472,
                  6.144279200000001
                ],
                [
                  -75.5250472,
                  6.144279200000001
                ],
                [
                  -75.5250472,
                  6.1422792
                ]
              ]
            ],
            [
              [
                [
                  -75.42459550000001,
                  6.123615999999999
                ],
                [
                  -75.4225955,
                  6.123615999999999
                ],
                [
                  -75.4225955,
                  6.125616
                ],
                [
                  -75.42459550000001,
                  6.125616
                ],
                [
                  -75.42459550000001,
                  6.123615999999999
                ]
              ]
            ],
            [
              [
                [
                  -75.5600752,
                  6.2197343
                ],
                [
                  -75.55807519999999,
                  6.2197343
                ],
                [
                  -75.55807519999999,
                  6.2217343000000005
                ],
                [
                  -75.5600752,
                  6.2217343000000005
                ],
                [
                  -75.5600752,
                  6.2197343
                ]
              ]
            ],
            [
              [
                [
                  -75.4291982,
                  6.0892721
                ],
                [
                  -75.42719819999999,
                  6.0892721
                ],
                [
                  -75.42719819999999,
                  6.0912721
                ],
                [
                  -75.4291982,
                  6.0912721
                ],
                [
                  -75.4291982,
                  6.0892721
                ]
              ]
            ],
            [
              [
                [
                  -75.50124240000001,
                  6.1697112
                ],
                [
                  -75.4992424,
                  6.1697112
                ],
                [
                  -75.4992424,
                  6.171711200000001
                ],
                [
                  -75.50124240000001,
                  6.171711200000001
                ],
                [
                  -75.50124240000001,
                  6.1697112
                ]
              ]
            ],
            [
              [
                [
                  -75.4364807,
                  6.1772187
                ],
                [
                  -75.4344807,
                  6.1772187
                ],
                [
                  -75.4344807,
                  6.179218700000001
                ],
                [
                  -75.4364807,
                  6.179218700000001
                ],
                [
                  -75.4364807,
                  6.1772187
                ]
              ]
            ],
            [
              [
                [
                  -75.4336162,
                  6.2493549999999995
                ],
                [
                  -75.4316162,
                  6.2493549999999995
                ],
                [
                  -75.4316162,
                  6.251355
                ],
                [
                  -75.4336162,
                  6.251355
                ],
                [
                  -75.4336162,
                  6.2493549999999995
                ]
              ]
            ],
            [
              [
                [
                  -75.555226,
                  6.133627199999999
                ],
                [
                  -75.553226,
                  6.133627199999999
                ],
                [
                  -75.553226,
                  6.1356272
                ],
                [
                  -75.555226,
                  6.1356272
                ],
                [
                  -75.555226,
                  6.133627199999999
                ]
              ]
            ],
            [
              [
                [
                  -75.481297,
                  6.089910199999999
                ],
                [
                  -75.47929699999999,
                  6.089910199999999
                ],
                [
                  -75.47929699999999,
                  6.0919102
                ],
                [
                  -75.481297,
                  6.0919102
                ],
                [
                  -75.481297,
                  6.089910199999999
                ]
              ]
            ],
            [
              [
                [
                  -75.4232837,
                  6.059844
                ],
                [
                  -75.42128369999999,
                  6.059844
                ],
                [
                  -75.42128369999999,
                  6.061844000000001
                ],
                [
                  -75.4232837,
                  6.061844000000001
                ],
                [
                  -75.4232837,
                  6.059844
                ]
              ]
            ],
            [
              [
                [
                  -75.4577368,
                  6.0576535
                ],
                [
                  -75.4557368,
                  6.0576535
                ],
                [
                  -75.4557368,
                  6.0596535000000005
                ],
                [
                  -75.4577368,
                  6.0596535000000005
                ],
                [
                  -75.4577368,
                  6.0576535
                ]
              ]
            ],
            [
              [
                [
                  -75.43430260000001,
                  6.1414703
                ],
                [
                  -75.4323026,
                  6.1414703
                ],
                [
                  -75.4323026,
                  6.143470300000001
                ],
                [
                  -75.43430260000001,
                  6.143470300000001
                ],
                [
                  -75.43430260000001,
                  6.1414703
                ]
              ]
            ],
            [
              [
                [
                  -75.452403,
                  6.112123599999999
                ],
                [
                  -75.450403,
                  6.112123599999999
                ],
                [
                  -75.450403,
                  6.1141236
                ],
                [
                  -75.452403,
                  6.1141236
                ],
                [
                  -75.452403,
                  6.112123599999999
                ]
              ]
            ],
            [
              [
                [
                  -75.6342218,
                  6.0668213
                ],
                [
                  -75.6322218,
                  6.0668213
                ],
                [
                  -75.6322218,
                  6.068821300000001
                ],
                [
                  -75.6342218,
                  6.068821300000001
                ],
                [
                  -75.6342218,
                  6.0668213
                ]
              ]
            ],
            [
              [
                [
                  -75.4502234,
                  6.0178674
                ],
                [
                  -75.44822339999999,
                  6.0178674
                ],
                [
                  -75.44822339999999,
                  6.019867400000001
                ],
                [
                  -75.4502234,
                  6.019867400000001
                ],
                [
                  -75.4502234,
                  6.0178674
                ]
              ]
            ],
            [
              [
                [
                  -75.4329548,
                  6.008317399999999
                ],
                [
                  -75.4309548,
                  6.008317399999999
                ],
                [
                  -75.4309548,
                  6.0103174
                ],
                [
                  -75.4329548,
                  6.0103174
                ],
                [
                  -75.4329548,
                  6.008317399999999
                ]
              ]
            ],
            [
              [
                [
                  -75.4134652,
                  6.022465599999999
                ],
                [
                  -75.4114652,
                  6.022465599999999
                ],
                [
                  -75.4114652,
                  6.0244656
                ],
                [
                  -75.4134652,
                  6.0244656
                ],
                [
                  -75.4134652,
                  6.022465599999999
                ]
              ]
            ],
            [
              [
                [
                  -75.3412419,
                  6.138306399999999
                ],
                [
                  -75.33924189999999,
                  6.138306399999999
                ],
                [
                  -75.33924189999999,
                  6.1403064
                ],
                [
                  -75.3412419,
                  6.1403064
                ],
                [
                  -75.3412419,
                  6.138306399999999
                ]
              ]
            ]
          ],
          "type": "MultiPolygon"
        }
      }
    },
    "engine": {
      "version": "9.5.0",
      "build_date": "2025-10-31T12:33:09Z",
      "graph_date": "2025-12-01T03:52:42Z",
      "osm_date": "2025-11-24T00:59:59Z"
    }
  }
}