{
  "type": "FeatureCollection",
  "bbox": [
    -75.376249,
    6.148486,
    -75.337807,
    6.178263
  ],
  "features": [
    {
      "bbox": [
        -75.376249,
        6.148486,
        -75.337807,
        6.178263
      ],
      "type": "Feature",
      "properties": {
        "extras": {
          "roadaccessrestrictions": {
            "values": [
              [
                0,
                215,
                0
              ],
              [
                215,
                224,
                32
              ],
              [
                224,
                233,
                0
              ]
            ],
            "summary": [
              {
                "value": 0.0,
                "distance": 8666.0,
                "amount": 98.38
              },
              {
                "value": 32.0,
                "distance": 142.3,
                "amount": 1.62
              }
            ]
          }
        },
        "warnings": [
          {
            "code": 1,
            "message": "There may be restrictions on some roads"
          }
        ],
        "way_points": [
          0,
          233
        ],
        "summary": {
          "distance": 8808.3,
          "duration": 969.7
        }
      },
      "geometry": {
        "coordinates": [
          [
            -75.375771,
            6.151662
          ],
          [
            -75.375917,
            6.151655
          ],
          [
            -75.376151,
            6.151675
          ],
          [
            -75.376249,
            6.150833
          ],
          [
            -75.375366,
            6.150745
          ],
          [
            -75.3753,
            6.150166
          ],
          [
            -75.375338,
            6.149603
          ],
          [
            -75.375427,
            6.149179
          ],
          [
            -75.375543,
            6.14888
          ],
          [
            -75.37565,
            6.148891
          ],
          [
            -75.375698,
            6.148869
          ],
          [
            -75.375926,
            6.14888
          ],
          [
            -75.375941,
            6.148846
          ],
          [
            -75.375901,
            6.148767
          ],
          [
            -75.375649,
            6.1487
          ],
          [
            -75.375382,
            6.148624
          ],
          [
            -75.375075,
            6.148549
          ],
          [
            -75.374728,
            6.148486
          ],
          [
            -75.374466,
            6.148529
          ],
          [
            -75.374297,
            6.148599
          ],
          [
            -75.372932,
            6.149372
          ],
          [
            -75.372571,
            6.149577
          ],
          [
            -75.372502,
            6.149616
          ],
          [
            -75.372424,
            6.149659
          ],
          [
            -75.372122,
            6.149838
          ],
          [
            -75.371923,
            6.149997
          ],
          [
            -75.371565,
            6.150318
          ],
          [
            -75.370981,
            6.150881
          ],
          [
            -75.370856,
            6.15103
          ],
          [
            -75.37076,
            6.151183
          ],
          [
            -75.3707,
            6.151315
          ],
          [
            -75.37061,
            6.151642
          ],
          [
            -75.370544,
            6.151802
          ],
          [
            -75.370424,
            6.152011
          ],
          [
            -75.370344,
            6.152087
          ],
          [
            -75.370287,
            6.152184
          ],
          [
            -75.370261,
            6.152293
          ],
          [
            -75.370267,
            6.152405
          ],
          [
            -75.370305,
            6.152511
          ],
          [
            -75.370371,
            6.152602
          ],
          [
            -75.37045,
            6.152664
          ],
          [
            -75.370542,
            6.152705
          ],
          [
            -75.370642,
            6.15272
          ],
          [
            -75.370742,
            6.152711
          ],
          [
            -75.37072,
            6.152791
          ],
          [
            -75.370781,
            6.153344
          ],
          [
            -75.370729,
            6.154303
          ],
          [
            -75.370677,
            6.154849
          ],
          [
            -75.370644,
            6.15523
          ],
          [
            -75.370636,
            6.155297
          ],
          [
            -75.370587,
            6.15576
          ],
          [
            -75.370518,
            6.156176
          ],
          [
            -75.37046,
            6.15636
          ],
          [
            -75.370365,
            6.156588
          ],
          [
            -75.370244,
            6.156756
          ],
          [
            -75.369891,
            6.157264
          ],
          [
            -75.369606,
            6.157737
          ],
          [
            -75.369439,
            6.158105
          ],
          [
            -75.369438,
            6.15826
          ],
          [
            -75.369355,
            6.158457
          ],
          [
            -75.369294,
            6.158566
          ],
          [
            -75.369315,
            6.158656
          ],
          [
            -75.369659,
            6.15883
          ],
          [
            -75.369574,
            6.159168
          ],
          [
            -75.369562,
            6.159211
          ],
          [
            -75.369501,
            6.159428
          ],
          [
            -75.369415,
            6.15975
          ],
          [
            -75.36932,
            6.159997
          ],
          [
            -75.369277,
            6.160071
          ],
          [
            -75.369091,
            6.160177
          ],
          [
            -75.368931,
            6.160204
          ],
          [
            -75.368854,
            6.16018
          ],
          [
            -75.368774,
            6.160193
          ],
          [
            -75.368739,
            6.160213
          ],
          [
            -75.36858,
            6.16022
          ],
          [
            -75.368476,
            6.16021
          ],
          [
            -75.368131,
            6.160052
          ],
          [
            -75.367794,
            6.159884
          ],
          [
            -75.367704,
            6.159838
          ],
          [
            -75.367405,
            6.159694
          ],
          [
            -75.36727,
            6.159647
          ],
          [
            -75.366995,
            6.159597
          ],
          [
            -75.366587,
            6.159572
          ],
          [
            -75.366328,
            6.159546
          ],
          [
            -75.365902,
            6.159478
          ],
          [
            -75.365777,
            6.159511
          ],
          [
            -75.365683,
            6.159666
          ],
          [
            -75.365718,
            6.159807
          ],
          [
            -75.365735,
            6.159962
          ],
          [
            -75.365714,
            6.160171
          ],
          [
            -75.365678,
            6.1603
          ],
          [
            -75.365564,
            6.160508
          ],
          [
            -75.365493,
            6.16059
          ],
          [
            -75.365385,
            6.160689
          ],
          [
            -75.364899,
            6.160992
          ],
          [
            -75.364663,
            6.161179
          ],
          [
            -75.364218,
            6.161602
          ],
          [
            -75.36359,
            6.162247
          ],
          [
            -75.361735,
            6.164127
          ],
          [
            -75.361613,
            6.164309
          ],
          [
            -75.361474,
            6.164651
          ],
          [
            -75.36137,
            6.164848
          ],
          [
            -75.36125,
            6.164933
          ],
          [
            -75.361186,
            6.165022
          ],
          [
            -75.361151,
            6.165125
          ],
          [
            -75.361147,
            6.165239
          ],
          [
            -75.361178,
            6.165349
          ],
          [
            -75.36124,
            6.165444
          ],
          [
            -75.361328,
            6.165518
          ],
          [
            -75.361434,
            6.165561
          ],
          [
            -75.361541,
            6.165653
          ],
          [
            -75.361603,
            6.165741
          ],
          [
            -75.361681,
            6.165931
          ],
          [
            -75.36298,
            6.169712
          ],
          [
            -75.363095,
            6.169993
          ],
          [
            -75.36377,
            6.17119
          ],
          [
            -75.363838,
            6.171339
          ],
          [
            -75.363881,
            6.171485
          ],
          [
            -75.363894,
            6.171678
          ],
          [
            -75.363878,
            6.171837
          ],
          [
            -75.363799,
            6.172028
          ],
          [
            -75.363113,
            6.172811
          ],
          [
            -75.362925,
            6.173048
          ],
          [
            -75.362821,
            6.173195
          ],
          [
            -75.362732,
            6.173401
          ],
          [
            -75.362532,
            6.17381
          ],
          [
            -75.362408,
            6.17404
          ],
          [
            -75.362157,
            6.174578
          ],
          [
            -75.361936,
            6.175285
          ],
          [
            -75.36177,
            6.175773
          ],
          [
            -75.361666,
            6.176066
          ],
          [
            -75.361472,
            6.176489
          ],
          [
            -75.361396,
            6.176666
          ],
          [
            -75.361203,
            6.177077
          ],
          [
            -75.361006,
            6.177507
          ],
          [
            -75.360815,
            6.177928
          ],
          [
            -75.360689,
            6.178133
          ],
          [
            -75.360614,
            6.178202
          ],
          [
            -75.36056,
            6.178236
          ],
          [
            -75.360525,
            6.17824
          ],
          [
            -75.360459,
            6.178263
          ],
          [
            -75.360223,
            6.178233
          ],
          [
            -75.358878,
            6.177769
          ],
          [
            -75.357971,
            6.177445
          ],
          [
            -75.35773,
            6.177359
          ],
          [
            -75.357564,
            6.177308
          ],
          [
            -75.356487,
            6.176906
          ],
          [
            -75.356401,
            6.176874
          ],
          [
            -75.35482,
            6.176317
          ],
          [
            -75.353895,
            6.175981
          ],
          [
            -75.352936,
            6.17566
          ],
          [
            -75.352101,
            6.175392
          ],
          [
            -75.35148,
            6.175194
          ],
          [
            -75.350161,
            6.174781
          ],
          [
            -75.349739,
            6.174649
          ],
          [
            -75.349512,
            6.174578
          ],
          [
            -75.349275,
            6.174504
          ],
          [
            -75.348435,
            6.174233
          ],
          [
            -75.348055,
            6.174089
          ],
          [
            -75.347853,
            6.173981
          ],
          [
            -75.347659,
            6.173854
          ],
          [
            -75.346763,
            6.173173
          ],
          [
            -75.346501,
            6.172976
          ],
          [
            -75.346101,
            6.17273
          ],
          [
            -75.345853,
            6.172595
          ],
          [
            -75.345549,
            6.172481
          ],
          [
            -75.345086,
            6.172351
          ],
          [
            -75.344964,
            6.172286
          ],
          [
            -75.3448,
            6.172243
          ],
          [
            -75.344722,
            6.172196
          ],
          [
            -75.344672,
            6.172139
          ],
          [
            -75.344643,
            6.172063
          ],
          [
            -75.344645,
            6.17185
          ],
          [
            -75.344679,
            6.171756
          ],
          [
            -75.344773,
            6.17167
          ],
          [
            -75.344857,
            6.171652
          ],
          [
            -75.344898,
            6.171621
          ],
          [
            -75.344962,
            6.171642
          ],
          [
            -75.345066,
            6.171657
          ],
          [
            -75.345256,
            6.171739
          ],
          [
            -75.34535,
            6.171792
          ],
          [
            -75.345419,
            6.171852
          ],
          [
            -75.345458,
            6.17192
          ],
          [
            -75.345477,
            6.172003
          ],
          [
            -75.345453,
            6.172178
          ],
          [
            -75.345425,
            6.172295
          ],
          [
            -75.345271,
            6.17285
          ],
          [
            -75.345255,
            6.172986
          ],
          [
            -75.345268,
            6.173091
          ],
          [
            -75.345306,
            6.173203
          ],
          [
            -75.345385,
            6.173322
          ],
          [
            -75.345492,
            6.173416
          ],
          [
            -75.345923,
            6.173704
          ],
          [
            -75.346038,
            6.173901
          ],
          [
            -75.346036,
            6.173964
          ],
          [
            -75.346079,
            6.174083
          ],
          [
            -75.345989,
            6.174346
          ],
          [
            -75.345954,
            6.174398
          ],
          [
            -75.345786,
            6.174631
          ],
          [
            -75.345733,
            6.174705
          ],
          [
            -75.34549,
            6.175022
          ],
          [
            -75.345313,
            6.175261
          ],
          [
            -75.345261,
            6.175292
          ],
          [
            -75.345162,
            6.175379
          ],
          [
            -75.344117,
            6.174596
          ],
          [
            -75.343823,
            6.174446
          ],
          [
            -75.342835,
            6.174013
          ],
          [
            -75.342382,
            6.173834
          ],
          [
            -75.342198,
            6.173775
          ],
          [
            -75.341094,
            6.173496
          ],
          [
            -75.340817,
            6.173429
          ],
          [
            -75.340257,
            6.173286
          ],
          [
            -75.340058,
            6.17324
          ],
          [
            -75.339663,
            6.173139
          ],
          [
            -75.339385,
            6.173092
          ],
          [
            -75.338902,
            6.17312
          ],
          [
            -75.338892,
            6.173264
          ],
          [
            -75.338862,
            6.173588
          ],
          [
            -75.338839,
            6.173645
          ],
          [
            -75.338764,
            6.173741
          ],
          [
            -75.338749,
            6.173777
          ],
          [
            -75.338786,
            6.174066
          ],
          [
            -75.33884,
            6.174116
          ],
          [
            -75.338919,
            6.174147
          ],
          [
            -75.33903,
            6.174231
          ],
          [
            -75.339008,
            6.174274
          ],
          [
            -75.338934,
            6.174412
          ],
          [
            -75.338915,
            6.174491
          ],
          [
            -75.33893,
            6.174528
          ],
          [
            -75.338519,
            6.17444
          ],
          [
            -75.338256,
            6.175163
          ],
          [
            -75.338118,
            6.175445
          ],
          [
            -75.337949,
            6.175777
          ],
          [
            -75.337807,
            6.175745
          ]
        ],
        "type": "LineString"
      }
    }
  ],
  "metadata": {
    "attribution": "openrouteservice.org | OpenStreetMap contributors",
    "service": "routing",
    "timestamp": 1764859515701,
    "query": {
      "coordinates": [
        [
          -75.37576399999999,
          6.1515135
        ],
        [
          -75.3378142,
          6.1757136
        ]
      ],
      "profile": "driving-hgv",
      "profileName": "driving-hgv",
      "preference": "recommended",
      "format": "geojson",
      "language": "es",
      "options": {
        "profile_params": {
          "restrictions": {
            "length": 8.0,
            "width": 2.5,
            "height": 3.5
          },
          "surface_quality_known": false,
          "allow_unsuitable": false
        },
        "avoid_polygons": {
          "coordinates": [
            [
              [
                [
                  -75.53398800000001,
                  6.1525436
                ],
                [
                  -75.531988,
                  6.1525436
                ],
                [
                  -75.531988,
                  6.1545436
                ],
                [
                  -75.53398800000001,
                  6.1545436
                ],
                [
                  -75.53398800000001,
                  6.1525436
                ]
              ]
            ],
            [
              [
                [
                  -75.49099790000001,
                  6.0932509999999995
                ],
                [
                  -75.4889979,
                  6.0932509999999995
                ],
                [
                  -75.4889979,
                  6.095251
                ],
                [
                  -75.49099790000001,
                  6.095251
                ],
                [
                  -75.49099790000001,
                  6.0932509999999995
                ]
              ]
            ],
            [
              [
                [
                  -75.44939930000001,
                  6.1764060999999995
                ],
                [
                  -75.4473993,
                  6.1764060999999995
                ],
                [
                  -75.4473993,
                  6.1784061
                ],
                [
                  -75.44939930000001,
                  6.1784061
                ],
                [
                  -75.44939930000001,
                  6.1764060999999995
                ]
              ]
            ],
            [
              [
                [
                  -75.4890572,
                  6.2037862
                ],
                [
                  -75.4870572,
                  6.2037862
                ],
                [
                  -75.4870572,
                  6.2057862
                ],
                [
                  -75.4890572,
                  6.2057862
                ],
                [
                  -75.4890572,
                  6.2037862
                ]
              ]
            ],
            [
              [
                [
                  -75.46672650000001,
                  6.1850524
                ],
                [
                  -75.4647265,
                  6.1850524
                ],
                [
                  -75.4647265,
                  6.187052400000001
                ],
                [
                  -75.46672650000001,
                  6.187052400000001
                ],
                [
                  -75.46672650000001,
                  6.1850524
                ]
              ]
            ],
            [
              [
                [
                  -75.5035304,
                  6.2159613
                ],
                [
                  -75.5015304,
                  6.2159613
                ],
                [
                  -75.5015304,
                  6.217961300000001
                ],
                [
                  -75.5035304,
                  6.217961300000001
                ],
                [
                  -75.5035304,
                  6.2159613
                ]
              ]
            ],
            [
              [
                [
                  -75.4913478,
                  6.170510299999999
                ],
                [
                  -75.48934779999999,
                  6.170510299999999
                ],
                [
                  -75.48934779999999,
                  6.1725103
                ],
                [
                  -75.4913478,
                  6.1725103
                ],
                [
                  -75.4913478,
                  6.170510299999999
                ]
              ]
            ],
            [
              [
                [
                  -75.5250472,
                  6.1422792
                ],
                [
                  -75.5230472,
                  6.1422792
                ],
                [
                  -75.5230472,
                  6.144279200000001
                ],
                [
                  -75.5250472,
                  6.144279200000001
                ],
                [
                  -75.5250472,
                  6.1422792
                ]
              ]
            ],
            [
              [
                [
                  -75.42459550000001,
                  6.123615999999999
                ],
                [
                  -75.4225955,
                  6.123615999999999
                ],
                [
                  -75.4225955,
                  6.125616
                ],
                [
                  -75.42459550000001,
                  6.125616
                ],
                [
                  -75.42459550000001,
                  6.123615999999999
                ]
              ]
            ],
            [
              [
                [
                  -75.5600752,
                  6.2197343
                ],
                [
                  -75.55807519999999,
                  6.2197343
                ],
                [
                  -75.55807519999999,
                  6.2217343000000005
                ],
                [
                  -75.5600752,
                  6.2217343000000005
                ],
                [
                  -75.5600752,
                  6.2197343
                ]
              ]
            ],
            [
              [
                [
                  -75.4291982,
                  6.0892721
                ],
                [
                  -75.42719819999999,
                  6.0892721
                ],
                [
                  -75.42719819999999,
                  6.0912721
                ],
                [
                  -75.4291982,
                  6.0912721
                ],
                [
                  -75.4291982,
                  6.0892721
                ]
              ]
            ],
            [
              [
                [
                  -75.50124240000001,
                  6.1697112
                ],
                [
                  -75.4992424,
                  6.1697112
                ],
                [
                  -75.4992424,
                  6.171711200000001
                ],
                [
                  -75.50124240000001,
                  6.171711200000001
                ],
                [
                  -75.50124240000001,
                  6.1697112
                ]
              ]
            ],
            [
              [
                [
                  -75.4364807,
                  6.1772187
                ],
                [
                  -75.4344807,
                  6.1772187
                ],
                [
                  -75.4344807,
                  6.179218700000001
                ],
                [
                  -75.4364807,
                  6.179218700000001
                ],
                [
                  -75.4364807,
                  6.1772187
                ]
              ]
            ],
            [
              [
                [
                  -75.4336162,
                  6.2493549999999995
                ],
                [
                  -75.4316162,
                  6.2493549999999995
                ],
                [
                  -75.4316162,
                  6.251355
                ],
                [
                  -75.4336162,
                  6.251355
                ],
                [
                  -75.4336162,
                  6.2493549999999995
                ]
              ]
            ],
            [
              [
                [
                  -75.555226,
                  6.133627199999999
                ],
                [
                  -75.553226,
                  6.133627199999999
                ],
                [
                  -75.553226,
                  6.1356272
                ],
                [
                  -75.555226,
                  6.1356272
                ],
                [
                  -75.555226,
                  6.133627199999999
                ]
              ]
            ],
            [
              [
                [
                  -75.481297,
                  6.089910199999999
                ],
                [
                  -75.47929699999999,
                  6.089910199999999
                ],
                [
                  -75.47929699999999,
                  6.0919102
                ],
                [
                  -75.481297,
                  6.0919102
                ],
                [
                  -75.481297,
                  6.089910199999999
                ]
              ]
            ],
            [
              [
                [
                  -75.4232837,
                  6.059844
                ],
                [
                  -75.42128369999999,
                  6.059844
                ],
                [
                  -75.42128369999999,
                  6.061844000000001
                ],
                [
                  -75.4232837,
                  6.061844000000001
                ],
                [
                  -75.4232837,
                  6.059844
                ]
              ]
            ],
            [
              [
                [
                  -75.4577368,
                  6.0576535
                ],
                [
                  -75.4557368,
                  6.0576535
                ],
                [
                  -75.4557368,
                  6.0596535000000005
                ],
                [
                  -75.4577368,
                  6.0596535000000005
                ],
                [
                  -75.4577368,
                  6.0576535
                ]
              ]
            ],
            [
              [
                [
                  -75.43430260000001,
                  6.1414703
                ],
                [
                  -75.4323026,
                  6.1414703
                ],
                [
                  -75.4323026,
                  6.143470300000001
                ],
                [
                  -75.43430260000001,
                  6.143470300000001
                ],
                [
                  -75.43430260000001,
                  6.1414703
                ]
              ]
            ],
            [
              [
                [
                  -75.452403,
                  6.112123599999999
                ],
                [
                  -75.450403,
                  6.112123599999999
                ],
                [
                  -75.450403,
                  6.1141236
                ],
                [
                  -75.452403,
                  6.1141236
                ],
                [
                  -75.452403,
                  6.112123599999999
                ]
              ]
            ],
            [
              [
                [
                  -75.6342218,
                  6.0668213
                ],
                [
                  -75.6322218,
                  6.0668213
                ],
                [
                  -75.6322218,
                  6.068821300000001
                ],
                [
                  -75.6342218,
                  6.068821300000001
                ],
                [
                  -75.6342218,
                  6.0668213
                ]
              ]
            ],
            [
              [
                [
                  -75.4502234,
                  6.0178674
                ],
                [
                  -75.44822339999999,
                  6.0178674
                ],
                [
                  -75.44822339999999,
                  6.019867400000001
                ],
                [
                  -75.4502234,
                  6.019867400000001
                ],
                [
                  -75.4502234,
                  6.0178674
                ]
              ]
            ],
            [
              [
                [
                  -75.4329548,
                  6.008317399999999
                ],
                [
                  -75.4309548,
                  6.008317399999999
                ],
                [
                  -75.4309548,
                  6.0103174
                ],
                [
                  -75.4329548,
                  6.0103174
                ],
                [
                  -75.4329548,
                  6.008317399999999
                ]
              ]
            ],
            [
              [
                [
                  -75.4134652,
                  6.022465599999999
                ],
                [
                  -75.4114652,
                  6.022465599999999
                ],
                [
                  -75.4114652,
                  6.0244656
                ],
                [
                  -75.4134652,
                  6.0244656
                ],
                [
                  -75.4134652,
                  6.022465599999999
                ]
              ]
            ],
            [
              [
                [
                  -75.3412419,
                  6.138306399999999
                ],
                [
                  -75.33924189999999,
                  6.138306399999999
                ],
                [
                  -75.33924189999999,
                  6.1403064
                ],
                [
                  -75.3412419,
                  6.1403064
                ],
                [
                  -75.3412419,
                  6.138306399999999
                ]
              ]
            ]
          ],
          "type": "MultiPolygon"
        }
      }
    },
    "engine": {
      "version": "9.5.0",
      "build_date": "2025-10-31T12:33:09Z",
      "graph_date": "2025-12-01T03:52:42Z",
      "osm_date": "2025-11-24T00:59:59Z"
    }
  }
}