{
  "type": "FeatureCollection",
  "bbox": [
    -75.429483,
    6.03546,
    -75.366837,
    6.169305
  ],
  "features": [
    {
      "bbox": [
        -75.429483,
        6.03546,
        -75.366837,
        6.169305
      ],
      "type": "Feature",
      "properties": {
        "way_points": [
          0,
          516
        ],
        "summary": {
          "distance": 22047.2,
          "duration": 1931.1
        }
      },
      "geometry": {
        "coordinates": [
          [
            -75.428713,
            6.037153
          ],
          [
            -75.429226,
            6.037277
          ],
          [
            -75.429483,
            6.036519
          ],
          [
            -75.428678,
            6.036301
          ],
          [
            -75.427848,
            6.036086
          ],
          [
            -75.427431,
            6.035968
          ],
          [
            -75.427349,
            6.035946
          ],
          [
            -75.42703,
            6.035865
          ],
          [
            -75.426742,
            6.035786
          ],
          [
            -75.426392,
            6.035713
          ],
          [
            -75.426227,
            6.035695
          ],
          [
            -75.425453,
            6.035614
          ],
          [
            -75.424545,
            6.035496
          ],
          [
            -75.42415,
            6.035476
          ],
          [
            -75.423953,
            6.03548
          ],
          [
            -75.423813,
            6.035484
          ],
          [
            -75.423714,
            6.03549
          ],
          [
            -75.423678,
            6.035495
          ],
          [
            -75.42347,
            6.035483
          ],
          [
            -75.423289,
            6.035472
          ],
          [
            -75.422579,
            6.03546
          ],
          [
            -75.421773,
            6.035638
          ],
          [
            -75.421357,
            6.035783
          ],
          [
            -75.42124,
            6.035859
          ],
          [
            -75.421147,
            6.035912
          ],
          [
            -75.421132,
            6.035924
          ],
          [
            -75.420836,
            6.036094
          ],
          [
            -75.420507,
            6.036386
          ],
          [
            -75.420207,
            6.036641
          ],
          [
            -75.420091,
            6.036784
          ],
          [
            -75.419879,
            6.037007
          ],
          [
            -75.41977,
            6.037143
          ],
          [
            -75.419628,
            6.037253
          ],
          [
            -75.419067,
            6.037718
          ],
          [
            -75.418368,
            6.03837
          ],
          [
            -75.418304,
            6.038501
          ],
          [
            -75.418136,
            6.03861
          ],
          [
            -75.417645,
            6.039018
          ],
          [
            -75.417392,
            6.039245
          ],
          [
            -75.417232,
            6.039351
          ],
          [
            -75.417059,
            6.039436
          ],
          [
            -75.416903,
            6.039483
          ],
          [
            -75.41679,
            6.039499
          ],
          [
            -75.416577,
            6.039509
          ],
          [
            -75.416383,
            6.039494
          ],
          [
            -75.416022,
            6.039371
          ],
          [
            -75.415643,
            6.039215
          ],
          [
            -75.414961,
            6.038935
          ],
          [
            -75.414714,
            6.038834
          ],
          [
            -75.414272,
            6.038675
          ],
          [
            -75.41383,
            6.038617
          ],
          [
            -75.413632,
            6.038523
          ],
          [
            -75.413604,
            6.038459
          ],
          [
            -75.413559,
            6.038405
          ],
          [
            -75.413503,
            6.038365
          ],
          [
            -75.413417,
            6.038336
          ],
          [
            -75.413326,
            6.038338
          ],
          [
            -75.413242,
            6.038371
          ],
          [
            -75.413173,
            6.03843
          ],
          [
            -75.412932,
            6.038586
          ],
          [
            -75.412437,
            6.038613
          ],
          [
            -75.412167,
            6.038681
          ],
          [
            -75.412028,
            6.038735
          ],
          [
            -75.411786,
            6.038885
          ],
          [
            -75.411038,
            6.039511
          ],
          [
            -75.410078,
            6.040237
          ],
          [
            -75.409831,
            6.040424
          ],
          [
            -75.40925,
            6.040913
          ],
          [
            -75.40844,
            6.041617
          ],
          [
            -75.407935,
            6.041996
          ],
          [
            -75.407215,
            6.042478
          ],
          [
            -75.406886,
            6.042733
          ],
          [
            -75.406691,
            6.042788
          ],
          [
            -75.406495,
            6.042767
          ],
          [
            -75.406357,
            6.042716
          ],
          [
            -75.406154,
            6.042554
          ],
          [
            -75.405635,
            6.042071
          ],
          [
            -75.405434,
            6.04189
          ],
          [
            -75.405189,
            6.041738
          ],
          [
            -75.404948,
            6.041663
          ],
          [
            -75.40464,
            6.041667
          ],
          [
            -75.404192,
            6.041782
          ],
          [
            -75.402531,
            6.042006
          ],
          [
            -75.40229,
            6.042043
          ],
          [
            -75.401877,
            6.042157
          ],
          [
            -75.401231,
            6.042427
          ],
          [
            -75.400822,
            6.042682
          ],
          [
            -75.399833,
            6.043504
          ],
          [
            -75.398315,
            6.044958
          ],
          [
            -75.397728,
            6.04551
          ],
          [
            -75.397563,
            6.045679
          ],
          [
            -75.397068,
            6.046152
          ],
          [
            -75.39599,
            6.047191
          ],
          [
            -75.395924,
            6.047251
          ],
          [
            -75.395656,
            6.047498
          ],
          [
            -75.394573,
            6.048339
          ],
          [
            -75.394227,
            6.04858
          ],
          [
            -75.393898,
            6.048928
          ],
          [
            -75.393464,
            6.049502
          ],
          [
            -75.393227,
            6.049688
          ],
          [
            -75.391596,
            6.050636
          ],
          [
            -75.39122,
            6.050976
          ],
          [
            -75.390349,
            6.052306
          ],
          [
            -75.389725,
            6.053128
          ],
          [
            -75.388976,
            6.053955
          ],
          [
            -75.388891,
            6.054049
          ],
          [
            -75.388528,
            6.054435
          ],
          [
            -75.388002,
            6.055031
          ],
          [
            -75.387597,
            6.055534
          ],
          [
            -75.387122,
            6.056155
          ],
          [
            -75.386991,
            6.056274
          ],
          [
            -75.386202,
            6.056879
          ],
          [
            -75.385961,
            6.057154
          ],
          [
            -75.385755,
            6.057455
          ],
          [
            -75.385672,
            6.057626
          ],
          [
            -75.385616,
            6.0578
          ],
          [
            -75.385315,
            6.059063
          ],
          [
            -75.38519,
            6.059383
          ],
          [
            -75.384766,
            6.060371
          ],
          [
            -75.384715,
            6.060609
          ],
          [
            -75.384659,
            6.060953
          ],
          [
            -75.384655,
            6.061614
          ],
          [
            -75.384618,
            6.062195
          ],
          [
            -75.384536,
            6.062533
          ],
          [
            -75.384387,
            6.062925
          ],
          [
            -75.383989,
            6.063646
          ],
          [
            -75.383646,
            6.064192
          ],
          [
            -75.38346,
            6.064528
          ],
          [
            -75.382902,
            6.065561
          ],
          [
            -75.382494,
            6.066547
          ],
          [
            -75.382458,
            6.066626
          ],
          [
            -75.382442,
            6.066662
          ],
          [
            -75.382309,
            6.066981
          ],
          [
            -75.381753,
            6.068314
          ],
          [
            -75.381478,
            6.068797
          ],
          [
            -75.381396,
            6.068905
          ],
          [
            -75.38088,
            6.069556
          ],
          [
            -75.380808,
            6.069633
          ],
          [
            -75.380489,
            6.069989
          ],
          [
            -75.380297,
            6.070286
          ],
          [
            -75.38013,
            6.070588
          ],
          [
            -75.379912,
            6.071085
          ],
          [
            -75.379824,
            6.07135
          ],
          [
            -75.379792,
            6.07148
          ],
          [
            -75.379735,
            6.071683
          ],
          [
            -75.379573,
            6.072454
          ],
          [
            -75.379543,
            6.072635
          ],
          [
            -75.379528,
            6.072711
          ],
          [
            -75.379445,
            6.072925
          ],
          [
            -75.379365,
            6.073231
          ],
          [
            -75.37931,
            6.073489
          ],
          [
            -75.379284,
            6.07377
          ],
          [
            -75.379284,
            6.074042
          ],
          [
            -75.379311,
            6.074345
          ],
          [
            -75.379333,
            6.074472
          ],
          [
            -75.379435,
            6.074864
          ],
          [
            -75.379505,
            6.075055
          ],
          [
            -75.379684,
            6.075734
          ],
          [
            -75.379745,
            6.075924
          ],
          [
            -75.379874,
            6.076427
          ],
          [
            -75.379976,
            6.076932
          ],
          [
            -75.379971,
            6.077067
          ],
          [
            -75.379945,
            6.077209
          ],
          [
            -75.379708,
            6.077937
          ],
          [
            -75.3797,
            6.078144
          ],
          [
            -75.379743,
            6.078316
          ],
          [
            -75.379991,
            6.078877
          ],
          [
            -75.380006,
            6.079006
          ],
          [
            -75.37999,
            6.079245
          ],
          [
            -75.379979,
            6.07935
          ],
          [
            -75.379976,
            6.079384
          ],
          [
            -75.379816,
            6.080989
          ],
          [
            -75.379766,
            6.081376
          ],
          [
            -75.379703,
            6.08197
          ],
          [
            -75.379694,
            6.082283
          ],
          [
            -75.379703,
            6.082605
          ],
          [
            -75.379743,
            6.082918
          ],
          [
            -75.379792,
            6.083177
          ],
          [
            -75.380009,
            6.083964
          ],
          [
            -75.380489,
            6.085413
          ],
          [
            -75.380558,
            6.08576
          ],
          [
            -75.380571,
            6.085956
          ],
          [
            -75.380555,
            6.086198
          ],
          [
            -75.380517,
            6.086404
          ],
          [
            -75.380452,
            6.086625
          ],
          [
            -75.380091,
            6.087562
          ],
          [
            -75.379999,
            6.087879
          ],
          [
            -75.379967,
            6.088061
          ],
          [
            -75.379955,
            6.088281
          ],
          [
            -75.379983,
            6.088763
          ],
          [
            -75.380042,
            6.089019
          ],
          [
            -75.380196,
            6.089422
          ],
          [
            -75.38045,
            6.089957
          ],
          [
            -75.380644,
            6.090309
          ],
          [
            -75.380918,
            6.090794
          ],
          [
            -75.381451,
            6.091776
          ],
          [
            -75.381563,
            6.092001
          ],
          [
            -75.38214,
            6.093337
          ],
          [
            -75.382187,
            6.093441
          ],
          [
            -75.38239,
            6.093983
          ],
          [
            -75.382487,
            6.094242
          ],
          [
            -75.382635,
            6.094638
          ],
          [
            -75.382932,
            6.095388
          ],
          [
            -75.383007,
            6.095564
          ],
          [
            -75.383262,
            6.095958
          ],
          [
            -75.383423,
            6.096338
          ],
          [
            -75.383452,
            6.096504
          ],
          [
            -75.383449,
            6.096781
          ],
          [
            -75.383353,
            6.097548
          ],
          [
            -75.383315,
            6.097852
          ],
          [
            -75.383249,
            6.098369
          ],
          [
            -75.383218,
            6.098824
          ],
          [
            -75.383218,
            6.098875
          ],
          [
            -75.383254,
            6.099476
          ],
          [
            -75.383409,
            6.100218
          ],
          [
            -75.383665,
            6.101378
          ],
          [
            -75.383733,
            6.101608
          ],
          [
            -75.383793,
            6.101747
          ],
          [
            -75.384351,
            6.10282
          ],
          [
            -75.384669,
            6.103438
          ],
          [
            -75.384864,
            6.103817
          ],
          [
            -75.384966,
            6.104064
          ],
          [
            -75.385323,
            6.104733
          ],
          [
            -75.385435,
            6.104942
          ],
          [
            -75.385816,
            6.105667
          ],
          [
            -75.385914,
            6.105814
          ],
          [
            -75.386424,
            6.106717
          ],
          [
            -75.386492,
            6.106847
          ],
          [
            -75.386669,
            6.107182
          ],
          [
            -75.386791,
            6.107375
          ],
          [
            -75.387291,
            6.108127
          ],
          [
            -75.387618,
            6.108563
          ],
          [
            -75.388035,
            6.109006
          ],
          [
            -75.388385,
            6.109358
          ],
          [
            -75.38849,
            6.109464
          ],
          [
            -75.388632,
            6.109611
          ],
          [
            -75.388651,
            6.109629
          ],
          [
            -75.388957,
            6.109945
          ],
          [
            -75.389054,
            6.110087
          ],
          [
            -75.389127,
            6.110235
          ],
          [
            -75.389191,
            6.11044
          ],
          [
            -75.389223,
            6.11069
          ],
          [
            -75.389207,
            6.110844
          ],
          [
            -75.389139,
            6.111087
          ],
          [
            -75.388717,
            6.112171
          ],
          [
            -75.388578,
            6.112678
          ],
          [
            -75.388531,
            6.113039
          ],
          [
            -75.38853,
            6.113157
          ],
          [
            -75.388505,
            6.113266
          ],
          [
            -75.388551,
            6.113471
          ],
          [
            -75.388643,
            6.113721
          ],
          [
            -75.388914,
            6.114344
          ],
          [
            -75.389003,
            6.114619
          ],
          [
            -75.389119,
            6.11514
          ],
          [
            -75.38937,
            6.116562
          ],
          [
            -75.389431,
            6.117038
          ],
          [
            -75.389481,
            6.117353
          ],
          [
            -75.389499,
            6.117455
          ],
          [
            -75.389518,
            6.117558
          ],
          [
            -75.38959,
            6.118017
          ],
          [
            -75.389647,
            6.118417
          ],
          [
            -75.389663,
            6.118699
          ],
          [
            -75.389587,
            6.119006
          ],
          [
            -75.389508,
            6.11914
          ],
          [
            -75.389447,
            6.11923
          ],
          [
            -75.389356,
            6.119422
          ],
          [
            -75.389218,
            6.119708
          ],
          [
            -75.388221,
            6.121093
          ],
          [
            -75.387911,
            6.121525
          ],
          [
            -75.387423,
            6.12219
          ],
          [
            -75.386036,
            6.124136
          ],
          [
            -75.385902,
            6.124324
          ],
          [
            -75.385282,
            6.12516
          ],
          [
            -75.385112,
            6.125266
          ],
          [
            -75.385032,
            6.125291
          ],
          [
            -75.38493,
            6.1253
          ],
          [
            -75.384779,
            6.12528
          ],
          [
            -75.384633,
            6.125325
          ],
          [
            -75.384571,
            6.12537
          ],
          [
            -75.384482,
            6.125494
          ],
          [
            -75.384463,
            6.125556
          ],
          [
            -75.384459,
            6.125685
          ],
          [
            -75.384495,
            6.125791
          ],
          [
            -75.384561,
            6.12588
          ],
          [
            -75.384705,
            6.125965
          ],
          [
            -75.384866,
            6.125976
          ],
          [
            -75.385001,
            6.126053
          ],
          [
            -75.385097,
            6.126137
          ],
          [
            -75.385353,
            6.126421
          ],
          [
            -75.38543,
            6.126545
          ],
          [
            -75.385454,
            6.126615
          ],
          [
            -75.385469,
            6.126694
          ],
          [
            -75.385459,
            6.126825
          ],
          [
            -75.385252,
            6.127422
          ],
          [
            -75.38492,
            6.128358
          ],
          [
            -75.384827,
            6.128669
          ],
          [
            -75.384753,
            6.129142
          ],
          [
            -75.384647,
            6.129455
          ],
          [
            -75.384388,
            6.129923
          ],
          [
            -75.384329,
            6.130079
          ],
          [
            -75.384328,
            6.130126
          ],
          [
            -75.384431,
            6.130663
          ],
          [
            -75.38445,
            6.130855
          ],
          [
            -75.384425,
            6.131003
          ],
          [
            -75.384374,
            6.131162
          ],
          [
            -75.384169,
            6.131465
          ],
          [
            -75.384058,
            6.131581
          ],
          [
            -75.383974,
            6.131628
          ],
          [
            -75.383862,
            6.131637
          ],
          [
            -75.383811,
            6.131663
          ],
          [
            -75.383769,
            6.131701
          ],
          [
            -75.383722,
            6.131802
          ],
          [
            -75.383729,
            6.131904
          ],
          [
            -75.383782,
            6.131991
          ],
          [
            -75.383823,
            6.132023
          ],
          [
            -75.383914,
            6.132156
          ],
          [
            -75.383952,
            6.132296
          ],
          [
            -75.383983,
            6.132407
          ],
          [
            -75.384032,
            6.132472
          ],
          [
            -75.384141,
            6.13255
          ],
          [
            -75.384272,
            6.132589
          ],
          [
            -75.384466,
            6.13261
          ],
          [
            -75.385126,
            6.132562
          ],
          [
            -75.385246,
            6.132566
          ],
          [
            -75.385505,
            6.132641
          ],
          [
            -75.385671,
            6.132709
          ],
          [
            -75.385806,
            6.132792
          ],
          [
            -75.386326,
            6.133351
          ],
          [
            -75.386604,
            6.13357
          ],
          [
            -75.386724,
            6.133618
          ],
          [
            -75.386851,
            6.133569
          ],
          [
            -75.38708,
            6.133704
          ],
          [
            -75.387534,
            6.1341
          ],
          [
            -75.387605,
            6.134197
          ],
          [
            -75.387773,
            6.134512
          ],
          [
            -75.388134,
            6.13498
          ],
          [
            -75.388469,
            6.135371
          ],
          [
            -75.388718,
            6.135916
          ],
          [
            -75.388839,
            6.136197
          ],
          [
            -75.388916,
            6.136365
          ],
          [
            -75.388995,
            6.136516
          ],
          [
            -75.388999,
            6.13664
          ],
          [
            -75.388967,
            6.136726
          ],
          [
            -75.38775,
            6.13696
          ],
          [
            -75.387127,
            6.137094
          ],
          [
            -75.386853,
            6.137186
          ],
          [
            -75.386461,
            6.137258
          ],
          [
            -75.386217,
            6.137322
          ],
          [
            -75.386118,
            6.137356
          ],
          [
            -75.385767,
            6.137536
          ],
          [
            -75.384903,
            6.138097
          ],
          [
            -75.384643,
            6.138245
          ],
          [
            -75.383642,
            6.138716
          ],
          [
            -75.383137,
            6.138971
          ],
          [
            -75.38283,
            6.139155
          ],
          [
            -75.382578,
            6.139348
          ],
          [
            -75.382401,
            6.139501
          ],
          [
            -75.382255,
            6.139652
          ],
          [
            -75.382087,
            6.139841
          ],
          [
            -75.381906,
            6.140017
          ],
          [
            -75.381438,
            6.140417
          ],
          [
            -75.381176,
            6.140658
          ],
          [
            -75.381072,
            6.140792
          ],
          [
            -75.380865,
            6.141166
          ],
          [
            -75.380727,
            6.1415
          ],
          [
            -75.380649,
            6.141595
          ],
          [
            -75.380586,
            6.141737
          ],
          [
            -75.380507,
            6.141868
          ],
          [
            -75.38041,
            6.142045
          ],
          [
            -75.380127,
            6.142581
          ],
          [
            -75.380072,
            6.142747
          ],
          [
            -75.379969,
            6.143296
          ],
          [
            -75.379952,
            6.143444
          ],
          [
            -75.379948,
            6.143485
          ],
          [
            -75.379939,
            6.14365
          ],
          [
            -75.379896,
            6.143849
          ],
          [
            -75.379721,
            6.144156
          ],
          [
            -75.379336,
            6.144959
          ],
          [
            -75.379285,
            6.145116
          ],
          [
            -75.379268,
            6.145176
          ],
          [
            -75.379179,
            6.14611
          ],
          [
            -75.379166,
            6.146287
          ],
          [
            -75.379155,
            6.146438
          ],
          [
            -75.37911,
            6.14695
          ],
          [
            -75.379022,
            6.147112
          ],
          [
            -75.378915,
            6.147171
          ],
          [
            -75.378859,
            6.14724
          ],
          [
            -75.378829,
            6.147324
          ],
          [
            -75.378827,
            6.147413
          ],
          [
            -75.378854,
            6.147498
          ],
          [
            -75.378907,
            6.14757
          ],
          [
            -75.378979,
            6.147621
          ],
          [
            -75.37902,
            6.147688
          ],
          [
            -75.379061,
            6.147834
          ],
          [
            -75.379024,
            6.148379
          ],
          [
            -75.379,
            6.148603
          ],
          [
            -75.378837,
            6.148904
          ],
          [
            -75.378792,
            6.148948
          ],
          [
            -75.378709,
            6.148976
          ],
          [
            -75.378656,
            6.148974
          ],
          [
            -75.378523,
            6.148971
          ],
          [
            -75.377424,
            6.148927
          ],
          [
            -75.377172,
            6.148917
          ],
          [
            -75.376548,
            6.148893
          ],
          [
            -75.37626,
            6.148859
          ],
          [
            -75.375901,
            6.148767
          ],
          [
            -75.375649,
            6.1487
          ],
          [
            -75.375382,
            6.148624
          ],
          [
            -75.375075,
            6.148549
          ],
          [
            -75.374728,
            6.148486
          ],
          [
            -75.374466,
            6.148529
          ],
          [
            -75.374297,
            6.148599
          ],
          [
            -75.372932,
            6.149372
          ],
          [
            -75.372571,
            6.149577
          ],
          [
            -75.372502,
            6.149616
          ],
          [
            -75.372424,
            6.149659
          ],
          [
            -75.372122,
            6.149838
          ],
          [
            -75.371923,
            6.149997
          ],
          [
            -75.371565,
            6.150318
          ],
          [
            -75.370981,
            6.150881
          ],
          [
            -75.370856,
            6.15103
          ],
          [
            -75.37076,
            6.151183
          ],
          [
            -75.3707,
            6.151315
          ],
          [
            -75.37061,
            6.151642
          ],
          [
            -75.370544,
            6.151802
          ],
          [
            -75.370424,
            6.152011
          ],
          [
            -75.370344,
            6.152087
          ],
          [
            -75.370287,
            6.152184
          ],
          [
            -75.370261,
            6.152293
          ],
          [
            -75.370267,
            6.152405
          ],
          [
            -75.370305,
            6.152511
          ],
          [
            -75.370371,
            6.152602
          ],
          [
            -75.37045,
            6.152664
          ],
          [
            -75.370542,
            6.152705
          ],
          [
            -75.370642,
            6.15272
          ],
          [
            -75.370742,
            6.152711
          ],
          [
            -75.37072,
            6.152791
          ],
          [
            -75.370781,
            6.153344
          ],
          [
            -75.370729,
            6.154303
          ],
          [
            -75.370677,
            6.154849
          ],
          [
            -75.370644,
            6.15523
          ],
          [
            -75.370636,
            6.155297
          ],
          [
            -75.370587,
            6.15576
          ],
          [
            -75.370518,
            6.156176
          ],
          [
            -75.37046,
            6.15636
          ],
          [
            -75.370365,
            6.156588
          ],
          [
            -75.370244,
            6.156756
          ],
          [
            -75.369891,
            6.157264
          ],
          [
            -75.369606,
            6.157737
          ],
          [
            -75.369439,
            6.158105
          ],
          [
            -75.369438,
            6.15826
          ],
          [
            -75.369355,
            6.158457
          ],
          [
            -75.369294,
            6.158566
          ],
          [
            -75.369315,
            6.158656
          ],
          [
            -75.369659,
            6.15883
          ],
          [
            -75.369574,
            6.159168
          ],
          [
            -75.369562,
            6.159211
          ],
          [
            -75.369501,
            6.159428
          ],
          [
            -75.369415,
            6.15975
          ],
          [
            -75.36932,
            6.159997
          ],
          [
            -75.369277,
            6.160071
          ],
          [
            -75.369091,
            6.160177
          ],
          [
            -75.368931,
            6.160204
          ],
          [
            -75.368854,
            6.16018
          ],
          [
            -75.368774,
            6.160193
          ],
          [
            -75.368739,
            6.160213
          ],
          [
            -75.368685,
            6.160277
          ],
          [
            -75.368669,
            6.160359
          ],
          [
            -75.368676,
            6.1604
          ],
          [
            -75.368629,
            6.16067
          ],
          [
            -75.36859,
            6.160786
          ],
          [
            -75.368263,
            6.161185
          ],
          [
            -75.367849,
            6.161681
          ],
          [
            -75.367649,
            6.162101
          ],
          [
            -75.367374,
            6.162353
          ],
          [
            -75.367315,
            6.162439
          ],
          [
            -75.367303,
            6.162541
          ],
          [
            -75.367316,
            6.162592
          ],
          [
            -75.36735,
            6.162862
          ],
          [
            -75.367339,
            6.162994
          ],
          [
            -75.36694,
            6.164064
          ],
          [
            -75.366857,
            6.164363
          ],
          [
            -75.366837,
            6.164549
          ],
          [
            -75.366847,
            6.164744
          ],
          [
            -75.367055,
            6.166087
          ],
          [
            -75.36711,
            6.166244
          ],
          [
            -75.367236,
            6.166478
          ],
          [
            -75.36761,
            6.166841
          ],
          [
            -75.367825,
            6.167096
          ],
          [
            -75.367948,
            6.167349
          ],
          [
            -75.368094,
            6.168036
          ],
          [
            -75.368154,
            6.168362
          ],
          [
            -75.368241,
            6.16875
          ],
          [
            -75.368319,
            6.168916
          ],
          [
            -75.368567,
            6.169243
          ],
          [
            -75.368672,
            6.169305
          ],
          [
            -75.368736,
            6.169287
          ],
          [
            -75.368759,
            6.16925
          ],
          [
            -75.368748,
            6.16914
          ],
          [
            -75.368485,
            6.16885
          ],
          [
            -75.368392,
            6.16871
          ],
          [
            -75.368301,
            6.168524
          ],
          [
            -75.368245,
            6.168309
          ],
          [
            -75.368184,
            6.167914
          ],
          [
            -75.368049,
            6.167304
          ],
          [
            -75.367927,
            6.167025
          ],
          [
            -75.367759,
            6.166821
          ],
          [
            -75.367312,
            6.1664
          ],
          [
            -75.36721,
            6.166224
          ],
          [
            -75.36711,
            6.165867
          ],
          [
            -75.367009,
            6.165033
          ],
          [
            -75.36696,
            6.164754
          ],
          [
            -75.366947,
            6.164553
          ],
          [
            -75.366962,
            6.164397
          ],
          [
            -75.367034,
            6.16416
          ],
          [
            -75.367119,
            6.164203
          ],
          [
            -75.367068,
            6.164426
          ]
        ],
        "type": "LineString"
      }
    }
  ],
  "metadata": {
    "attribution": "openrouteservice.org | OpenStreetMap contributors",
    "service": "routing",
    "timestamp": 1764859375416,
    "query": {
      "coordinates": [
        [
          -75.428738,
          6.037051
        ],
        [
          -75.3671169,
          6.1644366
        ]
      ],
      "profile": "driving-hgv",
      "profileName": "driving-hgv",
      "preference": "recommended",
      "format": "geojson",
      "language": "es",
      "options": {
        "profile_params": {
          "restrictions": {
            "length": 8.0,
            "width": 2.5,
            "height": 3.5
          },
          "surface_quality_known": false,
          "allow_unsuitable": false
        },
        "avoid_polygons": {
          "coordinates": [
            [
              [
                [
                  -75.53398800000001,
                  6.1525436
                ],
                [
                  -75.531988,
                  6.1525436
                ],
                [
                  -75.531988,
                  6.1545436
                ],
                [
                  -75.53398800000001,
                  6.1545436
                ],
                [
                  -75.53398800000001,
                  6.1525436
                ]
              ]
            ],
            [
              [
                [
                  -75.49099790000001,
                  6.0932509999999995
                ],
                [
                  -75.4889979,
                  6.0932509999999995
                ],
                [
                  -75.4889979,
                  6.095251
                ],
                [
                  -75.49099790000001,
                  6.095251
                ],
                [
                  -75.49099790000001,
                  6.0932509999999995
                ]
              ]
            ],
            [
              [
                [
                  -75.44939930000001,
                  6.1764060999999995
                ],
                [
                  -75.4473993,
                  6.1764060999999995
                ],
                [
                  -75.4473993,
                  6.1784061
                ],
                [
                  -75.44939930000001,
                  6.1784061
                ],
                [
                  -75.44939930000001,
                  6.1764060999999995
                ]
              ]
            ],
            [
              [
                [
                  -75.4890572,
                  6.2037862
                ],
                [
                  -75.4870572,
                  6.2037862
                ],
                [
                  -75.4870572,
                  6.2057862
                ],
                [
                  -75.4890572,
                  6.2057862
                ],
                [
                  -75.4890572,
                  6.2037862
                ]
              ]
            ],
            [
              [
                [
                  -75.46672650000001,
                  6.1850524
                ],
                [
                  -75.4647265,
                  6.1850524
                ],
                [
                  -75.4647265,
                  6.187052400000001
                ],
                [
                  -75.46672650000001,
                  6.187052400000001
                ],
                [
                  -75.46672650000001,
                  6.1850524
                ]
              ]
            ],
            [
              [
                [
                  -75.5035304,
                  6.2159613
                ],
                [
                  -75.5015304,
                  6.2159613
                ],
                [
                  -75.5015304,
                  6.217961300000001
                ],
                [
                  -75.5035304,
                  6.217961300000001
                ],
                [
                  -75.5035304,
                  6.2159613
                ]
              ]
            ],
            [
              [
                [
                  -75.4913478,
                  6.170510299999999
                ],
                [
                  -75.48934779999999,
                  6.170510299999999
                ],
                [
                  -75.48934779999999,
                  6.1725103
                ],
                [
                  -75.4913478,
                  6.1725103
                ],
                [
                  -75.4913478,
                  6.170510299999999
                ]
              ]
            ],
            [
              [
                [
                  -75.5250472,
                  6.1422792
                ],
                [
                  -75.5230472,
                  6.1422792
                ],
                [
                  -75.5230472,
                  6.144279200000001
                ],
                [
                  -75.5250472,
                  6.144279200000001
                ],
                [
                  -75.5250472,
                  6.1422792
                ]
              ]
            ],
            [
              [
                [
                  -75.42459550000001,
                  6.123615999999999
                ],
                [
                  -75.4225955,
                  6.123615999999999
                ],
                [
                  -75.4225955,
                  6.125616
                ],
                [
                  -75.42459550000001,
                  6.125616
                ],
                [
                  -75.42459550000001,
                  6.123615999999999
                ]
              ]
            ],
            [
              [
                [
                  -75.5600752,
                  6.2197343
                ],
                [
                  -75.55807519999999,
                  6.2197343
                ],
                [
                  -75.55807519999999,
                  6.2217343000000005
                ],
                [
                  -75.5600752,
                  6.2217343000000005
                ],
                [
                  -75.5600752,
                  6.2197343
                ]
              ]
            ],
            [
              [
                [
                  -75.4291982,
                  6.0892721
                ],
                [
                  -75.42719819999999,
                  6.0892721
                ],
                [
                  -75.42719819999999,
                  6.0912721
                ],
                [
                  -75.4291982,
                  6.0912721
                ],
                [
                  -75.4291982,
                  6.0892721
                ]
              ]
            ],
            [
              [
                [
                  -75.50124240000001,
                  6.1697112
                ],
                [
                  -75.4992424,
                  6.1697112
                ],
                [
                  -75.4992424,
                  6.171711200000001
                ],
                [
                  -75.50124240000001,
                  6.171711200000001
                ],
                [
                  -75.50124240000001,
                  6.1697112
                ]
              ]
            ],
            [
              [
                [
                  -75.4364807,
                  6.1772187
                ],
                [
                  -75.4344807,
                  6.1772187
                ],
                [
                  -75.4344807,
                  6.179218700000001
                ],
                [
                  -75.4364807,
                  6.179218700000001
                ],
                [
                  -75.4364807,
                  6.1772187
                ]
              ]
            ],
            [
              [
                [
                  -75.4336162,
                  6.2493549999999995
                ],
                [
                  -75.4316162,
                  6.2493549999999995
                ],
                [
                  -75.4316162,
                  6.251355
                ],
                [
                  -75.4336162,
                  6.251355
                ],
                [
                  -75.4336162,
                  6.2493549999999995
                ]
              ]
            ],
            [
              [
                [
                  -75.555226,
                  6.133627199999999
                ],
                [
                  -75.553226,
                  6.133627199999999
                ],
                [
                  -75.553226,
                  6.1356272
                ],
                [
                  -75.555226,
                  6.1356272
                ],
                [
                  -75.555226,
                  6.133627199999999
                ]
              ]
            ],
            [
              [
                [
                  -75.481297,
                  6.089910199999999
                ],
                [
                  -75.47929699999999,
                  6.089910199999999
                ],
                [
                  -75.47929699999999,
                  6.0919102
                ],
                [
                  -75.481297,
                  6.0919102
                ],
                [
                  -75.481297,
                  6.089910199999999
                ]
              ]
            ],
            [
              [
                [
                  -75.4232837,
                  6.059844
                ],
                [
                  -75.42128369999999,
                  6.059844
                ],
                [
                  -75.42128369999999,
                  6.061844000000001
                ],
                [
                  -75.4232837,
                  6.061844000000001
                ],
                [
                  -75.4232837,
                  6.059844
                ]
              ]
            ],
            [
              [
                [
                  -75.4577368,
                  6.0576535
                ],
                [
                  -75.4557368,
                  6.0576535
                ],
                [
                  -75.4557368,
                  6.0596535000000005
                ],
                [
                  -75.4577368,
                  6.0596535000000005
                ],
                [
                  -75.4577368,
                  6.0576535
                ]
              ]
            ],
            [
              [
                [
                  -75.43430260000001,
                  6.1414703
                ],
                [
                  -75.4323026,
                  6.1414703
                ],
                [
                  -75.4323026,
                  6.143470300000001
                ],
                [
                  -75.43430260000001,
                  6.143470300000001
                ],
                [
                  -75.43430260000001,
                  6.1414703
                ]
              ]
            ],
            [
              [
                [
                  -75.452403,
                  6.112123599999999
                ],
                [
                  -75.450403,
                  6.112123599999999
                ],
                [
                  -75.450403,
                  6.1141236
                ],
                [
                  -75.452403,
                  6.1141236
                ],
                [
                  -75.452403,
                  6.112123599999999
                ]
              ]
            ],
            [
              [
                [
                  -75.6342218,
                  6.0668213
                ],
                [
                  -75.6322218,
                  6.0668213
                ],
                [
                  -75.6322218,
                  6.068821300000001
                ],
                [
                  -75.6342218,
                  6.068821300000001
                ],
                [
                  -75.6342218,
                  6.0668213
                ]
              ]
            ],
            [
              [
                [
                  -75.4502234,
                  6.0178674
                ],
                [
                  -75.44822339999999,
                  6.0178674
                ],
                [
                  -75.44822339999999,
                  6.019867400000001
                ],
                [
                  -75.4502234,
                  6.019867400000001
                ],
                [
                  -75.4502234,
                  6.0178674
                ]
              ]
            ],
            [
              [
                [
                  -75.4329548,
                  6.008317399999999
                ],
                [
                  -75.4309548,
                  6.008317399999999
                ],
                [
                  -75.4309548,
                  6.0103174
                ],
                [
                  -75.4329548,
                  6.0103174
                ],
                [
                  -75.4329548,
                  6.008317399999999
                ]
              ]
            ],
            [
              [
                [
                  -75.4134652,
                  6.022465599999999
                ],
                [
                  -75.4114652,
                  6.022465599999999
                ],
                [
                  -75.4114652,
                  6.0244656
                ],
                [
                  -75.4134652,
                  6.0244656
                ],
                [
                  -75.4134652,
                  6.022465599999999
                ]
              ]
            ],
            [
              [
                [
                  -75.3412419,
                  6.138306399999999
                ],
                [
                  -75.33924189999999,
                  6.138306399999999
                ],
                [
                  -75.33924189999999,
                  6.1403064
                ],
                [
                  -75.3412419,
                  6.1403064
                ],
                [
                  -75.3412419,
                  6.138306399999999
                ]
              ]
            ]
          ],
          "type": "MultiPolygon"
        }
      }
    },
    "engine": {
      "version": "9.5.0",
      "build_date": "2025-10-31T12:33:09Z",
      "graph_date": "2025-12-01T03:52:42Z",
      "osm_date": "2025-11-24T00:59:59Z"
    }
  }
}