{
  "type": "FeatureCollection",
  "bbox": [
    -75.581432,
    6.213506,
    -75.572604,
    6.21847
  ],
  "features": [
    {
      "bbox": [
        -75.581432,
        6.213506,
        -75.572604,
        6.21847
      ],
      "type": "Feature",
      "properties": {
        "way_points": [
          0,
          49
        ],
        "summary": {
          "distance": 2062.7,
          "duration": 320.9
        }
      },
      "geometry": {
        "coordinates": [
          [
            -75.572604,
            6.218152
          ],
          [
            -75.573268,
            6.218219
          ],
          [
            -75.575672,
            6.218461
          ],
          [
            -75.575768,
            6.21847
          ],
          [
            -75.575788,
            6.218263
          ],
          [
            -75.575824,
            6.217879
          ],
          [
            -75.575849,
            6.217616
          ],
          [
            -75.575873,
            6.217374
          ],
          [
            -75.575895,
            6.217187
          ],
          [
            -75.575909,
            6.217067
          ],
          [
            -75.575952,
            6.216694
          ],
          [
            -75.576049,
            6.21585
          ],
          [
            -75.576135,
            6.215068
          ],
          [
            -75.576148,
            6.214962
          ],
          [
            -75.576256,
            6.213987
          ],
          [
            -75.576286,
            6.213695
          ],
          [
            -75.5764,
            6.213669
          ],
          [
            -75.576502,
            6.213612
          ],
          [
            -75.576564,
            6.213554
          ],
          [
            -75.576643,
            6.213523
          ],
          [
            -75.576757,
            6.213506
          ],
          [
            -75.576872,
            6.213509
          ],
          [
            -75.577319,
            6.213601
          ],
          [
            -75.577504,
            6.2136
          ],
          [
            -75.578711,
            6.213822
          ],
          [
            -75.578724,
            6.213825
          ],
          [
            -75.579107,
            6.213896
          ],
          [
            -75.579277,
            6.213944
          ],
          [
            -75.579689,
            6.214105
          ],
          [
            -75.580036,
            6.214224
          ],
          [
            -75.581077,
            6.2146
          ],
          [
            -75.581299,
            6.214711
          ],
          [
            -75.581425,
            6.214835
          ],
          [
            -75.581432,
            6.214912
          ],
          [
            -75.581371,
            6.215178
          ],
          [
            -75.581292,
            6.215341
          ],
          [
            -75.58118,
            6.215539
          ],
          [
            -75.581113,
            6.215715
          ],
          [
            -75.58102,
            6.216054
          ],
          [
            -75.580982,
            6.216223
          ],
          [
            -75.580907,
            6.216593
          ],
          [
            -75.580815,
            6.216964
          ],
          [
            -75.580735,
            6.217276
          ],
          [
            -75.580663,
            6.21736
          ],
          [
            -75.580576,
            6.217427
          ],
          [
            -75.580477,
            6.217476
          ],
          [
            -75.58037,
            6.217505
          ],
          [
            -75.580035,
            6.217428
          ],
          [
            -75.579167,
            6.217235
          ],
          [
            -75.579319,
            6.216274
          ]
        ],
        "type": "LineString"
      }
    }
  ],
  "metadata": {
    "attribution": "openrouteservice.org | OpenStreetMap contributors",
    "service": "routing",
    "timestamp": 1765570661920,
    "query": {
      "coordinates": [
        [
          -75.5726194,
          6.2180009
        ],
        [
          -75.5794057,
          6.2162872
        ]
      ],
      "profile": "driving-hgv",
      "profileName": "driving-hgv",
      "preference": "recommended",
      "format": "geojson",
      "language": "es"
    },
    "engine": {
      "version": "9.5.0",
      "build_date": "2025-10-31T12:33:09Z",
      "graph_date": "2025-12-01T03:52:42Z",
      "osm_date": "2025-11-24T00:59:59Z"
    }
  }
}