{
  "type": "FeatureCollection",
  "bbox": [
    -75.433005,
    6.023083,
    -75.334089,
    6.088041
  ],
  "features": [
    {
      "bbox": [
        -75.433005,
        6.023083,
        -75.334089,
        6.088041
      ],
      "type": "Feature",
      "properties": {
        "extras": {
          "roadaccessrestrictions": {
            "values": [
              [
                0,
                15,
                0
              ],
              [
                15,
                16,
                32
              ],
              [
                16,
                348,
                0
              ]
            ],
            "summary": [
              {
                "value": 0.0,
                "distance": 16679.3,
                "amount": 99.42
              },
              {
                "value": 32.0,
                "distance": 97.8,
                "amount": 0.58
              }
            ]
          }
        },
        "warnings": [
          {
            "code": 1,
            "message": "There may be restrictions on some roads"
          }
        ],
        "way_points": [
          0,
          348
        ],
        "summary": {
          "distance": 16777.1,
          "duration": 1303.5
        }
      },
      "geometry": {
        "coordinates": [
          [
            -75.431748,
            6.023131
          ],
          [
            -75.431631,
            6.023083
          ],
          [
            -75.431303,
            6.024004
          ],
          [
            -75.431812,
            6.024166
          ],
          [
            -75.432013,
            6.024227
          ],
          [
            -75.432279,
            6.024307
          ],
          [
            -75.433005,
            6.024581
          ],
          [
            -75.432813,
            6.02524
          ],
          [
            -75.432604,
            6.026033
          ],
          [
            -75.432578,
            6.026112
          ],
          [
            -75.432533,
            6.02627
          ],
          [
            -75.432316,
            6.027039
          ],
          [
            -75.432047,
            6.02799
          ],
          [
            -75.431898,
            6.028518
          ],
          [
            -75.431668,
            6.02933
          ],
          [
            -75.431436,
            6.030151
          ],
          [
            -75.43119,
            6.030996
          ],
          [
            -75.430954,
            6.031759
          ],
          [
            -75.430706,
            6.032563
          ],
          [
            -75.430458,
            6.033367
          ],
          [
            -75.430208,
            6.034173
          ],
          [
            -75.429953,
            6.034999
          ],
          [
            -75.429716,
            6.035767
          ],
          [
            -75.429483,
            6.036519
          ],
          [
            -75.428678,
            6.036301
          ],
          [
            -75.427848,
            6.036086
          ],
          [
            -75.427431,
            6.035968
          ],
          [
            -75.427349,
            6.035946
          ],
          [
            -75.42703,
            6.035865
          ],
          [
            -75.426742,
            6.035786
          ],
          [
            -75.426392,
            6.035713
          ],
          [
            -75.426227,
            6.035695
          ],
          [
            -75.425453,
            6.035614
          ],
          [
            -75.424545,
            6.035496
          ],
          [
            -75.42415,
            6.035476
          ],
          [
            -75.423953,
            6.03548
          ],
          [
            -75.423813,
            6.035484
          ],
          [
            -75.423714,
            6.03549
          ],
          [
            -75.423678,
            6.035495
          ],
          [
            -75.42347,
            6.035483
          ],
          [
            -75.423289,
            6.035472
          ],
          [
            -75.422579,
            6.03546
          ],
          [
            -75.421773,
            6.035638
          ],
          [
            -75.421357,
            6.035783
          ],
          [
            -75.42124,
            6.035859
          ],
          [
            -75.421147,
            6.035912
          ],
          [
            -75.421132,
            6.035924
          ],
          [
            -75.420836,
            6.036094
          ],
          [
            -75.420507,
            6.036386
          ],
          [
            -75.420207,
            6.036641
          ],
          [
            -75.420091,
            6.036784
          ],
          [
            -75.419879,
            6.037007
          ],
          [
            -75.41977,
            6.037143
          ],
          [
            -75.419628,
            6.037253
          ],
          [
            -75.419067,
            6.037718
          ],
          [
            -75.418368,
            6.03837
          ],
          [
            -75.418304,
            6.038501
          ],
          [
            -75.418136,
            6.03861
          ],
          [
            -75.417645,
            6.039018
          ],
          [
            -75.417392,
            6.039245
          ],
          [
            -75.417232,
            6.039351
          ],
          [
            -75.417059,
            6.039436
          ],
          [
            -75.416903,
            6.039483
          ],
          [
            -75.41679,
            6.039499
          ],
          [
            -75.416577,
            6.039509
          ],
          [
            -75.416383,
            6.039494
          ],
          [
            -75.416022,
            6.039371
          ],
          [
            -75.415643,
            6.039215
          ],
          [
            -75.414961,
            6.038935
          ],
          [
            -75.414714,
            6.038834
          ],
          [
            -75.414272,
            6.038675
          ],
          [
            -75.41383,
            6.038617
          ],
          [
            -75.413632,
            6.038523
          ],
          [
            -75.413604,
            6.038459
          ],
          [
            -75.413559,
            6.038405
          ],
          [
            -75.413503,
            6.038365
          ],
          [
            -75.413417,
            6.038336
          ],
          [
            -75.413326,
            6.038338
          ],
          [
            -75.413242,
            6.038371
          ],
          [
            -75.413173,
            6.03843
          ],
          [
            -75.412932,
            6.038586
          ],
          [
            -75.412437,
            6.038613
          ],
          [
            -75.412167,
            6.038681
          ],
          [
            -75.412028,
            6.038735
          ],
          [
            -75.411786,
            6.038885
          ],
          [
            -75.411038,
            6.039511
          ],
          [
            -75.410078,
            6.040237
          ],
          [
            -75.409831,
            6.040424
          ],
          [
            -75.40925,
            6.040913
          ],
          [
            -75.40844,
            6.041617
          ],
          [
            -75.407935,
            6.041996
          ],
          [
            -75.407215,
            6.042478
          ],
          [
            -75.406886,
            6.042733
          ],
          [
            -75.406691,
            6.042788
          ],
          [
            -75.406495,
            6.042767
          ],
          [
            -75.406357,
            6.042716
          ],
          [
            -75.406154,
            6.042554
          ],
          [
            -75.405635,
            6.042071
          ],
          [
            -75.405434,
            6.04189
          ],
          [
            -75.405189,
            6.041738
          ],
          [
            -75.404948,
            6.041663
          ],
          [
            -75.40464,
            6.041667
          ],
          [
            -75.404192,
            6.041782
          ],
          [
            -75.402531,
            6.042006
          ],
          [
            -75.40229,
            6.042043
          ],
          [
            -75.401877,
            6.042157
          ],
          [
            -75.401231,
            6.042427
          ],
          [
            -75.400822,
            6.042682
          ],
          [
            -75.399833,
            6.043504
          ],
          [
            -75.398315,
            6.044958
          ],
          [
            -75.397728,
            6.04551
          ],
          [
            -75.397563,
            6.045679
          ],
          [
            -75.397068,
            6.046152
          ],
          [
            -75.39599,
            6.047191
          ],
          [
            -75.395924,
            6.047251
          ],
          [
            -75.395656,
            6.047498
          ],
          [
            -75.394573,
            6.048339
          ],
          [
            -75.394227,
            6.04858
          ],
          [
            -75.393898,
            6.048928
          ],
          [
            -75.393464,
            6.049502
          ],
          [
            -75.393227,
            6.049688
          ],
          [
            -75.391596,
            6.050636
          ],
          [
            -75.39122,
            6.050976
          ],
          [
            -75.390349,
            6.052306
          ],
          [
            -75.389725,
            6.053128
          ],
          [
            -75.388976,
            6.053955
          ],
          [
            -75.388891,
            6.054049
          ],
          [
            -75.388528,
            6.054435
          ],
          [
            -75.388002,
            6.055031
          ],
          [
            -75.387597,
            6.055534
          ],
          [
            -75.387122,
            6.056155
          ],
          [
            -75.386991,
            6.056274
          ],
          [
            -75.386202,
            6.056879
          ],
          [
            -75.385961,
            6.057154
          ],
          [
            -75.385755,
            6.057455
          ],
          [
            -75.385672,
            6.057626
          ],
          [
            -75.385616,
            6.0578
          ],
          [
            -75.385315,
            6.059063
          ],
          [
            -75.38519,
            6.059383
          ],
          [
            -75.384766,
            6.060371
          ],
          [
            -75.384715,
            6.060609
          ],
          [
            -75.384659,
            6.060953
          ],
          [
            -75.384655,
            6.061614
          ],
          [
            -75.384618,
            6.062195
          ],
          [
            -75.384536,
            6.062533
          ],
          [
            -75.384387,
            6.062925
          ],
          [
            -75.383989,
            6.063646
          ],
          [
            -75.383646,
            6.064192
          ],
          [
            -75.38346,
            6.064528
          ],
          [
            -75.382902,
            6.065561
          ],
          [
            -75.382494,
            6.066547
          ],
          [
            -75.382458,
            6.066626
          ],
          [
            -75.382442,
            6.066662
          ],
          [
            -75.382309,
            6.066981
          ],
          [
            -75.381753,
            6.068314
          ],
          [
            -75.381478,
            6.068797
          ],
          [
            -75.381396,
            6.068905
          ],
          [
            -75.38088,
            6.069556
          ],
          [
            -75.380808,
            6.069633
          ],
          [
            -75.380489,
            6.069989
          ],
          [
            -75.380297,
            6.070286
          ],
          [
            -75.38013,
            6.070588
          ],
          [
            -75.379912,
            6.071085
          ],
          [
            -75.379824,
            6.07135
          ],
          [
            -75.379792,
            6.07148
          ],
          [
            -75.379735,
            6.071683
          ],
          [
            -75.379573,
            6.072454
          ],
          [
            -75.379543,
            6.072635
          ],
          [
            -75.379528,
            6.072711
          ],
          [
            -75.379445,
            6.072925
          ],
          [
            -75.379365,
            6.073231
          ],
          [
            -75.37931,
            6.073489
          ],
          [
            -75.379284,
            6.07377
          ],
          [
            -75.379277,
            6.073796
          ],
          [
            -75.379238,
            6.073813
          ],
          [
            -75.379155,
            6.073821
          ],
          [
            -75.379038,
            6.073745
          ],
          [
            -75.378852,
            6.073453
          ],
          [
            -75.378688,
            6.073272
          ],
          [
            -75.378016,
            6.072824
          ],
          [
            -75.377579,
            6.072644
          ],
          [
            -75.377296,
            6.072472
          ],
          [
            -75.376751,
            6.072083
          ],
          [
            -75.376337,
            6.071693
          ],
          [
            -75.375662,
            6.071219
          ],
          [
            -75.375282,
            6.070902
          ],
          [
            -75.374977,
            6.070626
          ],
          [
            -75.374684,
            6.070494
          ],
          [
            -75.374624,
            6.070482
          ],
          [
            -75.374474,
            6.070465
          ],
          [
            -75.374133,
            6.070418
          ],
          [
            -75.373657,
            6.070415
          ],
          [
            -75.373321,
            6.070464
          ],
          [
            -75.372746,
            6.070713
          ],
          [
            -75.372197,
            6.070954
          ],
          [
            -75.371707,
            6.071158
          ],
          [
            -75.371331,
            6.071292
          ],
          [
            -75.371154,
            6.07134
          ],
          [
            -75.370944,
            6.071375
          ],
          [
            -75.370682,
            6.071415
          ],
          [
            -75.370448,
            6.071451
          ],
          [
            -75.370265,
            6.07148
          ],
          [
            -75.370024,
            6.071476
          ],
          [
            -75.369616,
            6.071342
          ],
          [
            -75.368693,
            6.070876
          ],
          [
            -75.367795,
            6.070599
          ],
          [
            -75.367215,
            6.070598
          ],
          [
            -75.366465,
            6.070534
          ],
          [
            -75.365795,
            6.070574
          ],
          [
            -75.365348,
            6.070577
          ],
          [
            -75.365118,
            6.070599
          ],
          [
            -75.364624,
            6.070744
          ],
          [
            -75.364066,
            6.070796
          ],
          [
            -75.363851,
            6.070858
          ],
          [
            -75.363486,
            6.071101
          ],
          [
            -75.363265,
            6.071165
          ],
          [
            -75.362605,
            6.071309
          ],
          [
            -75.362433,
            6.071383
          ],
          [
            -75.362191,
            6.071646
          ],
          [
            -75.362004,
            6.071757
          ],
          [
            -75.361823,
            6.071744
          ],
          [
            -75.361531,
            6.071557
          ],
          [
            -75.361366,
            6.071511
          ],
          [
            -75.36105,
            6.0715
          ],
          [
            -75.360798,
            6.071522
          ],
          [
            -75.360392,
            6.071584
          ],
          [
            -75.360278,
            6.071564
          ],
          [
            -75.360144,
            6.071484
          ],
          [
            -75.359898,
            6.071297
          ],
          [
            -75.359511,
            6.071032
          ],
          [
            -75.359171,
            6.070812
          ],
          [
            -75.358844,
            6.070567
          ],
          [
            -75.358552,
            6.070254
          ],
          [
            -75.357857,
            6.069572
          ],
          [
            -75.3576,
            6.0694
          ],
          [
            -75.357095,
            6.069118
          ],
          [
            -75.356758,
            6.068996
          ],
          [
            -75.356567,
            6.06897
          ],
          [
            -75.356467,
            6.068951
          ],
          [
            -75.35589,
            6.069
          ],
          [
            -75.355467,
            6.069026
          ],
          [
            -75.354984,
            6.069057
          ],
          [
            -75.354733,
            6.069153
          ],
          [
            -75.354327,
            6.069378
          ],
          [
            -75.354084,
            6.069503
          ],
          [
            -75.35401,
            6.069519
          ],
          [
            -75.353725,
            6.069581
          ],
          [
            -75.353555,
            6.069703
          ],
          [
            -75.353478,
            6.069831
          ],
          [
            -75.353379,
            6.070183
          ],
          [
            -75.353402,
            6.070582
          ],
          [
            -75.353398,
            6.07069
          ],
          [
            -75.35334,
            6.070845
          ],
          [
            -75.353099,
            6.071115
          ],
          [
            -75.352825,
            6.071421
          ],
          [
            -75.352728,
            6.071651
          ],
          [
            -75.352716,
            6.072052
          ],
          [
            -75.352648,
            6.072274
          ],
          [
            -75.352472,
            6.072524
          ],
          [
            -75.352198,
            6.073393
          ],
          [
            -75.352106,
            6.073559
          ],
          [
            -75.351927,
            6.07369
          ],
          [
            -75.351318,
            6.073948
          ],
          [
            -75.350965,
            6.074334
          ],
          [
            -75.350403,
            6.074998
          ],
          [
            -75.350297,
            6.0752
          ],
          [
            -75.350234,
            6.075394
          ],
          [
            -75.350205,
            6.07581
          ],
          [
            -75.350237,
            6.076452
          ],
          [
            -75.350228,
            6.076902
          ],
          [
            -75.3502,
            6.07701
          ],
          [
            -75.350157,
            6.077106
          ],
          [
            -75.349844,
            6.077462
          ],
          [
            -75.349683,
            6.077638
          ],
          [
            -75.349581,
            6.077788
          ],
          [
            -75.349442,
            6.078081
          ],
          [
            -75.3493,
            6.07846
          ],
          [
            -75.349085,
            6.078951
          ],
          [
            -75.348884,
            6.079096
          ],
          [
            -75.348817,
            6.079149
          ],
          [
            -75.348664,
            6.079297
          ],
          [
            -75.34859,
            6.079354
          ],
          [
            -75.348498,
            6.079475
          ],
          [
            -75.348147,
            6.08
          ],
          [
            -75.347865,
            6.080501
          ],
          [
            -75.347743,
            6.080705
          ],
          [
            -75.347649,
            6.080802
          ],
          [
            -75.347535,
            6.080891
          ],
          [
            -75.34738,
            6.080956
          ],
          [
            -75.346776,
            6.081118
          ],
          [
            -75.34669,
            6.081133
          ],
          [
            -75.346532,
            6.081116
          ],
          [
            -75.346459,
            6.081098
          ],
          [
            -75.346322,
            6.081033
          ],
          [
            -75.346077,
            6.080868
          ],
          [
            -75.345776,
            6.080496
          ],
          [
            -75.345697,
            6.080433
          ],
          [
            -75.345572,
            6.080407
          ],
          [
            -75.345364,
            6.080424
          ],
          [
            -75.345302,
            6.080457
          ],
          [
            -75.345169,
            6.080543
          ],
          [
            -75.344903,
            6.080752
          ],
          [
            -75.344773,
            6.080826
          ],
          [
            -75.344683,
            6.080853
          ],
          [
            -75.344239,
            6.080908
          ],
          [
            -75.343972,
            6.080961
          ],
          [
            -75.343578,
            6.0811
          ],
          [
            -75.342741,
            6.081613
          ],
          [
            -75.342571,
            6.08168
          ],
          [
            -75.341721,
            6.081944
          ],
          [
            -75.341525,
            6.082018
          ],
          [
            -75.341363,
            6.08206
          ],
          [
            -75.340903,
            6.082116
          ],
          [
            -75.34059,
            6.082191
          ],
          [
            -75.340172,
            6.082402
          ],
          [
            -75.339738,
            6.082578
          ],
          [
            -75.339653,
            6.082599
          ],
          [
            -75.339461,
            6.082668
          ],
          [
            -75.338765,
            6.082778
          ],
          [
            -75.338666,
            6.082764
          ],
          [
            -75.338455,
            6.082687
          ],
          [
            -75.338353,
            6.082605
          ],
          [
            -75.338192,
            6.08242
          ],
          [
            -75.338011,
            6.08219
          ],
          [
            -75.337753,
            6.081973
          ],
          [
            -75.337663,
            6.08192
          ],
          [
            -75.337513,
            6.081865
          ],
          [
            -75.337263,
            6.081863
          ],
          [
            -75.33655,
            6.082198
          ],
          [
            -75.33626,
            6.082336
          ],
          [
            -75.335478,
            6.082708
          ],
          [
            -75.335405,
            6.082826
          ],
          [
            -75.334896,
            6.083084
          ],
          [
            -75.334743,
            6.083087
          ],
          [
            -75.334089,
            6.083417
          ],
          [
            -75.334448,
            6.084152
          ],
          [
            -75.335109,
            6.083816
          ],
          [
            -75.335197,
            6.083677
          ],
          [
            -75.335708,
            6.083418
          ],
          [
            -75.335851,
            6.08345
          ],
          [
            -75.336187,
            6.08422
          ],
          [
            -75.336297,
            6.084467
          ],
          [
            -75.336531,
            6.08497
          ],
          [
            -75.336944,
            6.08576
          ],
          [
            -75.337163,
            6.086173
          ],
          [
            -75.337243,
            6.086616
          ],
          [
            -75.337348,
            6.087284
          ],
          [
            -75.337477,
            6.087978
          ],
          [
            -75.337475,
            6.088041
          ]
        ],
        "type": "LineString"
      }
    }
  ],
  "metadata": {
    "attribution": "openrouteservice.org | OpenStreetMap contributors",
    "service": "routing",
    "timestamp": 1764859334373,
    "query": {
      "coordinates": [
        [
          -75.4317654,
          6.023090499999999
        ],
        [
          -75.337484,
          6.088041
        ]
      ],
      "profile": "driving-hgv",
      "profileName": "driving-hgv",
      "preference": "recommended",
      "format": "geojson",
      "language": "es",
      "options": {
        "profile_params": {
          "restrictions": {
            "length": 8.0,
            "width": 2.5,
            "height": 3.5
          },
          "surface_quality_known": false,
          "allow_unsuitable": false
        },
        "avoid_polygons": {
          "coordinates": [
            [
              [
                [
                  -75.53398800000001,
                  6.1525436
                ],
                [
                  -75.531988,
                  6.1525436
                ],
                [
                  -75.531988,
                  6.1545436
                ],
                [
                  -75.53398800000001,
                  6.1545436
                ],
                [
                  -75.53398800000001,
                  6.1525436
                ]
              ]
            ],
            [
              [
                [
                  -75.49099790000001,
                  6.0932509999999995
                ],
                [
                  -75.4889979,
                  6.0932509999999995
                ],
                [
                  -75.4889979,
                  6.095251
                ],
                [
                  -75.49099790000001,
                  6.095251
                ],
                [
                  -75.49099790000001,
                  6.0932509999999995
                ]
              ]
            ],
            [
              [
                [
                  -75.44939930000001,
                  6.1764060999999995
                ],
                [
                  -75.4473993,
                  6.1764060999999995
                ],
                [
                  -75.4473993,
                  6.1784061
                ],
                [
                  -75.44939930000001,
                  6.1784061
                ],
                [
                  -75.44939930000001,
                  6.1764060999999995
                ]
              ]
            ],
            [
              [
                [
                  -75.4890572,
                  6.2037862
                ],
                [
                  -75.4870572,
                  6.2037862
                ],
                [
                  -75.4870572,
                  6.2057862
                ],
                [
                  -75.4890572,
                  6.2057862
                ],
                [
                  -75.4890572,
                  6.2037862
                ]
              ]
            ],
            [
              [
                [
                  -75.46672650000001,
                  6.1850524
                ],
                [
                  -75.4647265,
                  6.1850524
                ],
                [
                  -75.4647265,
                  6.187052400000001
                ],
                [
                  -75.46672650000001,
                  6.187052400000001
                ],
                [
                  -75.46672650000001,
                  6.1850524
                ]
              ]
            ],
            [
              [
                [
                  -75.5035304,
                  6.2159613
                ],
                [
                  -75.5015304,
                  6.2159613
                ],
                [
                  -75.5015304,
                  6.217961300000001
                ],
                [
                  -75.5035304,
                  6.217961300000001
                ],
                [
                  -75.5035304,
                  6.2159613
                ]
              ]
            ],
            [
              [
                [
                  -75.4913478,
                  6.170510299999999
                ],
                [
                  -75.48934779999999,
                  6.170510299999999
                ],
                [
                  -75.48934779999999,
                  6.1725103
                ],
                [
                  -75.4913478,
                  6.1725103
                ],
                [
                  -75.4913478,
                  6.170510299999999
                ]
              ]
            ],
            [
              [
                [
                  -75.5250472,
                  6.1422792
                ],
                [
                  -75.5230472,
                  6.1422792
                ],
                [
                  -75.5230472,
                  6.144279200000001
                ],
                [
                  -75.5250472,
                  6.144279200000001
                ],
                [
                  -75.5250472,
                  6.1422792
                ]
              ]
            ],
            [
              [
                [
                  -75.42459550000001,
                  6.123615999999999
                ],
                [
                  -75.4225955,
                  6.123615999999999
                ],
                [
                  -75.4225955,
                  6.125616
                ],
                [
                  -75.42459550000001,
                  6.125616
                ],
                [
                  -75.42459550000001,
                  6.123615999999999
                ]
              ]
            ],
            [
              [
                [
                  -75.5600752,
                  6.2197343
                ],
                [
                  -75.55807519999999,
                  6.2197343
                ],
                [
                  -75.55807519999999,
                  6.2217343000000005
                ],
                [
                  -75.5600752,
                  6.2217343000000005
                ],
                [
                  -75.5600752,
                  6.2197343
                ]
              ]
            ],
            [
              [
                [
                  -75.4291982,
                  6.0892721
                ],
                [
                  -75.42719819999999,
                  6.0892721
                ],
                [
                  -75.42719819999999,
                  6.0912721
                ],
                [
                  -75.4291982,
                  6.0912721
                ],
                [
                  -75.4291982,
                  6.0892721
                ]
              ]
            ],
            [
              [
                [
                  -75.50124240000001,
                  6.1697112
                ],
                [
                  -75.4992424,
                  6.1697112
                ],
                [
                  -75.4992424,
                  6.171711200000001
                ],
                [
                  -75.50124240000001,
                  6.171711200000001
                ],
                [
                  -75.50124240000001,
                  6.1697112
                ]
              ]
            ],
            [
              [
                [
                  -75.4364807,
                  6.1772187
                ],
                [
                  -75.4344807,
                  6.1772187
                ],
                [
                  -75.4344807,
                  6.179218700000001
                ],
                [
                  -75.4364807,
                  6.179218700000001
                ],
                [
                  -75.4364807,
                  6.1772187
                ]
              ]
            ],
            [
              [
                [
                  -75.4336162,
                  6.2493549999999995
                ],
                [
                  -75.4316162,
                  6.2493549999999995
                ],
                [
                  -75.4316162,
                  6.251355
                ],
                [
                  -75.4336162,
                  6.251355
                ],
                [
                  -75.4336162,
                  6.2493549999999995
                ]
              ]
            ],
            [
              [
                [
                  -75.555226,
                  6.133627199999999
                ],
                [
                  -75.553226,
                  6.133627199999999
                ],
                [
                  -75.553226,
                  6.1356272
                ],
                [
                  -75.555226,
                  6.1356272
                ],
                [
                  -75.555226,
                  6.133627199999999
                ]
              ]
            ],
            [
              [
                [
                  -75.481297,
                  6.089910199999999
                ],
                [
                  -75.47929699999999,
                  6.089910199999999
                ],
                [
                  -75.47929699999999,
                  6.0919102
                ],
                [
                  -75.481297,
                  6.0919102
                ],
                [
                  -75.481297,
                  6.089910199999999
                ]
              ]
            ],
            [
              [
                [
                  -75.4232837,
                  6.059844
                ],
                [
                  -75.42128369999999,
                  6.059844
                ],
                [
                  -75.42128369999999,
                  6.061844000000001
                ],
                [
                  -75.4232837,
                  6.061844000000001
                ],
                [
                  -75.4232837,
                  6.059844
                ]
              ]
            ],
            [
              [
                [
                  -75.4577368,
                  6.0576535
                ],
                [
                  -75.4557368,
                  6.0576535
                ],
                [
                  -75.4557368,
                  6.0596535000000005
                ],
                [
                  -75.4577368,
                  6.0596535000000005
                ],
                [
                  -75.4577368,
                  6.0576535
                ]
              ]
            ],
            [
              [
                [
                  -75.43430260000001,
                  6.1414703
                ],
                [
                  -75.4323026,
                  6.1414703
                ],
                [
                  -75.4323026,
                  6.143470300000001
                ],
                [
                  -75.43430260000001,
                  6.143470300000001
                ],
                [
                  -75.43430260000001,
                  6.1414703
                ]
              ]
            ],
            [
              [
                [
                  -75.452403,
                  6.112123599999999
                ],
                [
                  -75.450403,
                  6.112123599999999
                ],
                [
                  -75.450403,
                  6.1141236
                ],
                [
                  -75.452403,
                  6.1141236
                ],
                [
                  -75.452403,
                  6.112123599999999
                ]
              ]
            ],
            [
              [
                [
                  -75.6342218,
                  6.0668213
                ],
                [
                  -75.6322218,
                  6.0668213
                ],
                [
                  -75.6322218,
                  6.068821300000001
                ],
                [
                  -75.6342218,
                  6.068821300000001
                ],
                [
                  -75.6342218,
                  6.0668213
                ]
              ]
            ],
            [
              [
                [
                  -75.4502234,
                  6.0178674
                ],
                [
                  -75.44822339999999,
                  6.0178674
                ],
                [
                  -75.44822339999999,
                  6.019867400000001
                ],
                [
                  -75.4502234,
                  6.019867400000001
                ],
                [
                  -75.4502234,
                  6.0178674
                ]
              ]
            ],
            [
              [
                [
                  -75.4329548,
                  6.008317399999999
                ],
                [
                  -75.4309548,
                  6.008317399999999
                ],
                [
                  -75.4309548,
                  6.0103174
                ],
                [
                  -75.4329548,
                  6.0103174
                ],
                [
                  -75.4329548,
                  6.008317399999999
                ]
              ]
            ],
            [
              [
                [
                  -75.4134652,
                  6.022465599999999
                ],
                [
                  -75.4114652,
                  6.022465599999999
                ],
                [
                  -75.4114652,
                  6.0244656
                ],
                [
                  -75.4134652,
                  6.0244656
                ],
                [
                  -75.4134652,
                  6.022465599999999
                ]
              ]
            ],
            [
              [
                [
                  -75.3412419,
                  6.138306399999999
                ],
                [
                  -75.33924189999999,
                  6.138306399999999
                ],
                [
                  -75.33924189999999,
                  6.1403064
                ],
                [
                  -75.3412419,
                  6.1403064
                ],
                [
                  -75.3412419,
                  6.138306399999999
                ]
              ]
            ]
          ],
          "type": "MultiPolygon"
        }
      }
    },
    "engine": {
      "version": "9.5.0",
      "build_date": "2025-10-31T12:33:09Z",
      "graph_date": "2025-12-01T03:52:42Z",
      "osm_date": "2025-11-24T00:59:59Z"
    }
  }
}